{
  "type" : "FeatureCollection",
  "features" : [{"type":"Feature","id":0,"geometry":{"type":"Polygon","coordinates":[[[14.013258219557548,42.676669771358789],[14.013264995843658,42.676660619087933],[14.013225031878276,42.676645112294572],[14.013267085017825,42.67659012971653],[14.013399543240526,42.676645284864975],[14.013394079054445,42.676652736068895],[14.013397853033352,42.676654325943794],[14.013371833122859,42.676689194496817],[14.013366797864427,42.676687282283233],[14.013362120899567,42.676684957857866],[14.01334646875714,42.676704861159095],[14.013258219557548,42.676669771358789]]]},"properties":{"FID":0,"id":0}},{"type":"Feature","id":1,"geometry":{"type":"Polygon","coordinates":[[[14.013615482279798,42.676735201228134],[14.013569607151657,42.676795070201202],[14.013568209697683,42.676794459724285],[14.013551011457606,42.676786946681119],[14.013549811005779,42.676788855227329],[14.013518940110517,42.676775828772747],[14.01352133798042,42.676772203543386],[14.013420165703375,42.67672927177005],[14.013435012832945,42.676711334190365],[14.01352856319045,42.676751110065936],[14.01353174416167,42.676747299692316],[14.013540654243231,42.676751214198369],[14.013547838740672,42.676740914095646],[14.013496940560957,42.676719847726197],[14.013500460977182,42.67671512880672],[14.013447693465755,42.676694052488784],[14.013454355171964,42.67668497362996],[14.013450303095334,42.676683173712682],[14.013452098664539,42.676680853126911],[14.013446886835792,42.676678455362882],[14.013454378091053,42.676668117930994],[14.013615482279798,42.676735201228134]]]},"properties":{"FID":1,"id":0}},{"type":"Feature","id":2,"geometry":{"type":"Polygon","coordinates":[[[14.013736972530014,42.676892599589586],[14.013731123057374,42.676900704481987],[14.013746881310121,42.67690736437747],[14.013732125337944,42.676927769386261],[14.013616633842643,42.67688005003113],[14.013618371031614,42.676877090719934],[14.013643614002438,42.676871887250897],[14.013634105350084,42.676840047825849],[14.013610067981277,42.676871790256044],[14.013533712187145,42.676840718355166],[14.013568209697683,42.676794459724285],[14.013569607151657,42.676795070201202],[14.013615482279798,42.676735201228134],[14.013789671631452,42.676807733147626],[14.013766039199885,42.676838833262728],[14.013753123009367,42.676833349172036],[14.013751004896394,42.676835729540031],[14.013736669201718,42.676829561615278],[14.013704627203152,42.676833027535451],[14.013712648578272,42.676860248824767],[14.013708999151467,42.676860793065593],[14.013721206696042,42.676886419348556],[14.013736972530014,42.676892599589586]]]},"properties":{"FID":2,"id":0}},{"type":"Feature","id":3,"geometry":{"type":"Polygon","coordinates":[[[14.013736972530014,42.676892599589586],[14.013773562569456,42.676844103015988],[14.013810385259864,42.676859003587076],[14.013835119979825,42.676826657702527],[14.013958920855421,42.676878208012859],[14.013954518447916,42.676883942701849],[14.013953033173879,42.676883306278043],[14.01394187480898,42.6768982254912],[14.013944714587437,42.676899545185506],[14.013897309871195,42.676961788664144],[14.013894470849378,42.676960421003137],[14.013883322316703,42.676974716657575],[14.013886548340418,42.676976279539048],[14.013856276851724,42.677015787803882],[14.0137122785603,42.676953527420459],[14.013732125337944,42.676927769386261],[14.013746881310121,42.67690736437747],[14.013731123057374,42.676900704481987],[14.013736972530014,42.676892599589586]]]},"properties":{"FID":3,"id":0}},{"type":"Feature","id":4,"geometry":{"type":"Polygon","coordinates":[[[14.014096464669803,42.676989647856608],[14.014044654499427,42.676968669825207],[14.014020588469014,42.677002235034841],[14.013999656990686,42.67699380364823],[14.014000861983236,42.67699160730379],[14.013968683189651,42.676979049433051],[14.01402457998813,42.676906037327178],[14.014066705235598,42.6769230891029],[14.01412805391942,42.676948634509401],[14.014098866304073,42.676986529739644],[14.014096464669803,42.676989647856608]]]},"properties":{"FID":4,"id":0}},{"type":"Feature","id":5,"geometry":{"type":"Polygon","coordinates":[[[14.014139509402559,42.677181545714838],[14.014132424029293,42.677190768647741],[14.013987788645535,42.677127639629909],[14.014096464669803,42.676989647856608],[14.014098866304073,42.676986529739644],[14.014120959561163,42.676994751848504],[14.01413450133642,42.676977118721723],[14.014192110517934,42.67700140872649],[14.014174594087139,42.677023708918583],[14.014205731334142,42.677036353711614],[14.014207324839647,42.677034256653002],[14.014241819663622,42.677048369496603],[14.01421384453341,42.677084784503705],[14.014190317969691,42.677115408807772],[14.014139509402559,42.677181545714838]]]},"properties":{"FID":5,"id":0}},{"type":"Feature","id":6,"geometry":{"type":"Polygon","coordinates":[[[14.014241819663622,42.677048369496603],[14.014271469014153,42.677008352121327],[14.014331519874704,42.677033357118155],[14.014273610689523,42.677110143344954],[14.01421384453341,42.677084784503705],[14.014241819663622,42.677048369496603]]]},"properties":{"FID":6,"id":0}},{"type":"Feature","id":7,"geometry":{"type":"Polygon","coordinates":[[[14.01433187504473,42.67714922810314],[14.014378914054573,42.67708677563683],[14.014337306423188,42.677070203020662],[14.014357432956873,42.677044147247209],[14.014519378520943,42.677111580890504],[14.014419891462174,42.677239166961719],[14.014301083296024,42.67719010942502],[14.01433187504473,42.67714922810314]]]},"properties":{"FID":7,"id":0}},{"type":"Feature","id":8,"geometry":{"type":"Polygon","coordinates":[[[14.014812284197278,42.67729736729747],[14.014808373620438,42.677295663469636],[14.01479365923988,42.677317061733063],[14.01474483944172,42.677297509718123],[14.014741450713933,42.677297392767322],[14.014738568474952,42.677296208538337],[14.014736475169689,42.67729864318602],[14.014660416664951,42.677266561498314],[14.014716380799433,42.677193612043752],[14.014849849169122,42.677249187869378],[14.014812284197278,42.67729736729747]]]},"properties":{"FID":8,"id":0}},{"type":"Feature","id":9,"geometry":{"type":"Polygon","coordinates":[[[14.014849849169122,42.677249187869378],[14.014900337096117,42.677270210889596],[14.014880250884579,42.677296217306349],[14.014841208236087,42.677280201516851],[14.014823816688329,42.67730225959906],[14.014812284197278,42.67729736729747],[14.014849849169122,42.677249187869378]]]},"properties":{"FID":9,"id":0}},{"type":"Feature","id":10,"geometry":{"type":"Polygon","coordinates":[[[14.015065310296729,42.677382319707199],[14.015011147638015,42.677360092219352],[14.015008320046077,42.677363100275734],[14.014934822072236,42.677332947170655],[14.014952721666488,42.677309332661018],[14.01496266221727,42.677296162881618],[14.015089931760885,42.677349157534813],[14.015065310296729,42.677382319707199]]]},"properties":{"FID":10,"id":0}},{"type":"Feature","id":11,"geometry":{"type":"Polygon","coordinates":[[[14.0130883164894,42.676824245509323],[14.013079604785331,42.676835252670728],[14.013099323861924,42.676809470730326],[14.013099840705914,42.676809684739666],[14.0130883164894,42.676824245509323]]]},"properties":{"FID":11,"id":0}},{"type":"Feature","id":12,"geometry":{"type":"Polygon","coordinates":[[[14.013231614436419,42.67686248423955],[14.013163808074649,42.676950701341617],[14.013112693076282,42.676929664471508],[14.013109459010201,42.676933175882759],[14.013106985568838,42.67693609686124],[14.013028727377799,42.676901772940113],[14.013079604785331,42.676835252670728],[14.0130883164894,42.676824245509323],[14.013109344315724,42.676833608766074],[14.013112062685876,42.676830274139455],[14.01312471424079,42.676836043854912],[14.013134085289705,42.676823881865367],[14.013135069188978,42.676822604935069],[14.013231614436419,42.67686248423955]]]},"properties":{"FID":12,"id":0}},{"type":"Feature","id":13,"geometry":{"type":"Polygon","coordinates":[[[14.012934011312231,42.677028110426718],[14.012920103766094,42.677046125625651],[14.012918740767491,42.67704557623729],[14.012940667522658,42.677016907841455],[14.01294214050777,42.677017580233112],[14.012934011312231,42.677028110426718]]]},"properties":{"FID":13,"id":0}},{"type":"Feature","id":14,"geometry":{"type":"Polygon","coordinates":[[[14.012940667522658,42.677016907841455],[14.01299491203403,42.676945985212086],[14.013037206044279,42.67696329811946],[14.013038911768907,42.676961107617991],[14.013041557650732,42.676962205606003],[14.013071135715085,42.676974534811926],[14.013069179973472,42.676976920533505],[14.013120384381031,42.676998725303136],[14.013121030105482,42.676999753233325],[14.01309155611237,42.677039471710806],[14.013094720835786,42.677041051341632],[14.013084409061685,42.6770546023861],[14.013075238120789,42.677066654218073],[14.013072359948866,42.677065470081821],[14.013046637492257,42.677099302876073],[14.013043980804232,42.677098241739564],[14.012936983011384,42.677051787878362],[14.012948952841667,42.677034908899969],[14.012934011312231,42.677028110426718],[14.01294214050777,42.677017580233112],[14.012940667522658,42.677016907841455]]]},"properties":{"FID":14,"id":0}},{"type":"Feature","id":15,"geometry":{"type":"Polygon","coordinates":[[[14.013115756706609,42.67712924781469],[14.013119653126951,42.67712494673227],[14.013111986440466,42.677121818264119],[14.013186461271657,42.677021961051217],[14.013349067514083,42.677089613468219],[14.013335457507717,42.677107439376528],[14.013341876008736,42.677110540236981],[14.013322501129613,42.677135222894854],[14.013328709836761,42.677137291206598],[14.013297106678982,42.67717875470732],[14.013290777063839,42.677176109686854],[14.013278317606817,42.677191065598208],[14.013168962089553,42.677145893202251],[14.013165640436911,42.67715037396308],[14.013137090824104,42.677138597465344],[14.013115756706609,42.67712924781469]]]},"properties":{"FID":15,"id":0}},{"type":"Feature","id":16,"geometry":{"type":"Polygon","coordinates":[[[14.013530162501356,42.677422685484586],[14.013443341830792,42.677387301851141],[14.013434028471464,42.67740065382489],[14.013330167651608,42.677357447795295],[14.013287045513215,42.677337983425531],[14.01333126100919,42.677280126166906],[14.013408767616101,42.677312455388602],[14.01346919961142,42.677232286805989],[14.013464425578428,42.677229943025971],[14.01350942697597,42.677171708689244],[14.013511882791077,42.677172641310243],[14.013515764113185,42.677167072971386],[14.013517927021349,42.677163769215809],[14.013676455427929,42.677229297966853],[14.013682385166762,42.677232203876592],[14.013579784679278,42.677365969714643],[14.013545965855714,42.677410061006412],[14.01354015473977,42.677407516409524],[14.013530162501356,42.677422685484586]]]},"properties":{"FID":16,"id":0}},{"type":"Feature","id":17,"geometry":{"type":"Polygon","coordinates":[[[14.013579055023476,42.676921174318835],[14.013575074249276,42.676926225080869],[14.013607500335626,42.67694780394978],[14.013616003804133,42.67695324894526],[14.01362449194046,42.676958696029551],[14.01363928206594,42.676969810362827],[14.013678847463209,42.676984046677532],[14.013670078648557,42.676994971736967],[14.013690090894995,42.677003970933647],[14.013684513567506,42.677011310612997],[14.0137802439982,42.677050608549813],[14.013778497709131,42.67705414345054],[14.013775918248486,42.677061029225428],[14.013776005780867,42.677063716417585],[14.013777024175747,42.677073319609427],[14.013780264912315,42.677082174382249],[14.01378002520646,42.677097331506872],[14.013777492775217,42.677101243415535],[14.013781234299552,42.677103098571301],[14.01372145592619,42.677183081060818],[14.013713194100566,42.67717951900697],[14.013587026258525,42.677127506619414],[14.0135891163532,42.677124357972119],[14.013420244556832,42.677054483204721],[14.013275837874842,42.676994682274739],[14.013232553156632,42.676976834425673],[14.013285175819215,42.67690585650773],[14.013319795518589,42.676860596577612],[14.013341792907388,42.676869239777368],[14.013351640669727,42.676854980942991],[14.013407188212826,42.676878054280721],[14.013474458332878,42.676883430901732],[14.013512579571755,42.676898438696917],[14.013514587412049,42.676894810108642],[14.013579055023476,42.676921174318835]]]},"properties":{"FID":17,"id":0}},{"type":"Feature","id":18,"geometry":{"type":"Polygon","coordinates":[[[14.012577943064988,42.677498036048156],[14.012577903703408,42.67749808744091],[14.012573945894394,42.677496382315184],[14.012577943064988,42.677498036048156]]]},"properties":{"FID":18,"id":0}},{"type":"Feature","id":19,"geometry":{"type":"Polygon","coordinates":[[[14.01272074231972,42.677522037608981],[14.01271708432901,42.677526740238292],[14.012721270084219,42.677528199691736],[14.012721457370672,42.67752892875486],[14.012721644657214,42.677529657817892],[14.012704795673939,42.677552739629284],[14.012589447713777,42.677503059429512],[14.012608994440326,42.677475037255327],[14.012667656482749,42.677498521574975],[14.012667857041519,42.677499521116843],[14.01272074231972,42.677522037608981]]]},"properties":{"FID":19,"id":0}},{"type":"Feature","id":20,"geometry":{"type":"Polygon","coordinates":[[[14.012957903826953,42.67759281775686],[14.012944943227071,42.677610671624755],[14.012943230803179,42.677610009244468],[14.012789509859561,42.677546958501267],[14.012886571379005,42.677419883261514],[14.012889542862597,42.677419947804019],[14.012942835469547,42.677442262120813],[14.012943842490147,42.677440869168301],[14.012968378516691,42.677450892019117],[14.012967335091345,42.677452362526481],[14.013022796556632,42.677475448223213],[14.013020429146541,42.677478334909125],[14.012935415179742,42.677584180869296],[14.012957903826953,42.67759281775686]]]},"properties":{"FID":20,"id":0}},{"type":"Feature","id":21,"geometry":{"type":"Polygon","coordinates":[[[14.012788972690585,42.677429787945428],[14.012795884627296,42.677432956788131],[14.012754091716475,42.677488822995791],[14.012727166464847,42.677524671845632],[14.01272074231972,42.677522037608981],[14.012667857041519,42.677499521116843],[14.012667656482749,42.677498521574975],[14.012608994440326,42.677475037255327],[14.012594601522624,42.677469375934407],[14.012647355652932,42.67740040192168],[14.012664795763355,42.677407158015413],[14.012667848327423,42.677403250615228],[14.012675865065097,42.677406102101209],[14.012687561340689,42.677390084291375],[14.012788972690585,42.677429787945428]]]},"properties":{"FID":21,"id":0}},{"type":"Feature","id":22,"geometry":{"type":"Polygon","coordinates":[[[14.012687561340689,42.677390084291375],[14.012691407647429,42.677385320234315],[14.012667193485909,42.677374464711882],[14.012692861096435,42.677340905290237],[14.012719982835955,42.677352403154146],[14.0127221968285,42.677351270906868],[14.012723704595656,42.677350942768022],[14.012726309571446,42.677350666728294],[14.01273016709961,42.677350927095759],[14.012752028450384,42.6773600417892],[14.012752614374227,42.677360999582604],[14.012753696058391,42.677362032310903],[14.012754201933999,42.677362932150572],[14.012754479376069,42.677363659453768],[14.012754175609546,42.677364594956913],[14.012752702676037,42.677366373220224],[14.012778887873248,42.677376960888836],[14.012780066489741,42.677375521223468],[14.012781175173286,42.677374848509139],[14.012782164915263,42.677374387978951],[14.012783500682493,42.67737397307306],[14.012786071343244,42.677374235341937],[14.012808135053215,42.677383434387728],[14.01281053509045,42.67738567674256],[14.01281132313448,42.677387005432699],[14.012811073777323,42.677388154614249],[14.012810063786832,42.677389894226437],[14.012816995783053,42.677392860305282],[14.012788972690585,42.677429787945428],[14.012687561340689,42.677390084291375]]]},"properties":{"FID":22,"id":0}},{"type":"Feature","id":23,"geometry":{"type":"Polygon","coordinates":[[[14.012923831012783,42.677252787380738],[14.012881034255267,42.677307445539803],[14.012856819429745,42.677338054226496],[14.012795554130244,42.677313202348344],[14.01279721284954,42.677311079107469],[14.01274944199942,42.677290624482367],[14.012777809653334,42.677254010302498],[14.012826086146804,42.677273869242768],[14.012862616011182,42.677227768322268],[14.012923831012783,42.677252787380738]]]},"properties":{"FID":23,"id":0}},{"type":"Feature","id":24,"geometry":{"type":"Polygon","coordinates":[[[14.013048483109161,42.67737223097042],[14.013018869419261,42.677413820211541],[14.012918078934414,42.677371720669107],[14.012949020375645,42.677330734024899],[14.012952256175895,42.677332084038596],[14.013048483109161,42.67737223097042]]]},"properties":{"FID":24,"id":0}},{"type":"Feature","id":25,"geometry":{"type":"Polygon","coordinates":[[[14.013165640436911,42.67715037396308],[14.013169648231807,42.677151835662819],[14.013109145130256,42.677228261650491],[14.013150487952577,42.677245120263215],[14.013048483109161,42.67737223097042],[14.012952256175895,42.677332084038596],[14.012949020375645,42.677330734024899],[14.012951358392714,42.677327636963092],[14.013025152868666,42.677229884689972],[14.013025563743378,42.677229382227985],[14.013025891312283,42.677229508032951],[14.013032995401955,42.677232236406127],[14.013111479718956,42.677127373429244],[14.013115756706609,42.67712924781469],[14.013137090824104,42.677138597465344],[14.013165640436911,42.67715037396308]]]},"properties":{"FID":25,"id":0}},{"type":"Feature","id":26,"geometry":{"type":"Polygon","coordinates":[[[14.013043980804232,42.677098241739564],[14.01303550755866,42.67710907029948],[14.013041622512004,42.67711166668996],[14.013044697985924,42.677112939084147],[14.013031967576309,42.677130479552872],[14.013030361136705,42.677129738939165],[14.012991198173788,42.67718152136667],[14.01294340063515,42.677245428748897],[14.012939974251617,42.677244101415809],[14.012934135741675,42.6772418188757],[14.012925439097293,42.677253424185658],[14.012923831012783,42.677252787380738],[14.012862616011182,42.677227768322268],[14.012816385966056,42.677207509436677],[14.012821290572644,42.677201603165472],[14.012817419059401,42.677199746858093],[14.012832563912683,42.677179441264443],[14.012837340954823,42.67718159320831],[14.012861666194157,42.677148126427589],[14.012847076568294,42.677141572426422],[14.01287415785413,42.677106498343498],[14.012887467094862,42.677111794031831],[14.012892129884927,42.677104734342727],[14.012894584928651,42.677105714942506],[14.012933008726838,42.677052317301886],[14.012935457695511,42.677053681625296],[14.012936983011384,42.677051787878362],[14.013043980804232,42.677098241739564]]]},"properties":{"FID":26,"id":0}},{"type":"Feature","id":27,"geometry":{"type":"Polygon","coordinates":[[[14.013289072079418,42.676787730746113],[14.013241600874673,42.676849491707436],[14.013231614436419,42.67686248423955],[14.013135069188978,42.676822604935069],[14.013134085289705,42.676823881865367],[14.013099840705914,42.676809684739666],[14.013158872752099,42.676731698975956],[14.01317316061659,42.676737847824228],[14.013289072079418,42.676787730746113]]]},"properties":{"FID":27,"id":0}},{"type":"Feature","id":28,"geometry":{"type":"Polygon","coordinates":[[[14.01334646875714,42.676704861159095],[14.013351461322967,42.676707369690703],[14.013350417638806,42.676708736680865],[14.013312215682985,42.676757620414904],[14.013289072079418,42.676787730746113],[14.01317316061659,42.676737847824228],[14.013233943715411,42.676667271556909],[14.013242859838096,42.676670802361272],[14.013247492195882,42.676665661279664],[14.013258219557548,42.676669771358789],[14.01334646875714,42.676704861159095]]]},"properties":{"FID":28,"id":0}},{"type":"Feature","id":29,"geometry":{"type":"Polygon","coordinates":[[[14.013533712187145,42.676840718355166],[14.013531253672154,42.67684406722266],[14.013382292519941,42.676779611902113],[14.013374812429438,42.676776588472521],[14.013371739428651,42.676775160371768],[14.013409891533415,42.67672497838236],[14.01341247950956,42.67672593509414],[14.013420165703375,42.67672927177005],[14.01352133798042,42.676772203543386],[14.013518940110517,42.676775828772747],[14.013549811005779,42.676788855227329],[14.013551011457606,42.676786946681119],[14.013568209697683,42.676794459724285],[14.013533712187145,42.676840718355166]]]},"properties":{"FID":29,"id":0}},{"type":"Feature","id":30,"geometry":{"type":"Polygon","coordinates":[[[14.013824945642542,42.678035186602145],[14.013570307544823,42.677925514341453],[14.013601580383719,42.677884144626063],[14.013610099072318,42.677888151699847],[14.013591216791868,42.677914565637728],[14.013616654996921,42.677925818290852],[14.013625951706457,42.677913521546515],[14.013708358809465,42.677948483258263],[14.013729475561279,42.677920553434035],[14.013723916831713,42.677918490740907],[14.013743568519279,42.67789275501562],[14.013749127247246,42.677894817707774],[14.013814550344142,42.677809503196315],[14.013819452937939,42.677803127756583],[14.013820384673961,42.67780204562176],[14.013897684217794,42.677834533338007],[14.0138990478788,42.677832831974158],[14.013959931896894,42.677857858696989],[14.013957826816695,42.677860831701317],[14.013824945642542,42.678035186602145]]]},"properties":{"FID":30,"id":0}},{"type":"Feature","id":31,"geometry":{"type":"Polygon","coordinates":[[[14.014379872279983,42.677843668076754],[14.014372546715029,42.67785470640851],[14.014515031545185,42.677914170552434],[14.014483924564816,42.677957173752368],[14.014469063936355,42.677951289236027],[14.014436264674826,42.677994825096896],[14.014433378004012,42.677998296892191],[14.014423406223012,42.677994178449538],[14.014180066343387,42.677892765665504],[14.014182691723745,42.677889395167043],[14.014175852645552,42.677886849912014],[14.014222164646542,42.677825925061605],[14.0142502117963,42.677788748058532],[14.014379872279983,42.677843668076754]]]},"properties":{"FID":31,"id":0}},{"type":"Feature","id":32,"geometry":{"type":"Polygon","coordinates":[[[14.014029071814596,42.677779970601989],[14.014025531062993,42.677784747503445],[14.013961483046058,42.677758648294962],[14.013834419853202,42.677705330669092],[14.013660196557234,42.677630282750634],[14.013636064225546,42.677619510232823],[14.013700002157295,42.677529194893168],[14.01376810089541,42.677441905866317],[14.013864054848105,42.677480848475099],[14.013866699098523,42.677478088858209],[14.01387256841449,42.677481065688639],[14.013882123514756,42.677468867091214],[14.013968172060023,42.677503764024024],[14.013958087818137,42.677516533738732],[14.014099561495533,42.677578196413698],[14.014101283515215,42.677576196407138],[14.014165672848103,42.677603011785322],[14.014135268316055,42.677642611319818],[14.014137712181876,42.67764399689441],[14.014060902160422,42.677745448827487],[14.01405616312166,42.67774302008992],[14.014029071814596,42.677779970601989]]]},"properties":{"FID":32,"id":0}},{"type":"Feature","id":33,"geometry":{"type":"Polygon","coordinates":[[[14.0142502117963,42.677788748058532],[14.014296146975516,42.677727860036974],[14.014325381881479,42.677691780745242],[14.014333656008018,42.67769480845088],[14.014336250606332,42.677691533140191],[14.014347159187571,42.677695320031702],[14.014351403177619,42.677690068959592],[14.014447515847975,42.677729955951349],[14.01445118806908,42.677738942342714],[14.014458187821946,42.677742158069861],[14.014457128847349,42.677743342930604],[14.014379872279983,42.677843668076754],[14.0142502117963,42.677788748058532]]]},"properties":{"FID":33,"id":0}},{"type":"Feature","id":34,"geometry":{"type":"Polygon","coordinates":[[[14.014419891462174,42.677239166961719],[14.014434588744409,42.677245320144038],[14.014401556252468,42.67728767778712],[14.014392713171089,42.677298643295622],[14.014149218377694,42.677196669851625],[14.014154943878745,42.677188180094369],[14.014139509402559,42.677181545714838],[14.014190317969691,42.677115408807772],[14.014205405519922,42.67712174127459],[14.014220398662916,42.677102777409893],[14.01433187504473,42.67714922810314],[14.014301083296024,42.67719010942502],[14.014419891462174,42.677239166961719]]]},"properties":{"FID":34,"id":0}},{"type":"Feature","id":35,"geometry":{"type":"Polygon","coordinates":[[[14.01479365923988,42.677317061733063],[14.014755976594964,42.677368257274203],[14.014731087346791,42.677399144506531],[14.014716804851693,42.677415677399011],[14.014714250384566,42.677414785848001],[14.014711747030242,42.677418309513804],[14.014700097666635,42.677413338308043],[14.014678172599362,42.677403768488794],[14.01467192376076,42.677407989101276],[14.014597678297472,42.677377338819142],[14.014597998514036,42.677375719477858],[14.014598604531939,42.677374180634317],[14.014600161347238,42.677372231904521],[14.014584567435831,42.67736562051175],[14.014585504529789,42.67736320936509],[14.01461145634604,42.677331057597712],[14.014631667336255,42.677303938778962],[14.014626589526261,42.677301782856681],[14.014649229248358,42.677273435990934],[14.014653889347153,42.677275673137224],[14.014660416664951,42.677266561498314],[14.014736475169689,42.67729864318602],[14.014738568474952,42.677296208538337],[14.014741450713933,42.677297392767322],[14.01474483944172,42.677297509718123],[14.01479365923988,42.677317061733063]]]},"properties":{"FID":35,"id":0}},{"type":"Feature","id":36,"geometry":{"type":"Polygon","coordinates":[[[14.012957903826953,42.67759281775686],[14.012995431447164,42.67754233448747],[14.013075167532898,42.677574321118769],[14.013050158045173,42.677607344300114],[14.01303558151559,42.677601363402204],[14.013020385414057,42.677621445237776],[14.013033007635991,42.677627353241995],[14.013016235650946,42.677648734464832],[14.013042418109903,42.677658966826726],[14.013086670986732,42.677601999638959],[14.013091328097341,42.677603915223713],[14.013094051169686,42.677600300318005],[14.013151186835307,42.677624568078166],[14.013081967209898,42.677715186864859],[14.012917173091546,42.677644210276164],[14.012943230803179,42.677610009244468],[14.012944943227071,42.677610671624755],[14.012957903826953,42.67759281775686]]]},"properties":{"FID":36,"id":0}},{"type":"Feature","id":37,"geometry":{"type":"Polygon","coordinates":[[[14.014153577373259,42.6781767278137],[14.014009803566443,42.678114804642838],[14.01402366977578,42.67809638541474],[14.014021065512308,42.67809539644788],[14.014050486301935,42.678057328875227],[14.014052937372481,42.67805825966694],[14.014076170879422,42.678026506680652],[14.014082910422568,42.678029123204361],[14.014087399075306,42.678023021411427],[14.01407546089686,42.678017801627888],[14.014092225669186,42.677995544736177],[14.014104080508163,42.678001161791535],[14.014111089430584,42.677991613485119],[14.014105046892913,42.677988775539241],[14.014144922203256,42.677937664230988],[14.014198487611543,42.677959624837477],[14.014194774766755,42.677964176884039],[14.014286582143212,42.678001589510551],[14.014243346881353,42.678058386987495],[14.014276204661849,42.678072111169904],[14.014268019180578,42.678083194233793],[14.014248095541751,42.678109428937184],[14.014262344192987,42.678115271309814],[14.014248073250959,42.678135358267156],[14.014199931843299,42.678115878119705],[14.014153577373259,42.6781767278137]]]},"properties":{"FID":37,"id":0}},{"type":"Feature","id":38,"geometry":{"type":"Polygon","coordinates":[[[14.012943230803179,42.677610009244468],[14.012917173091546,42.677644210276164],[14.012762125123482,42.67757743134036],[14.012784365026024,42.677548171731402],[14.012786536971047,42.67754556596487],[14.012789509859561,42.677546958501267],[14.012943230803179,42.677610009244468]]]},"properties":{"FID":38,"id":0}}]
}