{
  "type" : "FeatureCollection",
  "features" : [{"type":"Feature","id":0,"geometry":{"type":"LineString","coordinates":[[14.012733357774215,42.677287957428831],[14.012734288880074,42.677288350437657],[14.012857206782774,42.677338860887616],[14.01292383101273,42.677252787380716],[14.013117370555788,42.67699999106199],[14.012992902784232,42.676948612229602]]},"properties":{"FID":0,"id":0}},{"type":"Feature","id":1,"geometry":{"type":"LineString","coordinates":[[14.013816865610645,42.678031706544019],[14.013947417184729,42.677864648298112],[14.013814550344089,42.677809503196293],[14.013697242277628,42.677759522222978],[14.013153844984066,42.677534719080924],[14.013119615451702,42.677519265790366],[14.013059079727979,42.677494501182579],[14.013020429146488,42.677478334909104],[14.012889534580458,42.677422217778158],[14.012792406774659,42.67754851407576],[14.012768893241317,42.677580346358965]]},"properties":{"FID":1,"id":0}},{"type":"Feature","id":2,"geometry":{"type":"LineString","coordinates":[[14.013392281286857,42.676642261009391],[14.013157428295047,42.676948000863092],[14.013033493888843,42.676895540908845]]},"properties":{"FID":2,"id":0}},{"type":"Feature","id":3,"geometry":{"type":"LineString","coordinates":[[14.014720094618498,42.678118284602782],[14.014610436933433,42.678068750855545],[14.014448895951775,42.678000072128043],[14.014436264674861,42.677994825096874],[14.014188296748225,42.677891905895891],[14.014347159187606,42.677695320031681],[14.014351403177654,42.677690068959571],[14.01444751584801,42.677729955951413],[14.014451188069115,42.677738942342692],[14.014458187821981,42.67774215806984],[14.014457128847296,42.677743342930675],[14.0144885868062,42.677756747298687],[14.014515244346287,42.677766871778786],[14.014519867870694,42.677759404383288],[14.014540311806572,42.677731052860999],[14.014566653349208,42.677695204461997],[14.0145616638976,42.677692773590671],[14.014558868879339,42.6776904468826],[14.014556429322427,42.677687568888309],[14.014554581077848,42.677683843143619],[14.014553865599327,42.677681576968553],[14.014553727957695,42.677679315764884],[14.014555819784141,42.677674941648434],[14.014593427828197,42.677606355927423],[14.014644251787905,42.677513322164152],[14.014658530785445,42.677487433454928],[14.014661542571643,42.677479698542044],[14.014663002440047,42.677467771374523],[14.014662631793156,42.677461968890519],[14.014700097666671,42.677413338308021],[14.014601329973269,42.677373258117747],[14.014586203484052,42.677366993930796],[14.014634243667794,42.677305032630443],[14.014655500181233,42.677276446440757],[14.014718249330842,42.677194390094506]]},"properties":{"FID":3,"id":0}},{"type":"Feature","id":4,"geometry":{"type":"MultiLineString","coordinates":[[[14.014516423912331,42.677110350600302],[14.014418064387007,42.677238408013331],[14.014386278121743,42.677280210291059],[14.014430549379957,42.677298217808755],[14.014417308142962,42.677314994153427],[14.01441387264814,42.677316748056491],[14.014411426892275,42.677317531885137],[14.014408129683547,42.677318035968312],[14.014405779370447,42.677318090040529],[14.014404866156143,42.677318001695198],[14.014403028524763,42.677317472001931],[14.014400867507709,42.677316698063947],[14.014389123306097,42.67731172442609],[14.01435588651198,42.67734890838183],[14.01431262762795,42.677397447669264],[14.01426733897379,42.677449114669983],[14.014250242456699,42.677474327244504],[14.014213308170136,42.677530424821043],[14.014198985832065,42.677553184729398],[14.01417186779234,42.677596180257162],[14.014025531063028,42.677784747503424],[14.013961483046005,42.67775864829494],[14.013834419853238,42.677705330669156],[14.01366019655727,42.677630282750613],[14.013636311869886,42.677619994217828],[14.013610816119487,42.677652842755499],[14.01349206465296,42.677603385921046],[14.013484906150458,42.67761532368818],[14.013412840810274,42.677578928697422],[14.013417562194713,42.677572012180022],[14.013312990195741,42.677529062497719],[14.013148874845365,42.67746088949874],[14.012932049840925,42.67736891584525]],[[14.012932049840925,42.67736891584525],[14.013115551829729,42.67712808501264],[14.013189808746434,42.677032212388134],[14.013344740327954,42.677095362630325],[14.013515764113221,42.677167072971365],[14.013674895225774,42.67723118828274],[14.013676455427964,42.677229297966832],[14.013682385166708,42.677232203876571],[14.013676455427964,42.677229297966832],[14.013678723026961,42.677226047021989],[14.013711354323471,42.677182410250637],[14.013713194100601,42.677179519006948],[14.013714915598124,42.677177144888624],[14.013589116353236,42.677124357972183],[14.013420244556867,42.677054483204699],[14.013275837874788,42.676994682274803],[14.013232553156579,42.676976834425652],[14.01328517581925,42.676905856507709],[14.013319795518536,42.67686059657759],[14.013320521387145,42.676859647615352],[14.013382292519887,42.676779611902091],[14.01342016570341,42.676729271770029],[14.013435012832892,42.676711334190429],[14.013447693465791,42.676694052488763],[14.013454355172,42.676684973629939],[14.013463569802125,42.676671945331677]]]},"properties":{"FID":4,"id":0}},{"type":"Feature","id":5,"geometry":{"type":"LineString","coordinates":[[14.01269856492428,42.677550056054393],[14.012816995783089,42.677392860305261],[14.012694033033506,42.677339373027102]]},"properties":{"FID":5,"id":0}},{"type":"Feature","id":6,"geometry":{"type":"LineString","coordinates":[[14.014681438622583,42.678169058362116],[14.014634473020687,42.678149550777412],[14.014630960451429,42.678142790722141],[14.014574442317612,42.678119334265361],[14.014532184087097,42.678101828663685],[14.014477522687068,42.678079269870985],[14.014474347094213,42.678082739181335],[14.014435769575611,42.678066373902247],[14.014288310212935,42.678006259204317],[14.01414522363506,42.677946078792104],[14.014015211376856,42.678117133778905]]},"properties":{"FID":6,"id":0}}]
}