{
  "type" : "FeatureCollection",
  "features" : [{"type":"Feature","id":0,"geometry":{"type":"Polygon","coordinates":[[[14.013951858672216,42.677858342902844],[14.013979711607819,42.677870515021887],[14.013982442086418,42.677873267606891],[14.013984429781315,42.677878261379398],[14.013983796777355,42.677881135885457],[14.013982522236526,42.677883473034505],[14.013978552775766,42.677888526458766],[14.013856837829467,42.678048922520887],[14.013816865610599,42.678031706543976],[14.013947417184772,42.677864648298161],[14.013951858672216,42.677858342902844]]]},"properties":{"FID":0,"id":0}},{"type":"Feature","id":1,"geometry":{"type":"Polygon","coordinates":[[[14.014025531062982,42.677784747503466],[14.014171867792383,42.677596180257204],[14.014175854071157,42.677597637548381],[14.014180718103445,42.677599933057763],[14.014184751856332,42.677603794020072],[14.014186970472556,42.677607825099898],[14.014187416070337,42.677612546732135],[14.0141870919576,42.677617125530368],[14.014145830606553,42.67767052935617],[14.014034612729334,42.677818066296169],[14.014024124187211,42.677831787343848],[14.013998837549982,42.677820760248252],[14.014025531062982,42.677784747503466]]]},"properties":{"FID":1,"id":0}},{"type":"Feature","id":2,"geometry":{"type":"Polygon","coordinates":[[[14.014560141532476,42.677128554485236],[14.01446511230399,42.677253572801554],[14.014440923657437,42.67728444535274],[14.014430549379911,42.677298217808712],[14.014386278121785,42.677280210291102],[14.01441806438705,42.677238408013288],[14.014516423912285,42.677110350600344],[14.014560141532476,42.677128554485236]]]},"properties":{"FID":2,"id":0}},{"type":"Feature","id":3,"geometry":{"type":"Polygon","coordinates":[[[14.014436264674815,42.677994825096832],[14.014448895951817,42.678000072128086],[14.014445288456004,42.678004953149632],[14.014183875689993,42.677897526284006],[14.014188296748268,42.677891905895848],[14.014436264674815,42.677994825096832]]]},"properties":{"FID":3,"id":0}},{"type":"Feature","id":4,"geometry":{"type":"Polygon","coordinates":[[[14.014577207691184,42.678116223878973],[14.014628864386372,42.678138756775233],[14.014630960451472,42.678142790722184],[14.014574442317565,42.678119334265318],[14.014576860431985,42.678116080805061],[14.014577207691184,42.678116223878973]]]},"properties":{"FID":4,"id":0}},{"type":"Feature","id":5,"geometry":{"type":"Polygon","coordinates":[[[14.014296146975505,42.677727860036995],[14.014250211796289,42.677788748058553],[14.014222164646531,42.677825925061541],[14.014171476451112,42.677892606922107],[14.014154388848047,42.677885387008288],[14.014151583610582,42.677883431167373],[14.014149849338922,42.677881670284116],[14.014148196670609,42.677878993785711],[14.014147609834607,42.67787577543222],[14.014147531429858,42.677873559544658],[14.014147919956935,42.67787208187476],[14.014150351629665,42.677868068712868],[14.014264094828169,42.677720363510041],[14.014291314899699,42.677685006013022],[14.014301359958528,42.677673493868632],[14.01430630173112,42.677670409325074],[14.014312504859531,42.677667961050247],[14.014321947466938,42.677665313229177],[14.014328426425818,42.677664914136948],[14.014336121928897,42.677665548918242],[14.014343192087578,42.677666746876064],[14.014352561912316,42.677668703748331],[14.014415065645794,42.677684263133308],[14.014433937834406,42.677689542546304],[14.014450057971365,42.67769343373643],[14.014472786685209,42.67770335164861],[14.014540311806615,42.677731052860956],[14.014519867870737,42.677759404383245],[14.014504935729702,42.677753476614299],[14.014488586806243,42.677756747298737],[14.014457128847338,42.677743342930633],[14.014458187821935,42.67774215806989],[14.014451188069069,42.677738942342735],[14.014447515847964,42.677729955951371],[14.014351403177608,42.677690068959528],[14.01434715918756,42.677695320031638],[14.014336250606322,42.677691533140219],[14.014333656008008,42.677694808450909],[14.014325381881468,42.677691780745263],[14.014296146975505,42.677727860036995]]]},"properties":{"FID":5,"id":0}},{"type":"Feature","id":6,"geometry":{"type":"Polygon","coordinates":[[[14.014025531062982,42.677784747503466],[14.013998837549982,42.677820760248252],[14.013988322676122,42.677816143514328],[14.013985089916639,42.677814455085638],[14.013983480628559,42.677813162379429],[14.01398184635522,42.677811222509924],[14.013981457928596,42.677809090764384],[14.013981783631527,42.677806290307274],[14.013981947303714,42.677804838173572],[14.013990994741002,42.67779328771627],[14.013642923674633,42.677647895582737],[14.013627132734433,42.67766766794302],[14.013624507770542,42.677669046968447],[14.01362203417135,42.677669752438085],[14.013619497615496,42.677669990155486],[14.013617562693939,42.677669999448675],[14.01361605395263,42.67766975285091],[14.013581974231096,42.677655936224312],[14.013486498482633,42.677616127858997],[14.0134849061505,42.677615323688222],[14.013492064653002,42.677603385921095],[14.013610816119529,42.677652842755542],[14.01363631186984,42.677619994217785],[14.013660196557224,42.677630282750656],[14.013834419853191,42.677705330669113],[14.013961483046048,42.677758648294898],[14.014025531062982,42.677784747503466]]]},"properties":{"FID":6,"id":0}},{"type":"Feature","id":7,"geometry":{"type":"Polygon","coordinates":[[[14.013148874845319,42.677460889498697],[14.013312990195695,42.677529062497676],[14.013417562194666,42.677572012179979],[14.013412840810227,42.677578928697471],[14.013396878255216,42.677570867153683],[14.013310348695521,42.677534821468754],[14.013203269031541,42.677490292717046],[14.013145054903534,42.677466783832784],[14.013148874845319,42.677460889498697]]]},"properties":{"FID":7,"id":0}},{"type":"Feature","id":8,"geometry":{"type":"Polygon","coordinates":[[[14.012808135053204,42.677383434387664],[14.012814516069453,42.677386094830197],[14.012819740610341,42.677388271952502],[14.012821682297597,42.677389738510932],[14.012822638292525,42.677391409783475],[14.012823365725838,42.677393633551574],[14.012823278560985,42.677393745049855],[14.012823396245247,42.677395199606863],[14.012823092678032,42.677396598621009],[14.012805411345012,42.677420222037924],[14.012795884627375,42.677432956788067],[14.012788972690574,42.677429787945456],[14.012816995783131,42.677392860305311],[14.01281006378691,42.677389894226373],[14.012811073777312,42.67738815461427],[14.01281132313447,42.677387005432635],[14.01281053509044,42.677385676742588],[14.012808135053204,42.677383434387664]]]},"properties":{"FID":8,"id":0}},{"type":"Feature","id":9,"geometry":{"type":"Polygon","coordinates":[[[14.014718249333461,42.677194390095622],[14.01466189960591,42.67726807800242],[14.014655500181187,42.677276446440807],[14.014634243667748,42.6773050326304],[14.014611467803887,42.677332241205079],[14.014586203484006,42.677366993930754],[14.014601329973312,42.67737325811779],[14.014700097666625,42.677413338307979],[14.01466263179311,42.677461968890476],[14.014660429590601,42.677455041961579],[14.014657388777666,42.67744998406117],[14.014650146094501,42.677440199406838],[14.014643989018319,42.677434858846574],[14.014630493599403,42.677425787954363],[14.014607468114862,42.67741271202096],[14.014581003931395,42.677397815540019],[14.014569406165714,42.677390099716661],[14.014562876455964,42.67738395996502],[14.014558720754669,42.677378750330966],[14.014554064371035,42.677371091588256],[14.014551548166546,42.677364531519238],[14.014550162476583,42.677359573139839],[14.014549492645992,42.677353199523537],[14.014549917502231,42.677348256721196],[14.014551031160552,42.677346048925024],[14.014592404565521,42.677292732965469],[14.014680223207124,42.677178556131523],[14.014718249333461,42.677194390095622]]]},"properties":{"FID":9,"id":0}},{"type":"Feature","id":10,"geometry":{"type":"Polygon","coordinates":[[[14.013163808074639,42.676950701341553],[14.013161783658893,42.676951749503111],[14.013160475107936,42.676952271252688],[14.013159142051071,42.676952515618815],[14.013157523789991,42.676952522997446],[14.013155679457215,42.676952208614082],[14.013109459010279,42.67693317588278],[14.01306982428722,42.676916891469943],[14.013029789365353,42.676900384431896],[14.013033493888797,42.676895540908802],[14.013157428295001,42.676948000863135],[14.01339228128681,42.676642261009434],[14.013399061547963,42.67664508428971],[14.013366797864416,42.676687282283169],[14.013312215683063,42.676757620414932],[14.013231614436409,42.676862484239578],[14.013163808074639,42.676950701341553]]]},"properties":{"FID":10,"id":0}},{"type":"Feature","id":11,"geometry":{"type":"Polygon","coordinates":[[[14.013463569802079,42.676671945331634],[14.013454355171953,42.676684973629897],[14.013447693465745,42.676694052488806],[14.013435012832934,42.676711334190387],[14.013420165703364,42.676729271769986],[14.01338229251993,42.676779611902141],[14.013320521387099,42.676859647615309],[14.013319795518578,42.67686059657764],[14.013285175819204,42.676905856507666],[14.013232553156621,42.676976834425695],[14.013275837874831,42.67699468227476],[14.013420244556821,42.677054483204657],[14.01358911635319,42.67712435797214],[14.013714915598078,42.677177144888581],[14.013713194100555,42.677179519006991],[14.013711354323425,42.67718241025068],[14.013589874156876,42.677132047510391],[14.013322168278167,42.677021245155636],[14.013225360803419,42.676981191493205],[14.013223545383427,42.676980319301194],[14.013222260015526,42.676979295938914],[14.013221745568819,42.676978460910952],[14.013221511445254,42.676976583563963],[14.013223780897436,42.676973583469483],[14.013292363104194,42.676882921297491],[14.013374812429428,42.676776588472542],[14.013412479509638,42.676725935094161],[14.013446886835782,42.676678455362904],[14.013454378091575,42.676668117931193],[14.013463569802079,42.676671945331634]]]},"properties":{"FID":11,"id":0}},{"type":"Feature","id":12,"geometry":{"type":"Polygon","coordinates":[[[14.012864141170992,42.677341486181511],[14.012861050185125,42.677345428811286],[14.012858810561172,42.677346094722523],[14.012857564844575,42.677346297195939],[14.012856409177635,42.677346287236084],[14.012855803127314,42.677346239371083],[14.012808167467719,42.677327151680458],[14.01272963557482,42.677293896415158],[14.012729015775941,42.677293634425972],[14.012733357774168,42.677287957428881],[14.012734288880027,42.677288350437706],[14.012857206782817,42.677338860887659],[14.012923831012772,42.677252787380759],[14.013117370555742,42.67699999106204],[14.012992902784186,42.676948612229651],[14.012996733066766,42.676943604281284],[14.013038911768897,42.67696110761802],[14.013071135715075,42.676974534811954],[14.013071641610045,42.676974745687183],[14.013120094697276,42.676995119568339],[14.013122841968398,42.676996806272093],[14.013124385871892,42.676998873682074],[14.01312446491613,42.67699954729062],[14.013124571854233,42.677000458607949],[14.013124190557994,42.677002324163482],[14.013094720835776,42.677041051341568],[14.013075238120779,42.677066654218102],[14.013073249642419,42.677069267341508],[14.013041622511993,42.677111666689981],[14.012939974251607,42.677244101415837],[14.012881586374407,42.677319234376753],[14.012864141170992,42.677341486181511]]]},"properties":{"FID":12,"id":0}},{"type":"Feature","id":13,"geometry":{"type":"Polygon","coordinates":[[[14.012932049840968,42.677368915845207],[14.012927055693828,42.677375470210166],[14.012918078934403,42.677371720669136],[14.013025563743367,42.677229382227921],[14.013068485921979,42.677176892288863],[14.013110619339356,42.677121754781055],[14.013186300963079,42.677022713080703],[14.013348374883231,42.677090202713963],[14.013440652455303,42.677127543774695],[14.013576814688525,42.677183743462713],[14.013678723026915,42.677226047022032],[14.013676455427918,42.67722929796679],[14.013674895225817,42.677231188282782],[14.013515764113174,42.677167072971322],[14.013344740327996,42.677095362630368],[14.013189808746477,42.677032212388177],[14.013115551829683,42.677128085012683],[14.012932049840968,42.677368915845207]]]},"properties":{"FID":13,"id":0}},{"type":"Feature","id":14,"geometry":{"type":"Polygon","coordinates":[[[14.013148874845319,42.677460889498697],[14.013145054903534,42.677466783832784],[14.013064871850004,42.677433035085166],[14.012953066487968,42.677386334763426],[14.012927055693828,42.677375470210166],[14.012932049840968,42.677368915845207],[14.013148874845319,42.677460889498697]]]},"properties":{"FID":14,"id":0}},{"type":"Feature","id":15,"geometry":{"type":"Polygon","coordinates":[[[14.012792406774613,42.677548514075802],[14.012768893241359,42.677580346358923],[14.012762580913455,42.677577627648425],[14.012786556329241,42.677545940753802],[14.012792406774613,42.677548514075802]]]},"properties":{"FID":15,"id":0}},{"type":"Feature","id":16,"geometry":{"type":"Polygon","coordinates":[[[14.013951858672216,42.677858342902844],[14.013947417184772,42.677864648298161],[14.013814550344131,42.677809503196251],[14.01369724227767,42.677759522222935],[14.013153844984108,42.677534719080882],[14.013119615451656,42.677519265790323],[14.013059079728022,42.677494501182622],[14.013020429146531,42.677478334909061],[14.0128895345805,42.677422217778116],[14.012792406774613,42.677548514075802],[14.012786556329241,42.677545940753802],[14.012884618162738,42.677417997850867],[14.012886031492902,42.677417321930832],[14.012887760710383,42.677416973447635],[14.012889378658114,42.677416987391148],[14.012893753893399,42.677418374815105],[14.012920170747437,42.67742958191053],[14.013032428156672,42.677475894602438],[14.013119723058734,42.677512466213955],[14.013163527376507,42.677529719892085],[14.013443264968709,42.677647266218976],[14.013654788216515,42.677734731990668],[14.013780169671689,42.677786904380191],[14.013819452937929,42.677803127756611],[14.013951858672216,42.677858342902844]]]},"properties":{"FID":16,"id":0}},{"type":"Feature","id":17,"geometry":{"type":"Polygon","coordinates":[[[14.014145223635103,42.677946078792154],[14.014015211376899,42.678117133778862],[14.013973478811495,42.678099159623272],[14.013986054412856,42.678082529924588],[14.01407442277384,42.677967353039762],[14.014098872531436,42.677935789618282],[14.014101236016577,42.677932512323849],[14.014107306659055,42.677928698380022],[14.014111175097158,42.6779277082722],[14.014117190015677,42.677927418909533],[14.014121943450833,42.677928938075219],[14.014144922203245,42.677937664231017],[14.014150028144959,42.677939757553418],[14.014146498840111,42.677944401019566],[14.014145223635103,42.677946078792154]]]},"properties":{"FID":17,"id":0}},{"type":"Feature","id":18,"geometry":{"type":"Polygon","coordinates":[[[14.014150028144959,42.677939757553418],[14.014198487611621,42.677959624837506],[14.014312956680245,42.678008198300269],[14.01439839476201,42.678043388147834],[14.014489472868666,42.678080076282498],[14.014534632542622,42.67809868251905],[14.01453218408705,42.678101828663728],[14.014477522687022,42.678079269870942],[14.014474347094255,42.678082739181292],[14.014435769575654,42.678066373902205],[14.014288310212889,42.678006259204359],[14.014145223635103,42.677946078792154],[14.014146498840111,42.677944401019566],[14.014150028144959,42.677939757553418]]]},"properties":{"FID":18,"id":0}},{"type":"Feature","id":19,"geometry":{"type":"Polygon","coordinates":[[[14.012795884627375,42.677432956788067],[14.012754091716465,42.677488822995812],[14.012725940908291,42.677524250963394],[14.012704837175308,42.677552757503811],[14.012698522919257,42.677550037962867],[14.012788972690574,42.677429787945456],[14.012795884627375,42.677432956788067]]]},"properties":{"FID":19,"id":0}},{"type":"Feature","id":20,"geometry":{"type":"Polygon","coordinates":[[[14.012808135053204,42.677383434387664],[14.01281053509044,42.677385676742588],[14.01281132313447,42.677387005432635],[14.012811073777312,42.67738815461427],[14.01281006378691,42.677389894226373],[14.012693207770935,42.677340452026435],[14.01269620360163,42.677336535092103],[14.012724493579546,42.677348561623432],[14.012808135053204,42.677383434387664]]]},"properties":{"FID":20,"id":0}}]
}