{
  "type" : "FeatureCollection",
  "features" : [{"type":"Feature","id":0,"geometry":{"type":"Polygon","coordinates":[[[14.014147531429911,42.677873559544658],[14.014147609834572,42.67787577543222],[14.014148196670662,42.677878993785711],[14.014149849338976,42.677881670284116],[14.014151583610547,42.677883431167373],[14.014154388848011,42.677885387008288],[14.014171476451077,42.677892606922107],[14.014183875690046,42.677897526284006],[14.014445288455969,42.678004953149632],[14.014448895951782,42.678000072128086],[14.01461043693344,42.678068750855502],[14.014594759149213,42.678088060673339],[14.014706740160433,42.678133200987226],[14.01468143862259,42.678169058362158],[14.014634473020694,42.678149550777455],[14.014630960451436,42.678142790722184],[14.014628864386426,42.678138756775233],[14.014577207691238,42.678116223878973],[14.014576860432038,42.678116080805061],[14.014534632542675,42.67809868251905],[14.014489472868631,42.678080076282498],[14.014398394761974,42.678043388147834],[14.014312956680209,42.678008198300269],[14.014198487611585,42.677959624837506],[14.014150028144924,42.677939757553418],[14.014144922203299,42.677937664231017],[14.014121943450798,42.677928938075219],[14.014117190015641,42.677927418909533],[14.014111175097122,42.6779277082722],[14.014107306659108,42.677928698380022],[14.014147531429911,42.677873559544658]]]},"properties":{"FID":0,"id":0,"NAME":"Via Volturno"}},{"type":"Feature","id":1,"geometry":{"type":"Polygon","coordinates":[[[14.014549917502196,42.677348256721196],[14.014549492646045,42.677353199523537],[14.014550162476636,42.677359573139839],[14.01455154816651,42.677364531519238],[14.014554064371,42.677371091588256],[14.014558720754634,42.677378750330966],[14.014562876455928,42.67738395996502],[14.014569406165679,42.677390099716661],[14.01458100393136,42.677397815540019],[14.014607468114916,42.67741271202096],[14.014630493599368,42.677425787954363],[14.014643989018372,42.677434858846574],[14.014650146094466,42.677440199406838],[14.014657388777719,42.67744998406117],[14.014660429590565,42.677455041961579],[14.014662631793074,42.677461968890476],[14.014663002440054,42.677467771374566],[14.01466154257165,42.677479698542086],[14.014658530785452,42.677487433454978],[14.014644251787912,42.67751332216411],[14.014593427828204,42.677606355927381],[14.014555819784148,42.677674941648483],[14.014553727957702,42.677679315764841],[14.014553865599334,42.677681576968595],[14.014554581077855,42.677683843143669],[14.014556429322434,42.677687568888267],[14.014558868879346,42.677690446882643],[14.014561663897608,42.677692773590714],[14.014566653349215,42.67769520446204],[14.014540311806579,42.677731052860956],[14.014472786685173,42.67770335164861],[14.014450057971329,42.67769343373643],[14.014433937834371,42.677689542546304],[14.014415065645759,42.677684263133308],[14.014352561912281,42.677668703748331],[14.014343192087543,42.677666746876064],[14.014336121928862,42.677665548918242],[14.014328426425783,42.677664914136948],[14.014321947466991,42.677665313229177],[14.014312504859584,42.677667961050247],[14.014306301731084,42.677670409325074],[14.014301359958582,42.677673493868632],[14.014352911532081,42.677606039046459],[14.014410930487765,42.677631436907426],[14.014414026545486,42.67763299865576],[14.014417349694709,42.677634818209242],[14.014422083910395,42.677635114796708],[14.014428340716224,42.677634145228993],[14.014433263176619,42.677631574347089],[14.014438124866514,42.677628941260274],[14.014442924342353,42.677626246750414],[14.014447660178698,42.677623491617844],[14.014452330969474,42.677620676680583],[14.014456935327436,42.677617802774492],[14.014461471885587,42.677614870753025],[14.014465939296651,42.677611881486854],[14.014470336233954,42.677608835863637],[14.014474661391963,42.677605734787797],[14.014478913486284,42.677602579180288],[14.014483091254283,42.677599369977962],[14.01448719345535,42.677596108134011],[14.014491218871262,42.677592794616906],[14.014495166306796,42.677589430410656],[14.014499034589734,42.67758601651429],[14.014502822571307,42.677582553941484],[14.014506529126814,42.67757904372057],[14.014510153155536,42.677575486893915],[14.014513693581266,42.677571884517562],[14.014517149352846,42.677568237661411],[14.014520519443897,42.67756454740833],[14.014523802853796,42.677560814854246],[14.014526998607591,42.677557041107328],[14.014530105756174,42.677553227288378],[14.014533123376994,42.67754937452991],[14.014536050573879,42.677545483975898],[14.014538886477746,42.677541556781684],[14.014541630246425,42.677537594113538],[14.01454428106519,42.677533597148113],[14.014546838146758,42.677529567072369],[14.014549300732005,42.677525505082869],[14.014551668089604,42.677521412386021],[14.014553939516651,42.677517290197123],[14.014556114338484,42.677513139740164],[14.014558191909488,42.677508962247678],[14.014560171612645,42.677504758960183],[14.014562052860159,42.677500531125837],[14.014563835093364,42.677496280000163],[14.014565517783085,42.677492006845441],[14.014567100429632,42.67748771293062],[14.014568817923779,42.677485083910327],[14.014570158556895,42.677480703330787],[14.014571047028058,42.677475679232849],[14.014570847718867,42.677470006148269],[14.014570522736514,42.677464971610682],[14.014569219477414,42.677459672805284],[14.014566704113053,42.67745427828801],[14.014563992491192,42.677450331906122],[14.014559957239859,42.677446033001331],[14.014556136278978,42.677442801987034],[14.014553104074269,42.677440857015029],[14.01454915205076,42.677438605636119],[14.014500013892418,42.677413555835933],[14.014549917502196,42.677348256721196]]]},"properties":{"FID":1,"id":0,"NAME":" "}},{"type":"Feature","id":2,"geometry":{"type":"Polygon","coordinates":[[[14.013711354323478,42.67718241025068],[14.013678723026969,42.677226047022032],[14.013576814688578,42.677183743462713],[14.013440652455357,42.677127543774695],[14.013348374883284,42.677090202713963],[14.013186300963133,42.677022713080703],[14.013221511445218,42.676976583563963],[14.013221745568783,42.676978460910952],[14.01322226001558,42.676979295938914],[14.013223545383481,42.676980319301194],[14.013225360803384,42.676981191493205],[14.01332216827822,42.677021245155636],[14.01358987415693,42.677132047510391],[14.013711354323478,42.67718241025068]]]},"properties":{"FID":2,"id":0,"NAME":"Via Giannina Milli"}},{"type":"Feature","id":3,"geometry":{"type":"Polygon","coordinates":[[[14.012861050185178,42.677345428811286],[14.012823365725803,42.677393633551574],[14.012822638292489,42.677391409783475],[14.012821682297561,42.677389738510932],[14.012819740610395,42.677388271952502],[14.012814516069417,42.677386094830197],[14.012724493579599,42.677348561623432],[14.012696203601594,42.677336535092103],[14.012729015775905,42.677293634425972],[14.012729635574784,42.677293896415158],[14.012808167467684,42.677327151680458],[14.012855803127367,42.677346239371083],[14.0128564091776,42.677346287236084],[14.012857564844539,42.677346297195939],[14.012858810561136,42.677346094722523],[14.012861050185178,42.677345428811286]]]},"properties":{"FID":3,"id":0,"NAME":"Via Triboletti"}},{"type":"Feature","id":4,"geometry":{"type":"Polygon","coordinates":[[[14.013711354323478,42.67718241025068],[14.013713194100609,42.677179519006991],[14.013721455926143,42.677183081060846],[14.013781234299506,42.677103098571322],[14.013777492775171,42.677101243415564],[14.013780025206502,42.6770973315069],[14.013815794889096,42.677053788599395],[14.013928855446101,42.677101855105015],[14.013690053028084,42.677411860912798],[14.013579784679321,42.677365969714664],[14.013682385166716,42.677232203876613],[14.013676455427971,42.67722929796679],[14.013678723026969,42.677226047022032],[14.013711354323478,42.67718241025068]]]},"properties":{"FID":4,"id":0,"NAME":"Via Guiseppe Garibaldi"}},{"type":"Feature","id":5,"geometry":{"type":"Polygon","coordinates":[[[14.014107306659108,42.677928698380022],[14.01410123601663,42.677932512323849],[14.014098872531401,42.677935789618282],[14.014074422773893,42.677967353039762],[14.014050144788671,42.677957089112361],[14.013962328547814,42.678072319053953],[14.01398605441282,42.678082529924588],[14.013973478811193,42.678099159623095],[14.01388206818759,42.678059789199644],[14.014003674759246,42.677898952001236],[14.013978552775731,42.677888526458766],[14.01398252223658,42.677883473034505],[14.013983796777408,42.677881135885457],[14.01398442978128,42.677878261379398],[14.014024124187175,42.677831787343848],[14.014034612729299,42.677818066296169],[14.014057200965647,42.677827218716679],[14.014168469831501,42.677680451200494],[14.014145830606607,42.67767052935617],[14.014187091957565,42.677617125530368],[14.014417308142969,42.67731499415347],[14.014430549379965,42.677298217808712],[14.014440923657491,42.67728444535274],[14.014465112303954,42.677253572801554],[14.014491591777768,42.677265058089567],[14.014587499838994,42.677139946401354],[14.014655170484259,42.677168124253498],[14.014568530198114,42.677282179806767],[14.014592404565574,42.677292732965469],[14.014551031160517,42.677346048925024],[14.014549917502196,42.677348256721196],[14.014500013892418,42.677413555835933],[14.014352911532081,42.677606039046459],[14.014301359958582,42.677673493868632],[14.014291314899664,42.677685006013022],[14.014264094828134,42.677720363510041],[14.014241447682375,42.677710161980201],[14.014126016173313,42.677856538804726],[14.014150351629629,42.677868068712868],[14.014147919956988,42.67787208187476],[14.014147531429911,42.677873559544658],[14.014107306659108,42.677928698380022]]]},"properties":{"FID":5,"id":0,"NAME":"SS16"}},{"type":"Feature","id":6,"geometry":{"type":"Polygon","coordinates":[[[14.012884618162703,42.677417997850867],[14.012786556329205,42.677545940753802],[14.012762580913508,42.677577627648425],[14.012704837175272,42.677552757503811],[14.012725940908256,42.677524250963394],[14.012754091716518,42.677488822995812],[14.012795884627339,42.677432956788067],[14.012805411345065,42.677420222037924],[14.012823092677996,42.677396598621009],[14.012823396245212,42.677395199606863],[14.012823278560949,42.677393745049855],[14.012823365725803,42.677393633551574],[14.012861050185178,42.677345428811286],[14.012864141171045,42.677341486181511],[14.01288158637446,42.677319234376753],[14.012939974251571,42.677244101415837],[14.013041622512047,42.677111666689981],[14.013073249642384,42.677069267341508],[14.013075238120743,42.677066654218102],[14.013084409061728,42.677054602386121],[14.013094720835829,42.677041051341568],[14.013124190558047,42.677002324163482],[14.013124571854197,42.677000458607949],[14.013124464916183,42.67699954729062],[14.013124385871945,42.676998873682074],[14.013163808074603,42.676950701341553],[14.013231614436373,42.676862484239578],[14.013312215683028,42.676757620414932],[14.01336679786438,42.676687282283169],[14.013399061548016,42.676645084289625],[14.013454378091096,42.67666811793093],[14.013446886835835,42.676678455362904],[14.013412479509602,42.676725935094161],[14.013374812429392,42.676776588472542],[14.013292363104247,42.676882921297491],[14.0132237808974,42.676973583469483],[14.013221511445218,42.676976583563963],[14.013186300963133,42.677022713080703],[14.01311061933932,42.677121754781055],[14.013068485921943,42.677176892288863],[14.013025563743421,42.677229382227921],[14.013025152868709,42.677229884689993],[14.012951358392668,42.677327636963113],[14.012949020375599,42.67733073402492],[14.012918078934456,42.677371720669136],[14.012884618162703,42.677417997850867]]]},"properties":{"FID":6,"id":0,"NAME":"Via Camillo Benso Conte di Cavour"}},{"type":"Feature","id":7,"geometry":{"type":"Polygon","coordinates":[[[14.013163808074603,42.676950701341553],[14.013124385871945,42.676998873682074],[14.013122841968363,42.676996806272093],[14.01312009469733,42.676995119568339],[14.013071641610098,42.676974745687183],[14.013041557650686,42.676962205606031],[14.012996733066997,42.676943604281014],[14.013016992297734,42.676917116109713],[14.013057529435914,42.67693361860686],[14.013069824287273,42.676916891469943],[14.013109459010243,42.67693317588278],[14.013155679457268,42.676952208614082],[14.013157523789955,42.676952522997446],[14.013159142051036,42.676952515618815],[14.013160475107989,42.676952271252688],[14.013161783658946,42.676951749503111],[14.013163808074603,42.676950701341553]]]},"properties":{"FID":7,"id":0,"NAME":"Via Giannina Milli"}},{"type":"Feature","id":8,"geometry":{"type":"Polygon","coordinates":[[[14.014024124187175,42.677831787343848],[14.01398442978128,42.677878261379398],[14.013982442086471,42.677873267606891],[14.013979711607872,42.677870515021887],[14.013951858672181,42.677858342902844],[14.013819452937982,42.677803127756611],[14.013780169671742,42.677786904380191],[14.013654788216479,42.677734731990668],[14.013574616011249,42.677701273715229],[14.013530225869198,42.677682744483391],[14.013443264968673,42.677647266218976],[14.013163527376561,42.677529719892085],[14.013119723058788,42.677512466213955],[14.013032428156636,42.677475894602438],[14.01292017074749,42.67742958191053],[14.012893753893364,42.677418374815105],[14.012889378658167,42.677416987391148],[14.012887760710347,42.677416973447635],[14.012886031492956,42.677417321930832],[14.012884618162703,42.677417997850867],[14.012918078934456,42.677371720669136],[14.012927055693792,42.677375470210166],[14.012953066487933,42.677386334763426],[14.01294127738384,42.677404042570821],[14.012996506811715,42.677427245282487],[14.013009185246462,42.677409775200658],[14.013064871850057,42.677433035085166],[14.013145054903587,42.677466783832784],[14.013203269031594,42.677490292717046],[14.013310348695486,42.677534821468754],[14.01339687825527,42.677570867153683],[14.013412840810281,42.677578928697471],[14.013484906150465,42.677615323688222],[14.013486498482598,42.677616127858997],[14.013581974231149,42.677655936224312],[14.013616053952594,42.67766975285091],[14.013617562693904,42.677669999448675],[14.01361949761546,42.677669990155486],[14.013622034171403,42.677669752438085],[14.013624507770507,42.677669046968447],[14.013627132734397,42.67766766794302],[14.013628067645035,42.677687512958698],[14.013952930920871,42.677823413058846],[14.013981846355273,42.677811222509924],[14.013983480628523,42.677813162379429],[14.013985089916693,42.677814455085638],[14.013988322676086,42.677816143514328],[14.013998837550036,42.677820760248252],[14.014024124187175,42.677831787343848]]]},"properties":{"FID":8,"id":0,"NAME":"Via Triboletti"}}]
}