{
  "type" : "FeatureCollection",
  "features" : [{"type":"Feature","id":0,"geometry":{"type":"Point","coordinates":[14.013137577689983,42.676944363269953]},"properties":{"FID":0,"FID_1":320,"descrizion":"STOP","misurazion":3.044,"FOTO":"2025-10-12 204307","_id":"68ec04d4327c9b19d14231c9","lat":4725413.08729624,"long":419142.01586310001}},{"type":"Feature","id":1,"geometry":{"type":"Point","coordinates":[14.013420228549981,42.677573148930016]},"properties":{"FID":1,"FID_1":332,"descrizion":"Divieto di sosta","misurazion":2.4950000000000001,"FOTO":"2025-10-12 211811","_id":"68ec0d0dee73ade3962b3f45","lat":4725482.6393999401,"long":419165.98994920001}},{"type":"Feature","id":2,"geometry":{"type":"Point","coordinates":[14.014095484879963,42.677729666159998]},"properties":{"FID":2,"FID_1":240,"descrizion":"parcheggio","misurazion":2.9510000000000001,"FOTO":"2025-10-10 113957","_id":"68e8e287327c9b19d140edbc","lat":4725499.3739699796,"long":419221.5193175}},{"type":"Feature","id":3,"geometry":{"type":"Point","coordinates":[14.014253079490013,42.677746192440004]},"properties":{"FID":3,"FID_1":239,"descrizion":"parcheggio","misurazion":2.8090000000000002,"FOTO":"2025-10-10 113733","_id":"68e8e1f540a521334f2a51b6","lat":4725501.0584866405,"long":419234.45308514999}},{"type":"Feature","id":4,"geometry":{"type":"Point","coordinates":[14.014462568689943,42.677252777190027]},"properties":{"FID":4,"FID_1":234,"descrizion":"parcheggio","misurazion":3.1160000000000001,"FOTO":"2025-10-10 095242","_id":"68e8c9643db1f9a9ae88275f","lat":4725446.0678109704,"long":419250.97845812002}},{"type":"Feature","id":5,"geometry":{"type":"Point","coordinates":[14.013445146150058,42.677657624499993]},"properties":{"FID":5,"FID_1":333,"descrizion":"area pedonale","misurazion":2.4870000000000001,"FOTO":"2025-10-12 211915","_id":"68ec0d4940a521334f2b9a05","lat":4725491.9960210696,"long":419168.14105391002}},{"type":"Feature","id":6,"geometry":{"type":"Point","coordinates":[14.013163861939946,42.676944308009965]},"properties":{"FID":6,"FID_1":318,"descrizion":"Senso vietato","misurazion":2.6829999999999998,"FOTO":"2025-10-12 204017","_id":"68ec042a327c9b19d14231c0","lat":4725413.0560133802,"long":419144.16939345002}},{"type":"Feature","id":7,"geometry":{"type":"Point","coordinates":[14.012961359590046,42.677386725020035]},"properties":{"FID":7,"FID_1":331,"descrizion":"Divieto di sosta","misurazion":2.5710000000000002,"FOTO":"2025-10-12 211329","_id":"68ec0bee3db1f9a9ae8a0791","lat":4725462.3772486299,"long":419128.15109924}},{"type":"Feature","id":8,"geometry":{"type":"Point","coordinates":[14.014199781240031,42.677546829509978]},"properties":{"FID":8,"FID_1":238,"descrizion":"fermata o stazione dei taxi","misurazion":2.9550000000000001,"FOTO":"2025-10-10 113413","_id":"68e8e1b2a9446d322450ccca","lat":4725478.9714877103,"long":419229.82792240003}},{"type":"Feature","id":9,"geometry":{"type":"Point","coordinates":[14.013861787209979,42.678037409329988]},"properties":{"FID":9,"FID_1":245,"descrizion":"parcheggio","misurazion":2.3809999999999998,"FOTO":"2025-10-10 114933","_id":"68e8e4c4ee73ade3962a5fcd","lat":4725533.7702108696,"long":419202.77026275999}},{"type":"Feature","id":10,"geometry":{"type":"Point","coordinates":[14.014503245919979,42.677201771800028]},"properties":{"FID":10,"FID_1":233,"descrizion":"parcheggio","misurazion":2.802,"FOTO":"2025-10-10 095131","_id":"68e8c91c3db1f9a9ae8826b2","lat":4725440.3651360897,"long":419254.24529006}},{"type":"Feature","id":11,"geometry":{"type":"Point","coordinates":[14.014410303359993,42.677628674979964]},"properties":{"FID":11,"FID_1":236,"descrizion":"Senso vietato","misurazion":2.831,"FOTO":"2025-10-10 100646","_id":"68e8ccb0235c67814ea05168","lat":4725487.8587107798,"long":419247.18288775999}},{"type":"Feature","id":12,"geometry":{"type":"Point","coordinates":[14.013496936370061,42.677608695219966]},"properties":{"FID":12,"FID_1":336,"descrizion":"Passaggio pedonale","misurazion":2.7189999999999999,"FOTO":"2025-10-12 212312","_id":"68ec0e37327c9b19d14231f6","lat":4725486.5132154198,"long":419172.32102054998}},{"type":"Feature","id":13,"geometry":{"type":"Point","coordinates":[14.013607791380041,42.677653614850009]},"properties":{"FID":13,"FID_1":338,"descrizion":"Divieto di sosta","misurazion":2.52,"FOTO":"2025-10-12 212520","_id":"68ec0eb6327c9b19d14231ff","lat":4725491.3952293396,"long":419181.46205391001}},{"type":"Feature","id":14,"geometry":{"type":"Point","coordinates":[14.013116392240011,42.676997536399966]},"properties":{"FID":14,"FID_1":319,"descrizion":"Senso vietato","misurazion":2.867,"FOTO":"2025-10-12 204143","_id":"68ec047da9446d322451fc0a","lat":4725419.01208911,"long":419140.34897846001}},{"type":"Feature","id":15,"geometry":{"type":"Point","coordinates":[14.013496979409947,42.677609369920049]},"properties":{"FID":15,"FID_1":335,"descrizion":"Divieto di sosta","misurazion":2.3490000000000002,"FOTO":"2025-10-12 212204","_id":"68ec0df340a521334f2b9a0e","lat":4725486.5880952403,"long":419172.32542150997}},{"type":"Feature","id":16,"geometry":{"type":"Point","coordinates":[14.013497326670016,42.677609132529994]},"properties":{"FID":16,"FID_1":337,"descrizion":"Direzione obbligatoria diritto","misurazion":3.1890000000000001,"FOTO":"2025-10-12 212402","_id":"68ec0e67a9446d322451fccf","lat":4725486.5614025304,"long":419172.35356629}},{"type":"Feature","id":17,"geometry":{"type":"Point","coordinates":[14.014532783190038,42.677443679750013]},"properties":{"FID":17,"FID_1":235,"descrizion":"segnali di divieto di sosta","misurazion":2.431,"FOTO":"2025-10-10 100323","_id":"68e8cc2f327c9b19d14012e4","lat":4725467.1991926096,"long":419256.97863955999}},{"type":"Feature","id":18,"geometry":{"type":"Point","coordinates":[14.014109847680034,42.677710201310035]},"properties":{"FID":18,"FID_1":241,"descrizion":"Divieto di sosta","misurazion":2.2210000000000001,"FOTO":"2025-10-10 114122","_id":"68e8e2db235c67814ea1183a","lat":4725497.1987991799,"long":419222.67090576002}},{"type":"Feature","id":19,"geometry":{"type":"Point","coordinates":[14.013136597610057,42.676944340589962]},"properties":{"FID":19,"FID_1":321,"descrizion":"Direzione obbligatoria a sinistra","misurazion":2.0600000000000001,"FOTO":"2025-10-12 204448","_id":"68ec0537a9446d322451fc13","lat":4725413.0857154503,"long":419141.93553076999}},{"type":"Feature","id":20,"geometry":{"type":"Point","coordinates":[14.014027076270038,42.678108860480023]},"properties":{"FID":20,"FID_1":243,"descrizion":"Direzione obbligatoria diritto","misurazion":2.4430000000000001,"FOTO":"2025-10-10 114647","_id":"68e8e41f3db1f9a9ae89166b","lat":4725541.5463808896,"long":419216.40556002001}},{"type":"Feature","id":21,"geometry":{"type":"Point","coordinates":[14.014668954970046,42.677199851550014]},"properties":{"FID":21,"FID_1":232,"descrizion":"parcheggio","misurazion":3.8399999999999999,"FOTO":"2025-10-10 094934","_id":"68e8c8a562a14f418ccc92c4","lat":4725439.9935988104,"long":419267.82013102999}},{"type":"Feature","id":22,"geometry":{"type":"Point","coordinates":[14.014252356730065,42.677746090390016]},"properties":{"FID":22,"FID_1":237,"descrizion":"parcheggio","misurazion":3.1659999999999999,"FOTO":"2025-10-10 100931","_id":"68e8cd55235c67814ea05872","lat":4725501.0478453701,"long":419234.39373434999}},{"type":"Feature","id":23,"geometry":{"type":"Point","coordinates":[14.014028608650012,42.677822112679983]},"properties":{"FID":23,"FID_1":242,"descrizion":"Divieto di sosta","misurazion":2.9710000000000001,"FOTO":"2025-10-10 114309","_id":"68e8e347ee73ade3962a5bf3","lat":4725509.7034675796,"long":419216.15963925997}},{"type":"Feature","id":24,"geometry":{"type":"Point","coordinates":[14.013449112640014,42.677654940839979]},"properties":{"FID":24,"FID_1":334,"descrizion":"Direzione obbligatoria diritto","misurazion":3.1880000000000002,"FOTO":"2025-10-12 212035","_id":"68ec0d99327c9b19d14231ed","lat":4725491.6942246901,"long":419168.46256621002}}]
}