{
  "type" : "FeatureCollection",
  "features" : [{"type":"Feature","id":0,"geometry":{"type":"Polygon","coordinates":[[[14.014192036115087,42.677678143505531],[14.014186219795628,42.677675620217819],[14.014212235915176,42.677643308378293],[14.014217499742351,42.677645601002745],[14.014192036115087,42.677678143505531]]]},"properties":{"FID":0,"FID_1":224,"id":0,"TYPE":"Marcha a piedi"}},{"type":"Feature","id":1,"geometry":{"type":"Polygon","coordinates":[[[14.014413872648117,42.677316748056533],[14.014417308142933,42.677314994153441],[14.014187091957574,42.677617125530332],[14.014187416070355,42.677612546732135],[14.014186970472567,42.677607825099919],[14.014184751856323,42.677603794020051],[14.014180718103473,42.677599933057806],[14.014175854071192,42.677597637548423],[14.014171867792381,42.677596180257162],[14.014198985832056,42.677553184729355],[14.014213308170145,42.677530424821079],[14.014250242456733,42.677474327244482],[14.014267338973831,42.677449114669976],[14.014312627627939,42.677397447669293],[14.014355886512,42.677348908381823],[14.014389123306094,42.677311724426083],[14.014400867507705,42.677316698063962],[14.014403028524756,42.677317472001945],[14.014404866156106,42.677318001695177],[14.014405779370442,42.677318090040522],[14.01440812968351,42.677318035968348],[14.014411426892266,42.677317531885109],[14.014413872648117,42.677316748056533]]]},"properties":{"FID":1,"FID_1":308,"id":0,"TYPE":"Parking"}},{"type":"Feature","id":2,"geometry":{"type":"Polygon","coordinates":[[[14.014390130785632,42.677604596096003],[14.014362916059335,42.677592948182522],[14.014484270459954,42.677434156159933],[14.014510077849172,42.677445465271163],[14.014390130785632,42.677604596096003]]]},"properties":{"FID":2,"FID_1":310,"id":0,"TYPE":"Parking"}},{"type":"Feature","id":3,"geometry":{"type":"Polygon","coordinates":[[[14.0142388752319,42.677647813733373],[14.014248433880795,42.677635387714048],[14.014249888746626,42.677635968793126],[14.014240522710084,42.677648396470225],[14.0142388752319,42.677647813733373]]]},"properties":{"FID":3,"FID_1":239,"id":0,"TYPE":"Centerline"}},{"type":"Feature","id":4,"geometry":{"type":"Polygon","coordinates":[[[14.014415324685517,42.678035621565414],[14.01441081140713,42.678026670043728],[14.014423694037811,42.678024327195381],[14.014420291693163,42.678029128278936],[14.014445407347107,42.678038786966582],[14.01444427048572,42.678040262610509],[14.014419060756477,42.678030557179632],[14.014415324685517,42.678035621565414]]]},"properties":{"FID":4,"FID_1":327,"id":0,"TYPE":"Direction"}},{"type":"Feature","id":5,"geometry":{"type":"Polygon","coordinates":[[[14.014484516453063,42.677330295748014],[14.014482909299925,42.67732959964993],[14.014491212230151,42.677318612628966],[14.014492741889443,42.677319336488097],[14.014484516453063,42.677330295748014]]]},"properties":{"FID":5,"FID_1":248,"id":0,"TYPE":"Centerline"}},{"type":"Feature","id":6,"geometry":{"type":"Polygon","coordinates":[[[14.014428882865721,42.677402899510973],[14.014427275711364,42.677402203412107],[14.014435578661223,42.67739121639552],[14.014437108321619,42.677391940255397],[14.014428882865721,42.677402899510973]]]},"properties":{"FID":6,"FID_1":244,"id":0,"TYPE":"Centerline"}},{"type":"Feature","id":7,"geometry":{"type":"Polygon","coordinates":[[[14.014270812777312,42.677606498550162],[14.014280371413404,42.677594072527953],[14.014281826278584,42.677594653606626],[14.01427246025472,42.67760708128656],[14.014270812777312,42.677606498550162]]]},"properties":{"FID":7,"FID_1":241,"id":0,"TYPE":"Centerline"}},{"type":"Feature","id":8,"geometry":{"type":"Polygon","coordinates":[[[14.012720878521595,42.677304273575551],[14.012721207801734,42.677304412239479],[14.012719995506071,42.677305854816673],[14.012719748699089,42.677305750775375],[14.012720878521595,42.677304273575551]]]},"properties":{"FID":8,"FID_1":459,"id":0,"TYPE":"Direction"}},{"type":"Feature","id":9,"geometry":{"type":"Polygon","coordinates":[[[14.013627132734419,42.67766766794302],[14.01364292367462,42.677647895582716],[14.013990994741047,42.677793287716291],[14.013981947303702,42.677804838173564],[14.013981457928617,42.677809090764377],[14.013981846355257,42.677811222509924],[14.013952930920897,42.677823413058825],[14.013628067645008,42.67768751295867],[14.013627132734419,42.67766766794302]]]},"properties":{"FID":9,"FID_1":369,"id":0,"TYPE":"Parking"}},{"type":"Feature","id":10,"geometry":{"type":"Polygon","coordinates":[[[14.013978552775761,42.677888526458773],[14.014003674759264,42.67789895200125],[14.013882068187527,42.678059789199651],[14.013856837829506,42.678048922520908],[14.013978552775761,42.677888526458773]]]},"properties":{"FID":10,"FID_1":294,"id":0,"TYPE":"Parking"}},{"type":"Feature","id":11,"geometry":{"type":"Polygon","coordinates":[[[14.014256498149056,42.677704624547268],[14.014250681824477,42.677702101262788],[14.014276697922197,42.677669789408547],[14.014281961754014,42.677672082030064],[14.014256498149056,42.677704624547268]]]},"properties":{"FID":11,"FID_1":218,"id":0,"TYPE":"Marcha a piedi"}},{"type":"Feature","id":12,"geometry":{"type":"Polygon","coordinates":[[[14.014235216251388,42.677695799305518],[14.014229399928507,42.677693276019973],[14.014255416033397,42.677660964170599],[14.014260679863675,42.677663256793082],[14.014235216251388,42.677695799305518]]]},"properties":{"FID":12,"FID_1":220,"id":0,"TYPE":"Marcha a piedi"}},{"type":"Feature","id":13,"geometry":{"type":"Polygon","coordinates":[[[14.012915032816148,42.677307453303122],[14.012902730499025,42.677310423200183],[14.012900072451652,42.677300831718327],[14.012906438104922,42.677303531928239],[14.012920521032367,42.677285400903266],[14.012922473916099,42.677286298016064],[14.012908323932418,42.677304496532052],[14.012915032816148,42.677307453303122]]]},"properties":{"FID":13,"FID_1":362,"id":0,"TYPE":"Direction"}},{"type":"Feature","id":14,"geometry":{"type":"Polygon","coordinates":[[[14.014074422773861,42.677967353039719],[14.013986054412847,42.678082529924595],[14.013962328547841,42.678072319053953],[14.014050144788698,42.677957089112326],[14.014074422773861,42.677967353039719]]]},"properties":{"FID":14,"FID_1":305,"id":0,"TYPE":"Parking"}},{"type":"Feature","id":15,"geometry":{"type":"Polygon","coordinates":[[[14.014254846481146,42.677626999810713],[14.014264405123615,42.677614573789938],[14.014265859989116,42.677615154868832],[14.014256493958939,42.677627582547352],[14.014254846481146,42.677626999810713]]]},"properties":{"FID":15,"FID_1":240,"id":0,"TYPE":"Centerline"}},{"type":"Feature","id":16,"geometry":{"type":"Polygon","coordinates":[[[14.014524195777224,42.677277525807504],[14.014522665444803,42.677276844584867],[14.014617732358657,42.677152535131128],[14.01461921577299,42.677153152820374],[14.014524195777224,42.677277525807504]]]},"properties":{"FID":16,"FID_1":249,"id":0,"TYPE":"Centerline"}},{"type":"Feature","id":17,"geometry":{"type":"Polygon","coordinates":[[[14.013286860829252,42.676822681932173],[14.013274558625165,42.676825651870566],[14.013271900539712,42.676816060396163],[14.01327826616037,42.676818760585306],[14.01329234886844,42.676800629510879],[14.01329430174259,42.676801526617311],[14.013280151979213,42.676819725182987],[14.013286860829252,42.676822681932173]]]},"properties":{"FID":17,"FID_1":363,"id":0,"TYPE":"Direction"}},{"type":"Feature","id":18,"geometry":{"type":"Polygon","coordinates":[[[14.014210667892193,42.677744390082779],[14.014198476128733,42.677747598782219],[14.014195475533436,42.677738062467263],[14.014201935700843,42.677740637633832],[14.014215364568672,42.677722238383595],[14.01421734890898,42.677723097111027],[14.014203855424618,42.677741565136031],[14.014210667892193,42.677744390082779]]]},"properties":{"FID":18,"FID_1":318,"id":0,"TYPE":"Direction"}},{"type":"Feature","id":19,"geometry":{"type":"Polygon","coordinates":[[[14.013876991564116,42.677819294848042],[14.013872816973764,42.677810254293476],[14.013885782773123,42.6778081763401],[14.013882201042476,42.677812905850544],[14.013906943370873,42.6778230754826],[14.013905751409478,42.677824527260647],[14.013880916801813,42.677814308975641],[14.013876991564116,42.677819294848042]]]},"properties":{"FID":19,"FID_1":370,"id":0,"TYPE":"Direction"}},{"type":"Feature","id":20,"geometry":{"type":"Polygon","coordinates":[[[14.014444572001961,42.677293812733431],[14.014438661666487,42.677291318696767],[14.014463554952961,42.677259499563654],[14.014468818757457,42.677261792176459],[14.014444572001961,42.677293812733431]]]},"properties":{"FID":20,"FID_1":238,"id":0,"TYPE":"Marcha a piedi"}},{"type":"Feature","id":21,"geometry":{"type":"Polygon","coordinates":[[[14.014465112303977,42.677253572801547],[14.014560141532481,42.677128554485208],[14.014587499839015,42.677139946401347],[14.01449159177773,42.677265058089567],[14.014465112303977,42.677253572801547]]]},"properties":{"FID":21,"FID_1":296,"id":0,"TYPE":"Parking"}},{"type":"Feature","id":22,"geometry":{"type":"Polygon","coordinates":[[[14.01408218168331,42.677856757909517],[14.014080574521312,42.677856061805748],[14.014086315207061,42.677848748389394],[14.014087692132396,42.677849385655463],[14.01408218168331,42.677856757909517]]]},"properties":{"FID":22,"FID_1":215,"id":0,"TYPE":"Centerline"}},{"type":"Feature","id":23,"geometry":{"type":"Polygon","coordinates":[[[14.014551039864786,42.677337276298914],[14.014545237554566,42.677334781833508],[14.014569956742214,42.677304080303429],[14.014575220554443,42.67730637291141],[14.014551039864786,42.677337276298914]]]},"properties":{"FID":23,"FID_1":232,"id":0,"TYPE":"Marcha a piedi"}},{"type":"Feature","id":24,"geometry":{"type":"Polygon","coordinates":[[[14.014171057023091,42.677669661992979],[14.014165240705283,42.677667138704216],[14.014191256831992,42.677634826869486],[14.014196520657668,42.677637119494882],[14.014171057023091,42.677669661992979]]]},"properties":{"FID":24,"FID_1":226,"id":0,"TYPE":"Marcha a piedi"}},{"type":"Feature","id":25,"geometry":{"type":"Polygon","coordinates":[[[14.014149270670433,42.677705775563815],[14.014057200965622,42.677827218716658],[14.014034612729342,42.677818066296176],[14.014145830606598,42.677670529356206],[14.014168469831525,42.677680451200501],[14.014149270670433,42.677705775563815]]]},"properties":{"FID":25,"FID_1":295,"id":0,"TYPE":"Parking"}},{"type":"Feature","id":26,"geometry":{"type":"Polygon","coordinates":[[[14.014213780269973,42.67768697273371],[14.014207963948799,42.677684449447092],[14.014233980060938,42.6776521376026],[14.014239243889671,42.677654430226056],[14.014213780269973,42.67768697273371]]]},"properties":{"FID":26,"FID_1":222,"id":0,"TYPE":"Marcha a piedi"}},{"type":"Feature","id":27,"geometry":{"type":"Polygon","coordinates":[[[14.014508345042938,42.677319657646642],[14.014502504830258,42.677317199792206],[14.014527552612362,42.677286090170277],[14.014532816421491,42.677288382780183],[14.014508345042938,42.677319657646642]]]},"properties":{"FID":27,"FID_1":228,"id":0,"TYPE":"Marcha a piedi"}},{"type":"Feature","id":28,"geometry":{"type":"Polygon","coordinates":[[[14.014529324143826,42.677328274942319],[14.014523449673417,42.677325865380553],[14.014548372147068,42.677294911380216],[14.014553635957718,42.67729720398917],[14.014529324143826,42.677328274942319]]]},"properties":{"FID":28,"FID_1":230,"id":0,"TYPE":"Marcha a piedi"}},{"type":"Feature","id":29,"geometry":{"type":"Polygon","coordinates":[[[14.014465157736112,42.677302350121579],[14.014459364235829,42.677299859826064],[14.014484209599974,42.677269001636553],[14.014489473406044,42.677271294248428],[14.014465157736112,42.677302350121579]]]},"properties":{"FID":29,"FID_1":236,"id":0,"TYPE":"Marcha a piedi"}},{"type":"Feature","id":30,"geometry":{"type":"Polygon","coordinates":[[[14.014441557118035,42.677386440813677],[14.014439949963952,42.677385744714982],[14.014448252909348,42.677374757697407],[14.014449782569496,42.6773754815571],[14.014441557118035,42.677386440813677]]]},"properties":{"FID":30,"FID_1":245,"id":0,"TYPE":"Centerline"}},{"type":"Feature","id":31,"geometry":{"type":"Polygon","coordinates":[[[14.014224500057219,42.677691272323912],[14.0142186837352,42.677688749037827],[14.014244699843667,42.677656437190905],[14.014249963673162,42.677658729813864],[14.014224500057219,42.677691272323912]]]},"properties":{"FID":31,"FID_1":221,"id":0,"TYPE":"Marcha a piedi"}},{"type":"Feature","id":32,"geometry":{"type":"Polygon","coordinates":[[[14.014655170484232,42.677168124253441],[14.01468022320716,42.677178556131537],[14.014592404565551,42.677292732965498],[14.014568530198119,42.677282179806774],[14.014655170484232,42.677168124253441]]]},"properties":{"FID":32,"FID_1":303,"id":0,"TYPE":"Parking"}},{"type":"Feature","id":33,"geometry":{"type":"Polygon","coordinates":[[[14.014487017127975,42.677310891382916],[14.014481178728598,42.677308429617021],[14.014506270817137,42.677277264979324],[14.014511534624724,42.67727955759019],[14.014487017127975,42.677310891382916]]]},"properties":{"FID":33,"FID_1":234,"id":0,"TYPE":"Marcha a piedi"}},{"type":"Feature","id":34,"geometry":{"type":"Polygon","coordinates":[[[14.014201771671097,42.67771299350678],[14.014213864183873,42.677709586474528],[14.014217150122194,42.677719071446205],[14.014210614287597,42.677716602420304],[14.014197740662667,42.677735216485438],[14.014195731047739,42.677734390376742],[14.014208667211015,42.677715706498809],[14.014201771671097,42.67771299350678]]]},"properties":{"FID":34,"FID_1":317,"id":0,"TYPE":"Direction"}},{"type":"Feature","id":35,"geometry":{"type":"Polygon","coordinates":[[[14.01404698092651,42.677901332506231],[14.01404828215564,42.67790188383745],[14.013916293637282,42.678074530051397],[14.013914921212494,42.678073938950021],[14.01404698092651,42.677901332506231]]]},"properties":{"FID":35,"FID_1":211,"id":0,"TYPE":"Centerline"}},{"type":"Feature","id":36,"geometry":{"type":"Polygon","coordinates":[[[14.014469804573032,42.677349443292762],[14.014468197419577,42.677348747194472],[14.014476500354984,42.677337760174673],[14.014478030014567,42.677338484033996],[14.014469804573032,42.677349443292762]]]},"properties":{"FID":36,"FID_1":247,"id":0,"TYPE":"Centerline"}},{"type":"Feature","id":37,"geometry":{"type":"Polygon","coordinates":[[[14.012953066487951,42.677386334763419],[14.013009185246441,42.677409775200616],[14.012996506811703,42.677427245282523],[14.012941277383836,42.677404042570835],[14.012953066487951,42.677386334763419]]]},"properties":{"FID":37,"FID_1":1894,"id":0,"TYPE":"Parking"}},{"type":"Feature","id":38,"geometry":{"type":"Polygon","coordinates":[[[14.014720094618486,42.678118284602775],[14.014706740160399,42.678133200987226],[14.014594759149201,42.678088060673325],[14.014610436933433,42.678068750855509],[14.014720094618486,42.678118284602775]]]},"properties":{"FID":38,"FID_1":309,"id":0,"TYPE":"Parking"}},{"type":"Feature","id":39,"geometry":{"type":"Polygon","coordinates":[[[14.014203058686881,42.677682786838695],[14.014197242366537,42.677680263551537],[14.014223258482399,42.677647951709503],[14.014228522310379,42.677650244333442],[14.014203058686881,42.677682786838695]]]},"properties":{"FID":39,"FID_1":223,"id":0,"TYPE":"Marcha a piedi"}},{"type":"Feature","id":40,"geometry":{"type":"Polygon","coordinates":[[[14.014197107030919,42.677705775563815],[14.014092514702201,42.677842892063055],[14.014091022209307,42.677842253802289],[14.014209286043469,42.67768731615871],[14.014210701489009,42.677687953754841],[14.014197107030919,42.677705775563815]]]},"properties":{"FID":40,"FID_1":216,"id":0,"TYPE":"Centerline"}},{"type":"Feature","id":41,"geometry":{"type":"Polygon","coordinates":[[[14.013163808074626,42.676950701341582],[14.013145270342235,42.676973353713457],[14.013084137792164,42.676948426695368],[14.013084654357963,42.676947738215674],[14.013139709917898,42.676970143545248],[14.013154552556053,42.676951744577245],[14.013155679457254,42.676952208614104],[14.013157523789989,42.676952522997404],[14.01315914205103,42.676952515618837],[14.013160475107968,42.676952271252674],[14.013161783658934,42.676951749503139],[14.013163808074626,42.676950701341582]]]},"properties":{"FID":41,"FID_1":463,"id":0,"TYPE":"Segnaletica verticale"}},{"type":"Feature","id":42,"geometry":{"type":"Polygon","coordinates":[[[14.014457950945051,42.678029327814045],[14.014462194589651,42.678038350852418],[14.014449244830931,42.678040482730125],[14.014452790367248,42.678035738389525],[14.014427970615914,42.678025671877499],[14.014429151466427,42.678024215162651],[14.014454063867037,42.678034329942349],[14.014457950945051,42.678029327814045]]]},"properties":{"FID":42,"FID_1":328,"id":0,"TYPE":"Direction"}},{"type":"Feature","id":43,"geometry":{"type":"Polygon","coordinates":[[[14.014264094828135,42.677720363510034],[14.01415035162967,42.677868068712861],[14.014126016173282,42.677856538804768],[14.01424144768237,42.677710161980187],[14.014264094828135,42.677720363510034]]]},"properties":{"FID":43,"FID_1":304,"id":0,"TYPE":"Parking"}},{"type":"Feature","id":44,"geometry":{"type":"Polygon","coordinates":[[[14.014285445039521,42.677587520914315],[14.014295003669742,42.677575094890791],[14.014296458534623,42.677575675969265],[14.014287092516573,42.677588103650507],[14.014285445039521,42.677587520914315]]]},"properties":{"FID":44,"FID_1":242,"id":0,"TYPE":"Centerline"}},{"type":"Feature","id":45,"geometry":{"type":"Polygon","coordinates":[[[14.013418649100066,42.677091762321957],[14.013422705448589,42.677100832122896],[14.013409713276296,42.677102817842247],[14.013413356532039,42.677098114003755],[14.013388748384127,42.677087769012168],[14.013389959226519,42.677086325772272],[14.013414659012579,42.677096720069812],[14.013418649100066,42.677091762321957]]]},"properties":{"FID":45,"FID_1":372,"id":0,"TYPE":"Direction"}},{"type":"Feature","id":46,"geometry":{"type":"Polygon","coordinates":[[[14.014161412276829,42.677665599073855],[14.014155595959799,42.677663075784615],[14.014181612089729,42.677630763952088],[14.014186875914701,42.677633056577925],[14.014161412276829,42.677665599073855]]]},"properties":{"FID":46,"FID_1":227,"id":0,"TYPE":"Marcha a piedi"}},{"type":"Feature","id":47,"geometry":{"type":"Polygon","coordinates":[[[14.013029789365389,42.676900384431924],[14.013069824287248,42.676916891469929],[14.013057529435887,42.67693361860686],[14.013016992297707,42.67691711610972],[14.013029789365389,42.676900384431924]]]},"properties":{"FID":47,"FID_1":1893,"id":0,"TYPE":"Parking"}},{"type":"Feature","id":48,"geometry":{"type":"Polygon","coordinates":[[[14.014052595684275,42.677895534767508],[14.014050988521621,42.67789483866332],[14.01405672921447,42.677887525248572],[14.014058106140345,42.677888162515004],[14.014052595684275,42.677895534767508]]]},"properties":{"FID":48,"FID_1":212,"id":0,"TYPE":"Centerline"}},{"type":"Feature","id":49,"geometry":{"type":"Polygon","coordinates":[[[14.01454087853141,42.677333216900315],[14.014534812998372,42.677330721533352],[14.014558473738889,42.677299319332391],[14.01456373755029,42.677301611940898],[14.01454087853141,42.677333216900315]]]},"properties":{"FID":49,"FID_1":231,"id":0,"TYPE":"Marcha a piedi"}},{"type":"Feature","id":50,"geometry":{"type":"Polygon","coordinates":[[[14.014575453673659,42.677571862723198],[14.014563261962143,42.677575071462087],[14.014560261318689,42.677565535155928],[14.014566721483805,42.677568110301969],[14.014580150206688,42.677549711006947],[14.014582134546693,42.677550569728076],[14.014568641207854,42.677569037798079],[14.014575453673659,42.677571862723198]]]},"properties":{"FID":50,"FID_1":475,"id":0,"TYPE":"Direction"}},{"type":"Feature","id":51,"geometry":{"type":"Polygon","coordinates":[[[14.012884618162699,42.677417997850881],[14.012903484440896,42.677391905271122],[14.012959707847291,42.677415973454231],[14.012959124303261,42.677416581111551],[14.012908837573145,42.677395231258011],[14.012891566275748,42.677417681103108],[14.012889378658143,42.677416987391112],[14.012887760710374,42.67741697344762],[14.012886031492933,42.677417321930868],[14.012884618162699,42.677417997850881]]]},"properties":{"FID":51,"FID_1":461,"id":0,"TYPE":"Segnaletica verticale"}},{"type":"Feature","id":52,"geometry":{"type":"Polygon","coordinates":[[[14.014062510549518,42.677882514844391],[14.014060903387085,42.677881818740353],[14.01406664407755,42.677874505325057],[14.014068021003245,42.677875142591368],[14.014062510549518,42.677882514844391]]]},"properties":{"FID":52,"FID_1":213,"id":0,"TYPE":"Centerline"}},{"type":"Feature","id":53,"geometry":{"type":"Polygon","coordinates":[[[14.014455408049427,42.677368138702334],[14.014453800895657,42.677367442603831],[14.014462103836133,42.677356455585162],[14.014463633496,42.677357179444684],[14.014455408049427,42.677368138702334]]]},"properties":{"FID":53,"FID_1":246,"id":0,"TYPE":"Centerline"}},{"type":"Feature","id":54,"geometry":{"type":"Polygon","coordinates":[[[14.014072502905112,42.677869467159489],[14.014070895742897,42.6778687710556],[14.014076636430973,42.67786145763975],[14.014078013356485,42.677862094905954],[14.014072502905112,42.677869467159489]]]},"properties":{"FID":54,"FID_1":214,"id":0,"TYPE":"Centerline"}},{"type":"Feature","id":55,"geometry":{"type":"Polygon","coordinates":[[[14.014245934244389,42.677700212589947],[14.014240117920657,42.677697689304935],[14.014266134021923,42.67766537745311],[14.014271397852974,42.677667670075103],[14.014245934244389,42.677700212589947]]]},"properties":{"FID":55,"FID_1":219,"id":0,"TYPE":"Marcha a piedi"}},{"type":"Feature","id":56,"geometry":{"type":"Polygon","coordinates":[[[14.013033117514468,42.677444263486436],[14.013029008810934,42.677435206520613],[14.01304198946776,42.677433179975814],[14.013038373387451,42.677437895224699],[14.013063041188017,42.677448162753649],[14.013061838684482,42.677449609787388],[14.01303707896067,42.677439293240496],[14.013033117514468,42.677444263486436]]]},"properties":{"FID":56,"FID_1":371,"id":0,"TYPE":"Direction"}},{"type":"Feature","id":57,"geometry":{"type":"Polygon","coordinates":[[[14.014476610540118,42.677306835456022],[14.014470762632813,42.677304391485748],[14.014495697982294,42.677273421526316],[14.014500961789164,42.677275714137672],[14.014476610540118,42.677306835456022]]]},"properties":{"FID":57,"FID_1":235,"id":0,"TYPE":"Marcha a piedi"}},{"type":"Feature","id":58,"geometry":{"type":"Polygon","coordinates":[[[14.014181934488903,42.677673735520955],[14.014176118170271,42.677671212232738],[14.014202134293127,42.677638900395529],[14.014207398119554,42.67764119302042],[14.014181934488903,42.677673735520955]]]},"properties":{"FID":58,"FID_1":225,"id":0,"TYPE":"Marcha a piedi"}},{"type":"Feature","id":59,"geometry":{"type":"Polygon","coordinates":[[[14.014497463248526,42.677315478332339],[14.014491619560095,42.67731302457333],[14.014516676987254,42.677281902979082],[14.014521940795621,42.677284195589493],[14.014497463248526,42.677315478332339]]]},"properties":{"FID":59,"FID_1":233,"id":0,"TYPE":"Marcha a piedi"}},{"type":"Feature","id":60,"geometry":{"type":"Polygon","coordinates":[[[14.014454017275328,42.677297964358672],[14.014448345306453,42.677295293294065],[14.014473342964921,42.677264245960238],[14.014478606770181,42.677266538572603],[14.014454017275328,42.677297964358672]]]},"properties":{"FID":60,"FID_1":237,"id":0,"TYPE":"Marcha a piedi"}},{"type":"Feature","id":61,"geometry":{"type":"Polygon","coordinates":[[[14.014301504015121,42.67756959810319],[14.014299974801304,42.677568845817454],[14.014423263678923,42.677407924469591],[14.014424717193467,42.677408590818587],[14.014301504015121,42.67756959810319]]]},"properties":{"FID":61,"FID_1":243,"id":0,"TYPE":"Centerline"}},{"type":"Feature","id":62,"geometry":{"type":"Polygon","coordinates":[[[14.014269411772647,42.677705775563815],[14.014266999362562,42.677708858627419],[14.014261183037156,42.67770633534348],[14.014287199131289,42.677674023486837],[14.014292462963855,42.677676316107878],[14.014269411772647,42.677705775563815]]]},"properties":{"FID":62,"FID_1":217,"id":0,"TYPE":"Marcha a piedi"}},{"type":"Feature","id":63,"geometry":{"type":"Polygon","coordinates":[[[14.014518929031405,42.677324043854675],[14.014513202032418,42.677321446111932],[14.014538116467827,42.677290502101428],[14.014543380277724,42.677292794710858],[14.014518929031405,42.677324043854675]]]},"properties":{"FID":63,"FID_1":229,"id":0,"TYPE":"Marcha a piedi"}}]
}