{"type":"FeatureCollection","features":[{"type":"Feature","id":0,"geometry":{"type":"Polygon","coordinates":[[[14.013258219557548,42.67666977135879],[14.013264995843658,42.67666061908793],[14.013225031878276,42.67664511229457],[14.013267085017825,42.67659012971653],[14.013399543240526,42.676645284864975],[14.013394079054445,42.676652736068895],[14.013397853033352,42.676654325943794],[14.013371833122859,42.67668919449682],[14.013366797864427,42.67668728228323],[14.013362120899567,42.676684957857866],[14.01334646875714,42.676704861159095],[14.013258219557548,42.67666977135879]]]},"properties":{}},{"type":"Feature","id":1,"geometry":{"type":"Polygon","coordinates":[[[14.013615482279798,42.676735201228134],[14.013569607151657,42.6767950702012],[14.013568209697683,42.676794459724285],[14.013551011457606,42.67678694668112],[14.01354981100578,42.67678885522733],[14.013518940110517,42.67677582877275],[14.01352133798042,42.676772203543386],[14.013420165703375,42.67672927177005],[14.013435012832945,42.676711334190365],[14.01352856319045,42.676751110065936],[14.01353174416167,42.676747299692316],[14.013540654243231,42.67675121419837],[14.013547838740672,42.676740914095646],[14.013496940560957,42.6767198477262],[14.013500460977182,42.67671512880672],[14.013447693465755,42.676694052488784],[14.013454355171964,42.67668497362996],[14.013450303095334,42.67668317371268],[14.013452098664539,42.67668085312691],[14.013446886835792,42.67667845536288],[14.013454378091053,42.676668117930994],[14.013615482279798,42.676735201228134]]]},"properties":{}},{"type":"Feature","id":2,"geometry":{"type":"Polygon","coordinates":[[[14.013736972530014,42.676892599589586],[14.013731123057374,42.67690070448199],[14.013746881310121,42.67690736437747],[14.013732125337944,42.67692776938626],[14.013616633842643,42.67688005003113],[14.013618371031614,42.676877090719934],[14.013643614002438,42.6768718872509],[14.013634105350084,42.67684004782585],[14.013610067981277,42.676871790256044],[14.013533712187145,42.676840718355166],[14.013568209697683,42.676794459724285],[14.013569607151657,42.6767950702012],[14.013615482279798,42.676735201228134],[14.013789671631452,42.676807733147626],[14.013766039199885,42.67683883326273],[14.013753123009367,42.676833349172036],[14.013751004896394,42.67683572954003],[14.013736669201718,42.67682956161528],[14.013704627203152,42.67683302753545],[14.013712648578272,42.67686024882477],[14.013708999151467,42.67686079306559],[14.013721206696042,42.676886419348556],[14.013736972530014,42.676892599589586]]]},"properties":{}},{"type":"Feature","id":3,"geometry":{"type":"Polygon","coordinates":[[[14.013736972530014,42.676892599589586],[14.013773562569456,42.67684410301599],[14.013810385259864,42.676859003587076],[14.013835119979825,42.67682665770253],[14.013958920855421,42.67687820801286],[14.013954518447916,42.67688394270185],[14.013953033173879,42.67688330627804],[14.01394187480898,42.6768982254912],[14.013944714587437,42.676899545185506],[14.013897309871195,42.676961788664144],[14.013894470849378,42.67696042100314],[14.013883322316703,42.676974716657575],[14.013886548340418,42.67697627953905],[14.013856276851724,42.67701578780388],[14.0137122785603,42.67695352742046],[14.013732125337944,42.67692776938626],[14.013746881310121,42.67690736437747],[14.013731123057374,42.67690070448199],[14.013736972530014,42.676892599589586]]]},"properties":{}},{"type":"Feature","id":4,"geometry":{"type":"Polygon","coordinates":[[[14.014096464669803,42.67698964785661],[14.014044654499427,42.67696866982521],[14.014020588469014,42.67700223503484],[14.013999656990686,42.67699380364823],[14.014000861983236,42.67699160730379],[14.01396868318965,42.67697904943305],[14.01402457998813,42.67690603732718],[14.014066705235598,42.6769230891029],[14.01412805391942,42.6769486345094],[14.014098866304073,42.676986529739644],[14.014096464669803,42.67698964785661]]]},"properties":{}},{"type":"Feature","id":5,"geometry":{"type":"Polygon","coordinates":[[[14.01413950940256,42.67718154571484],[14.014132424029293,42.67719076864774],[14.013987788645535,42.67712763962991],[14.014096464669803,42.67698964785661],[14.014098866304073,42.676986529739644],[14.014120959561163,42.676994751848504],[14.01413450133642,42.67697711872172],[14.014192110517934,42.67700140872649],[14.01417459408714,42.67702370891858],[14.014205731334142,42.677036353711614],[14.014207324839647,42.677034256653],[14.014241819663622,42.6770483694966],[14.01421384453341,42.677084784503705],[14.01419031796969,42.67711540880777],[14.01413950940256,42.67718154571484]]]},"properties":{}},{"type":"Feature","id":6,"geometry":{"type":"Polygon","coordinates":[[[14.014241819663622,42.6770483694966],[14.014271469014153,42.67700835212133],[14.014331519874704,42.677033357118155],[14.014273610689523,42.677110143344954],[14.01421384453341,42.677084784503705],[14.014241819663622,42.6770483694966]]]},"properties":{}},{"type":"Feature","id":7,"geometry":{"type":"Polygon","coordinates":[[[14.01433187504473,42.67714922810314],[14.014378914054573,42.67708677563683],[14.014337306423188,42.67707020302066],[14.014357432956873,42.67704414724721],[14.014519378520943,42.677111580890504],[14.014419891462174,42.67723916696172],[14.014301083296024,42.67719010942502],[14.01433187504473,42.67714922810314]]]},"properties":{}},{"type":"Feature","id":8,"geometry":{"type":"Polygon","coordinates":[[[14.014812284197278,42.67729736729747],[14.014808373620438,42.677295663469636],[14.01479365923988,42.67731706173306],[14.01474483944172,42.67729750971812],[14.014741450713933,42.67729739276732],[14.014738568474952,42.67729620853834],[14.01473647516969,42.67729864318602],[14.01466041666495,42.677266561498314],[14.014716380799433,42.67719361204375],[14.014849849169122,42.67724918786938],[14.014812284197278,42.67729736729747]]]},"properties":{}},{"type":"Feature","id":9,"geometry":{"type":"Polygon","coordinates":[[[14.014849849169122,42.67724918786938],[14.014900337096117,42.677270210889596],[14.014880250884579,42.67729621730635],[14.014841208236087,42.67728020151685],[14.01482381668833,42.67730225959906],[14.014812284197278,42.67729736729747],[14.014849849169122,42.67724918786938]]]},"properties":{}},{"type":"Feature","id":10,"geometry":{"type":"Polygon","coordinates":[[[14.015065310296729,42.6773823197072],[14.015011147638015,42.67736009221935],[14.015008320046077,42.677363100275734],[14.014934822072236,42.677332947170655],[14.014952721666488,42.67730933266102],[14.01496266221727,42.67729616288162],[14.015089931760885,42.67734915753481],[14.015065310296729,42.6773823197072]]]},"properties":{}},{"type":"Feature","id":11,"geometry":{"type":"Polygon","coordinates":[[[14.0130883164894,42.67682424550932],[14.01307960478533,42.67683525267073],[14.013099323861924,42.676809470730326],[14.013099840705914,42.676809684739666],[14.0130883164894,42.67682424550932]]]},"properties":{}},{"type":"Feature","id":12,"geometry":{"type":"Polygon","coordinates":[[[14.01323161443642,42.67686248423955],[14.01316380807465,42.67695070134162],[14.013112693076282,42.67692966447151],[14.0131094590102,42.67693317588276],[14.013106985568838,42.67693609686124],[14.0130287273778,42.67690177294011],[14.01307960478533,42.67683525267073],[14.0130883164894,42.67682424550932],[14.013109344315724,42.676833608766074],[14.013112062685876,42.676830274139455],[14.01312471424079,42.67683604385491],[14.013134085289705,42.67682388186537],[14.013135069188978,42.67682260493507],[14.01323161443642,42.67686248423955]]]},"properties":{}},{"type":"Feature","id":13,"geometry":{"type":"Polygon","coordinates":[[[14.01293401131223,42.67702811042672],[14.012920103766094,42.67704612562565],[14.012918740767491,42.67704557623729],[14.012940667522658,42.677016907841455],[14.01294214050777,42.67701758023311],[14.01293401131223,42.67702811042672]]]},"properties":{}},{"type":"Feature","id":14,"geometry":{"type":"Polygon","coordinates":[[[14.012940667522658,42.677016907841455],[14.01299491203403,42.676945985212086],[14.01303720604428,42.67696329811946],[14.013038911768907,42.67696110761799],[14.013041557650732,42.676962205606],[14.013071135715085,42.676974534811926],[14.013069179973472,42.676976920533505],[14.01312038438103,42.676998725303136],[14.013121030105482,42.676999753233325],[14.01309155611237,42.677039471710806],[14.013094720835786,42.67704105134163],[14.013084409061685,42.6770546023861],[14.01307523812079,42.67706665421807],[14.013072359948866,42.67706547008182],[14.013046637492257,42.67709930287607],[14.013043980804232,42.677098241739564],[14.012936983011384,42.67705178787836],[14.012948952841667,42.67703490889997],[14.01293401131223,42.67702811042672],[14.01294214050777,42.67701758023311],[14.012940667522658,42.677016907841455]]]},"properties":{}},{"type":"Feature","id":15,"geometry":{"type":"Polygon","coordinates":[[[14.01311575670661,42.67712924781469],[14.013119653126951,42.67712494673227],[14.013111986440466,42.67712181826412],[14.013186461271657,42.67702196105122],[14.013349067514083,42.67708961346822],[14.013335457507717,42.67710743937653],[14.013341876008736,42.67711054023698],[14.013322501129613,42.677135222894854],[14.013328709836761,42.6771372912066],[14.013297106678982,42.67717875470732],[14.013290777063839,42.677176109686854],[14.013278317606817,42.67719106559821],[14.013168962089553,42.67714589320225],[14.013165640436911,42.67715037396308],[14.013137090824104,42.677138597465344],[14.01311575670661,42.67712924781469]]]},"properties":{}},{"type":"Feature","id":16,"geometry":{"type":"Polygon","coordinates":[[[14.013530162501356,42.677422685484586],[14.013443341830792,42.67738730185114],[14.013434028471464,42.67740065382489],[14.013330167651608,42.677357447795295],[14.013287045513215,42.67733798342553],[14.01333126100919,42.677280126166906],[14.0134087676161,42.6773124553886],[14.01346919961142,42.67723228680599],[14.013464425578428,42.67722994302597],[14.01350942697597,42.677171708689244],[14.013511882791077,42.67717264131024],[14.013515764113185,42.677167072971386],[14.013517927021349,42.67716376921581],[14.013676455427929,42.67722929796685],[14.013682385166762,42.67723220387659],[14.013579784679278,42.67736596971464],[14.013545965855714,42.67741006100641],[14.01354015473977,42.677407516409524],[14.013530162501356,42.677422685484586]]]},"properties":{}},{"type":"Feature","id":17,"geometry":{"type":"Polygon","coordinates":[[[14.013579055023476,42.676921174318835],[14.013575074249276,42.67692622508087],[14.013607500335626,42.67694780394978],[14.013616003804133,42.67695324894526],[14.01362449194046,42.67695869602955],[14.01363928206594,42.67696981036283],[14.01367884746321,42.67698404667753],[14.013670078648557,42.67699497173697],[14.013690090894995,42.67700397093365],[14.013684513567506,42.677011310613],[14.0137802439982,42.67705060854981],[14.013778497709131,42.67705414345054],[14.013775918248486,42.67706102922543],[14.013776005780867,42.677063716417585],[14.013777024175747,42.67707331960943],[14.013780264912315,42.67708217438225],[14.01378002520646,42.67709733150687],[14.013777492775217,42.677101243415535],[14.013781234299552,42.6771030985713],[14.01372145592619,42.67718308106082],[14.013713194100566,42.67717951900697],[14.013587026258525,42.677127506619414],[14.0135891163532,42.67712435797212],[14.013420244556832,42.67705448320472],[14.013275837874842,42.67699468227474],[14.013232553156632,42.67697683442567],[14.013285175819215,42.67690585650773],[14.013319795518589,42.67686059657761],[14.013341792907388,42.67686923977737],[14.013351640669727,42.67685498094299],[14.013407188212826,42.67687805428072],[14.013474458332878,42.67688343090173],[14.013512579571755,42.67689843869692],[14.013514587412049,42.67689481010864],[14.013579055023476,42.676921174318835]]]},"properties":{}},{"type":"Feature","id":18,"geometry":{"type":"Polygon","coordinates":[[[14.012577943064988,42.677498036048156],[14.012577903703408,42.67749808744091],[14.012573945894394,42.677496382315184],[14.012577943064988,42.677498036048156]]]},"properties":{}},{"type":"Feature","id":19,"geometry":{"type":"Polygon","coordinates":[[[14.01272074231972,42.67752203760898],[14.01271708432901,42.67752674023829],[14.012721270084219,42.677528199691736],[14.012721457370672,42.67752892875486],[14.012721644657214,42.67752965781789],[14.012704795673939,42.677552739629284],[14.012589447713777,42.67750305942951],[14.012608994440326,42.67747503725533],[14.01266765648275,42.677498521574975],[14.012667857041519,42.67749952111684],[14.01272074231972,42.67752203760898]]]},"properties":{}},{"type":"Feature","id":20,"geometry":{"type":"Polygon","coordinates":[[[14.012957903826953,42.67759281775686],[14.01294494322707,42.677610671624755],[14.01294323080318,42.67761000924447],[14.01278950985956,42.67754695850127],[14.012886571379005,42.677419883261514],[14.012889542862597,42.67741994780402],[14.012942835469547,42.67744226212081],[14.012943842490147,42.6774408691683],[14.01296837851669,42.67745089201912],[14.012967335091345,42.67745236252648],[14.013022796556632,42.67747544822321],[14.013020429146541,42.677478334909125],[14.012935415179742,42.677584180869296],[14.012957903826953,42.67759281775686]]]},"properties":{}},{"type":"Feature","id":21,"geometry":{"type":"Polygon","coordinates":[[[14.012788972690585,42.67742978794543],[14.012795884627296,42.67743295678813],[14.012754091716475,42.67748882299579],[14.012727166464847,42.67752467184563],[14.01272074231972,42.67752203760898],[14.012667857041519,42.67749952111684],[14.01266765648275,42.677498521574975],[14.012608994440326,42.67747503725533],[14.012594601522624,42.67746937593441],[14.012647355652932,42.67740040192168],[14.012664795763355,42.67740715801541],[14.012667848327423,42.67740325061523],[14.012675865065097,42.67740610210121],[14.01268756134069,42.677390084291375],[14.012788972690585,42.67742978794543]]]},"properties":{}},{"type":"Feature","id":22,"geometry":{"type":"Polygon","coordinates":[[[14.01268756134069,42.677390084291375],[14.012691407647429,42.677385320234315],[14.012667193485909,42.67737446471188],[14.012692861096435,42.67734090529024],[14.012719982835955,42.677352403154146],[14.0127221968285,42.67735127090687],[14.012723704595656,42.67735094276802],[14.012726309571446,42.677350666728294],[14.01273016709961,42.67735092709576],[14.012752028450384,42.6773600417892],[14.012752614374227,42.6773609995826],[14.012753696058391,42.6773620323109],[14.012754201934,42.67736293215057],[14.012754479376069,42.67736365945377],[14.012754175609546,42.67736459495691],[14.012752702676037,42.677366373220224],[14.012778887873248,42.677376960888836],[14.012780066489741,42.67737552122347],[14.012781175173286,42.67737484850914],[14.012782164915263,42.67737438797895],[14.012783500682493,42.67737397307306],[14.012786071343244,42.67737423534194],[14.012808135053215,42.67738343438773],[14.01281053509045,42.67738567674256],[14.01281132313448,42.6773870054327],[14.012811073777323,42.67738815461425],[14.012810063786832,42.67738989422644],[14.012816995783053,42.67739286030528],[14.012788972690585,42.67742978794543],[14.01268756134069,42.677390084291375]]]},"properties":{}},{"type":"Feature","id":23,"geometry":{"type":"Polygon","coordinates":[[[14.012923831012783,42.67725278738074],[14.012881034255267,42.6773074455398],[14.012856819429745,42.677338054226496],[14.012795554130244,42.677313202348344],[14.01279721284954,42.67731107910747],[14.01274944199942,42.67729062448237],[14.012777809653334,42.6772540103025],[14.012826086146804,42.67727386924277],[14.012862616011182,42.67722776832227],[14.012923831012783,42.67725278738074]]]},"properties":{}},{"type":"Feature","id":24,"geometry":{"type":"Polygon","coordinates":[[[14.013048483109161,42.67737223097042],[14.01301886941926,42.67741382021154],[14.012918078934414,42.67737172066911],[14.012949020375645,42.6773307340249],[14.012952256175895,42.677332084038596],[14.013048483109161,42.67737223097042]]]},"properties":{}},{"type":"Feature","id":25,"geometry":{"type":"Polygon","coordinates":[[[14.013165640436911,42.67715037396308],[14.013169648231807,42.67715183566282],[14.013109145130256,42.67722826165049],[14.013150487952577,42.677245120263215],[14.013048483109161,42.67737223097042],[14.012952256175895,42.677332084038596],[14.012949020375645,42.6773307340249],[14.012951358392714,42.67732763696309],[14.013025152868666,42.67722988468997],[14.013025563743378,42.677229382227985],[14.013025891312283,42.67722950803295],[14.013032995401955,42.67723223640613],[14.013111479718956,42.677127373429244],[14.01311575670661,42.67712924781469],[14.013137090824104,42.677138597465344],[14.013165640436911,42.67715037396308]]]},"properties":{}},{"type":"Feature","id":26,"geometry":{"type":"Polygon","coordinates":[[[14.013043980804232,42.677098241739564],[14.01303550755866,42.67710907029948],[14.013041622512004,42.67711166668996],[14.013044697985924,42.67711293908415],[14.013031967576309,42.67713047955287],[14.013030361136705,42.677129738939165],[14.012991198173788,42.67718152136667],[14.01294340063515,42.6772454287489],[14.012939974251617,42.67724410141581],[14.012934135741675,42.6772418188757],[14.012925439097293,42.67725342418566],[14.012923831012783,42.67725278738074],[14.012862616011182,42.67722776832227],[14.012816385966056,42.67720750943668],[14.012821290572644,42.67720160316547],[14.0128174190594,42.67719974685809],[14.012832563912683,42.67717944126444],[14.012837340954823,42.67718159320831],[14.012861666194157,42.67714812642759],[14.012847076568294,42.67714157242642],[14.01287415785413,42.6771064983435],[14.012887467094862,42.67711179403183],[14.012892129884927,42.67710473434273],[14.01289458492865,42.677105714942506],[14.012933008726838,42.677052317301886],[14.01293545769551,42.677053681625296],[14.012936983011384,42.67705178787836],[14.013043980804232,42.677098241739564]]]},"properties":{}},{"type":"Feature","id":27,"geometry":{"type":"Polygon","coordinates":[[[14.013289072079418,42.67678773074611],[14.013241600874673,42.676849491707436],[14.01323161443642,42.67686248423955],[14.013135069188978,42.67682260493507],[14.013134085289705,42.67682388186537],[14.013099840705914,42.676809684739666],[14.013158872752099,42.676731698975956],[14.01317316061659,42.67673784782423],[14.013289072079418,42.67678773074611]]]},"properties":{}},{"type":"Feature","id":28,"geometry":{"type":"Polygon","coordinates":[[[14.01334646875714,42.676704861159095],[14.013351461322967,42.6767073696907],[14.013350417638806,42.676708736680865],[14.013312215682985,42.676757620414904],[14.013289072079418,42.67678773074611],[14.01317316061659,42.67673784782423],[14.013233943715411,42.67666727155691],[14.013242859838096,42.67667080236127],[14.013247492195882,42.676665661279664],[14.013258219557548,42.67666977135879],[14.01334646875714,42.676704861159095]]]},"properties":{}},{"type":"Feature","id":29,"geometry":{"type":"Polygon","coordinates":[[[14.013533712187145,42.676840718355166],[14.013531253672154,42.67684406722266],[14.01338229251994,42.67677961190211],[14.013374812429438,42.67677658847252],[14.013371739428651,42.67677516037177],[14.013409891533415,42.67672497838236],[14.01341247950956,42.67672593509414],[14.013420165703375,42.67672927177005],[14.01352133798042,42.676772203543386],[14.013518940110517,42.67677582877275],[14.01354981100578,42.67678885522733],[14.013551011457606,42.67678694668112],[14.013568209697683,42.676794459724285],[14.013533712187145,42.676840718355166]]]},"properties":{}},{"type":"Feature","id":30,"geometry":{"type":"Polygon","coordinates":[[[14.013824945642542,42.678035186602145],[14.013570307544823,42.67792551434145],[14.01360158038372,42.67788414462606],[14.013610099072318,42.67788815169985],[14.013591216791868,42.67791456563773],[14.013616654996921,42.67792581829085],[14.013625951706457,42.677913521546515],[14.013708358809465,42.67794848325826],[14.013729475561279,42.677920553434035],[14.013723916831713,42.67791849074091],[14.01374356851928,42.67789275501562],[14.013749127247246,42.677894817707774],[14.013814550344142,42.677809503196315],[14.01381945293794,42.67780312775658],[14.013820384673961,42.67780204562176],[14.013897684217794,42.67783453333801],[14.0138990478788,42.67783283197416],[14.013959931896894,42.67785785869699],[14.013957826816695,42.67786083170132],[14.013824945642542,42.678035186602145]]]},"properties":{}},{"type":"Feature","id":31,"geometry":{"type":"Polygon","coordinates":[[[14.014379872279983,42.677843668076754],[14.014372546715029,42.67785470640851],[14.014515031545185,42.677914170552434],[14.014483924564816,42.67795717375237],[14.014469063936355,42.67795128923603],[14.014436264674826,42.677994825096896],[14.014433378004012,42.67799829689219],[14.014423406223012,42.67799417844954],[14.014180066343387,42.677892765665504],[14.014182691723745,42.67788939516704],[14.014175852645552,42.677886849912014],[14.014222164646542,42.677825925061605],[14.0142502117963,42.67778874805853],[14.014379872279983,42.677843668076754]]]},"properties":{}},{"type":"Feature","id":32,"geometry":{"type":"Polygon","coordinates":[[[14.014029071814596,42.67777997060199],[14.014025531062993,42.677784747503445],[14.013961483046058,42.67775864829496],[14.013834419853202,42.67770533066909],[14.013660196557234,42.677630282750634],[14.013636064225546,42.67761951023282],[14.013700002157295,42.67752919489317],[14.01376810089541,42.67744190586632],[14.013864054848105,42.6774808484751],[14.013866699098523,42.67747808885821],[14.01387256841449,42.67748106568864],[14.013882123514756,42.677468867091214],[14.013968172060023,42.677503764024024],[14.013958087818137,42.67751653373873],[14.014099561495533,42.6775781964137],[14.014101283515215,42.67757619640714],[14.014165672848103,42.67760301178532],[14.014135268316055,42.67764261131982],[14.014137712181876,42.67764399689441],[14.014060902160422,42.67774544882749],[14.01405616312166,42.67774302008992],[14.014029071814596,42.67777997060199]]]},"properties":{}},{"type":"Feature","id":33,"geometry":{"type":"Polygon","coordinates":[[[14.0142502117963,42.67778874805853],[14.014296146975516,42.677727860036974],[14.014325381881479,42.67769178074524],[14.014333656008018,42.67769480845088],[14.014336250606332,42.67769153314019],[14.01434715918757,42.6776953200317],[14.014351403177619,42.67769006895959],[14.014447515847975,42.67772995595135],[14.01445118806908,42.677738942342714],[14.014458187821946,42.67774215806986],[14.014457128847349,42.677743342930604],[14.014379872279983,42.677843668076754],[14.0142502117963,42.67778874805853]]]},"properties":{}},{"type":"Feature","id":34,"geometry":{"type":"Polygon","coordinates":[[[14.014419891462174,42.67723916696172],[14.01443458874441,42.67724532014404],[14.014401556252468,42.67728767778712],[14.01439271317109,42.67729864329562],[14.014149218377694,42.677196669851625],[14.014154943878745,42.67718818009437],[14.01413950940256,42.67718154571484],[14.01419031796969,42.67711540880777],[14.014205405519922,42.67712174127459],[14.014220398662916,42.67710277740989],[14.01433187504473,42.67714922810314],[14.014301083296024,42.67719010942502],[14.014419891462174,42.67723916696172]]]},"properties":{}},{"type":"Feature","id":35,"geometry":{"type":"Polygon","coordinates":[[[14.01479365923988,42.67731706173306],[14.014755976594964,42.6773682572742],[14.01473108734679,42.67739914450653],[14.014716804851693,42.67741567739901],[14.014714250384566,42.677414785848],[14.014711747030242,42.677418309513804],[14.014700097666635,42.67741333830804],[14.014678172599362,42.677403768488794],[14.01467192376076,42.677407989101276],[14.014597678297472,42.67737733881914],[14.014597998514036,42.67737571947786],[14.014598604531939,42.67737418063432],[14.014600161347238,42.67737223190452],[14.014584567435831,42.67736562051175],[14.014585504529789,42.67736320936509],[14.01461145634604,42.67733105759771],[14.014631667336255,42.67730393877896],[14.01462658952626,42.67730178285668],[14.014649229248358,42.677273435990934],[14.014653889347153,42.677275673137224],[14.01466041666495,42.677266561498314],[14.01473647516969,42.67729864318602],[14.014738568474952,42.67729620853834],[14.014741450713933,42.67729739276732],[14.01474483944172,42.67729750971812],[14.01479365923988,42.67731706173306]]]},"properties":{}},{"type":"Feature","id":36,"geometry":{"type":"Polygon","coordinates":[[[14.012957903826953,42.67759281775686],[14.012995431447164,42.67754233448747],[14.013075167532898,42.67757432111877],[14.013050158045173,42.677607344300114],[14.01303558151559,42.677601363402204],[14.013020385414057,42.677621445237776],[14.013033007635991,42.677627353241995],[14.013016235650946,42.67764873446483],[14.013042418109903,42.677658966826726],[14.013086670986732,42.67760199963896],[14.01309132809734,42.67760391522371],[14.013094051169686,42.677600300318005],[14.013151186835307,42.677624568078166],[14.013081967209898,42.67771518686486],[14.012917173091546,42.67764421027616],[14.01294323080318,42.67761000924447],[14.01294494322707,42.677610671624755],[14.012957903826953,42.67759281775686]]]},"properties":{}},{"type":"Feature","id":37,"geometry":{"type":"Polygon","coordinates":[[[14.014153577373259,42.6781767278137],[14.014009803566443,42.67811480464284],[14.01402366977578,42.67809638541474],[14.014021065512308,42.67809539644788],[14.014050486301935,42.67805732887523],[14.014052937372481,42.67805825966694],[14.014076170879422,42.67802650668065],[14.014082910422568,42.67802912320436],[14.014087399075306,42.67802302141143],[14.01407546089686,42.67801780162789],[14.014092225669186,42.67799554473618],[14.014104080508163,42.678001161791535],[14.014111089430584,42.67799161348512],[14.014105046892913,42.67798877553924],[14.014144922203256,42.67793766423099],[14.014198487611543,42.67795962483748],[14.014194774766755,42.67796417688404],[14.014286582143212,42.67800158951055],[14.014243346881353,42.678058386987495],[14.014276204661849,42.678072111169904],[14.014268019180578,42.67808319423379],[14.01424809554175,42.678109428937184],[14.014262344192987,42.678115271309814],[14.01424807325096,42.678135358267156],[14.014199931843299,42.678115878119705],[14.014153577373259,42.6781767278137]]]},"properties":{}},{"type":"Feature","id":38,"geometry":{"type":"Polygon","coordinates":[[[14.01294323080318,42.67761000924447],[14.012917173091546,42.67764421027616],[14.012762125123482,42.67757743134036],[14.012784365026024,42.6775481717314],[14.012786536971047,42.67754556596487],[14.01278950985956,42.67754695850127],[14.01294323080318,42.67761000924447]]]},"properties":{}}]}