{"type":"FeatureCollection","features":[{"type":"Feature","id":0,"geometry":{"type":"Polygon","coordinates":[[[14.013951858672216,42.677858342902844],[14.013979711607819,42.67787051502189],[14.013982442086418,42.67787326760689],[14.013984429781315,42.6778782613794],[14.013983796777355,42.67788113588546],[14.013982522236526,42.677883473034505],[14.013978552775766,42.677888526458766],[14.013856837829467,42.67804892252089],[14.013816865610599,42.678031706543976],[14.013947417184772,42.67786464829816],[14.013951858672216,42.677858342902844]]]},"properties":{}},{"type":"Feature","id":1,"geometry":{"type":"Polygon","coordinates":[[[14.014025531062982,42.677784747503466],[14.014171867792383,42.677596180257204],[14.014175854071157,42.67759763754838],[14.014180718103445,42.67759993305776],[14.014184751856332,42.67760379402007],[14.014186970472556,42.6776078250999],[14.014187416070337,42.677612546732135],[14.0141870919576,42.67761712553037],[14.014145830606553,42.67767052935617],[14.014034612729334,42.67781806629617],[14.01402412418721,42.67783178734385],[14.013998837549982,42.67782076024825],[14.014025531062982,42.677784747503466]]]},"properties":{}},{"type":"Feature","id":2,"geometry":{"type":"Polygon","coordinates":[[[14.014560141532476,42.677128554485236],[14.01446511230399,42.677253572801554],[14.014440923657437,42.67728444535274],[14.014430549379911,42.67729821780871],[14.014386278121785,42.6772802102911],[14.01441806438705,42.67723840801329],[14.014516423912285,42.677110350600344],[14.014560141532476,42.677128554485236]]]},"properties":{}},{"type":"Feature","id":3,"geometry":{"type":"Polygon","coordinates":[[[14.014436264674815,42.67799482509683],[14.014448895951817,42.678000072128086],[14.014445288456004,42.67800495314963],[14.014183875689993,42.677897526284006],[14.014188296748268,42.67789190589585],[14.014436264674815,42.67799482509683]]]},"properties":{}},{"type":"Feature","id":4,"geometry":{"type":"Polygon","coordinates":[[[14.014577207691184,42.67811622387897],[14.014628864386372,42.67813875677523],[14.014630960451472,42.678142790722184],[14.014574442317565,42.67811933426532],[14.014576860431985,42.67811608080506],[14.014577207691184,42.67811622387897]]]},"properties":{}},{"type":"Feature","id":5,"geometry":{"type":"Polygon","coordinates":[[[14.014296146975505,42.677727860036995],[14.01425021179629,42.67778874805855],[14.014222164646531,42.67782592506154],[14.014171476451112,42.67789260692211],[14.014154388848047,42.67788538700829],[14.014151583610582,42.67788343116737],[14.014149849338922,42.677881670284116],[14.01414819667061,42.67787899378571],[14.014147609834607,42.67787577543222],[14.014147531429858,42.67787355954466],[14.014147919956935,42.67787208187476],[14.014150351629665,42.67786806871287],[14.01426409482817,42.67772036351004],[14.0142913148997,42.67768500601302],[14.014301359958528,42.67767349386863],[14.01430630173112,42.677670409325074],[14.01431250485953,42.67766796105025],[14.014321947466938,42.67766531322918],[14.014328426425818,42.67766491413695],[14.014336121928897,42.67766554891824],[14.014343192087578,42.67766674687606],[14.014352561912316,42.67766870374833],[14.014415065645794,42.67768426313331],[14.014433937834406,42.677689542546304],[14.014450057971365,42.67769343373643],[14.014472786685209,42.67770335164861],[14.014540311806615,42.677731052860956],[14.014519867870737,42.677759404383245],[14.014504935729702,42.6777534766143],[14.014488586806243,42.67775674729874],[14.014457128847338,42.67774334293063],[14.014458187821935,42.67774215806989],[14.014451188069069,42.677738942342735],[14.014447515847964,42.67772995595137],[14.014351403177608,42.67769006895953],[14.01434715918756,42.67769532003164],[14.014336250606322,42.67769153314022],[14.014333656008008,42.67769480845091],[14.014325381881468,42.67769178074526],[14.014296146975505,42.677727860036995]]]},"properties":{}},{"type":"Feature","id":6,"geometry":{"type":"Polygon","coordinates":[[[14.014025531062982,42.677784747503466],[14.013998837549982,42.67782076024825],[14.013988322676122,42.67781614351433],[14.01398508991664,42.67781445508564],[14.013983480628559,42.67781316237943],[14.01398184635522,42.67781122250992],[14.013981457928596,42.677809090764384],[14.013981783631527,42.677806290307274],[14.013981947303714,42.67780483817357],[14.013990994741002,42.67779328771627],[14.013642923674633,42.67764789558274],[14.013627132734433,42.67766766794302],[14.013624507770542,42.67766904696845],[14.01362203417135,42.677669752438085],[14.013619497615496,42.677669990155486],[14.01361756269394,42.677669999448675],[14.01361605395263,42.67766975285091],[14.013581974231096,42.67765593622431],[14.013486498482633,42.677616127859],[14.0134849061505,42.67761532368822],[14.013492064653002,42.677603385921095],[14.01361081611953,42.67765284275554],[14.01363631186984,42.677619994217785],[14.013660196557224,42.677630282750656],[14.013834419853191,42.67770533066911],[14.013961483046048,42.6777586482949],[14.014025531062982,42.677784747503466]]]},"properties":{}},{"type":"Feature","id":7,"geometry":{"type":"Polygon","coordinates":[[[14.013148874845319,42.6774608894987],[14.013312990195695,42.677529062497676],[14.013417562194666,42.67757201217998],[14.013412840810227,42.67757892869747],[14.013396878255216,42.67757086715368],[14.013310348695521,42.677534821468754],[14.013203269031541,42.677490292717046],[14.013145054903534,42.677466783832784],[14.013148874845319,42.6774608894987]]]},"properties":{}},{"type":"Feature","id":8,"geometry":{"type":"Polygon","coordinates":[[[14.012808135053204,42.677383434387664],[14.012814516069453,42.6773860948302],[14.012819740610341,42.6773882719525],[14.012821682297597,42.67738973851093],[14.012822638292525,42.677391409783475],[14.012823365725838,42.677393633551574],[14.012823278560985,42.677393745049855],[14.012823396245247,42.67739519960686],[14.012823092678032,42.67739659862101],[14.012805411345012,42.677420222037924],[14.012795884627375,42.67743295678807],[14.012788972690574,42.67742978794546],[14.012816995783131,42.67739286030531],[14.01281006378691,42.67738989422637],[14.012811073777312,42.67738815461427],[14.01281132313447,42.677387005432635],[14.01281053509044,42.67738567674259],[14.012808135053204,42.677383434387664]]]},"properties":{}},{"type":"Feature","id":9,"geometry":{"type":"Polygon","coordinates":[[[14.01471824933346,42.67719439009562],[14.01466189960591,42.67726807800242],[14.014655500181187,42.67727644644081],[14.014634243667748,42.6773050326304],[14.014611467803887,42.67733224120508],[14.014586203484006,42.677366993930754],[14.014601329973312,42.67737325811779],[14.014700097666625,42.67741333830798],[14.01466263179311,42.677461968890476],[14.0146604295906,42.67745504196158],[14.014657388777666,42.67744998406117],[14.014650146094501,42.67744019940684],[14.01464398901832,42.677434858846574],[14.014630493599403,42.67742578795436],[14.014607468114862,42.67741271202096],[14.014581003931395,42.67739781554002],[14.014569406165714,42.67739009971666],[14.014562876455964,42.67738395996502],[14.01455872075467,42.677378750330966],[14.014554064371035,42.677371091588256],[14.014551548166546,42.67736453151924],[14.014550162476583,42.67735957313984],[14.014549492645992,42.67735319952354],[14.014549917502231,42.677348256721196],[14.014551031160552,42.677346048925024],[14.014592404565521,42.67729273296547],[14.014680223207124,42.67717855613152],[14.01471824933346,42.67719439009562]]]},"properties":{}},{"type":"Feature","id":10,"geometry":{"type":"Polygon","coordinates":[[[14.013163808074639,42.67695070134155],[14.013161783658893,42.67695174950311],[14.013160475107936,42.67695227125269],[14.013159142051071,42.676952515618815],[14.01315752378999,42.676952522997446],[14.013155679457215,42.67695220861408],[14.013109459010279,42.67693317588278],[14.01306982428722,42.67691689146994],[14.013029789365353,42.676900384431896],[14.013033493888797,42.6768955409088],[14.013157428295,42.676948000863135],[14.01339228128681,42.676642261009434],[14.013399061547963,42.67664508428971],[14.013366797864416,42.67668728228317],[14.013312215683063,42.67675762041493],[14.013231614436409,42.67686248423958],[14.013163808074639,42.67695070134155]]]},"properties":{}},{"type":"Feature","id":11,"geometry":{"type":"Polygon","coordinates":[[[14.013463569802079,42.676671945331634],[14.013454355171953,42.6766849736299],[14.013447693465745,42.676694052488806],[14.013435012832934,42.67671133419039],[14.013420165703364,42.676729271769986],[14.01338229251993,42.67677961190214],[14.013320521387099,42.67685964761531],[14.013319795518578,42.67686059657764],[14.013285175819204,42.676905856507666],[14.013232553156621,42.676976834425695],[14.013275837874831,42.67699468227476],[14.013420244556821,42.67705448320466],[14.01358911635319,42.67712435797214],[14.013714915598078,42.67717714488858],[14.013713194100555,42.67717951900699],[14.013711354323425,42.67718241025068],[14.013589874156876,42.67713204751039],[14.013322168278167,42.677021245155636],[14.01322536080342,42.676981191493205],[14.013223545383427,42.676980319301194],[14.013222260015526,42.676979295938914],[14.013221745568819,42.67697846091095],[14.013221511445254,42.67697658356396],[14.013223780897436,42.67697358346948],[14.013292363104194,42.67688292129749],[14.013374812429428,42.67677658847254],[14.013412479509638,42.67672593509416],[14.013446886835782,42.676678455362904],[14.013454378091575,42.67666811793119],[14.013463569802079,42.676671945331634]]]},"properties":{}},{"type":"Feature","id":12,"geometry":{"type":"Polygon","coordinates":[[[14.012864141170992,42.67734148618151],[14.012861050185125,42.677345428811286],[14.012858810561172,42.67734609472252],[14.012857564844575,42.67734629719594],[14.012856409177635,42.677346287236084],[14.012855803127314,42.67734623937108],[14.01280816746772,42.67732715168046],[14.01272963557482,42.67729389641516],[14.01272901577594,42.67729363442597],[14.012733357774168,42.67728795742888],[14.012734288880027,42.677288350437706],[14.012857206782817,42.67733886088766],[14.012923831012772,42.67725278738076],[14.013117370555742,42.67699999106204],[14.012992902784186,42.67694861222965],[14.012996733066766,42.676943604281284],[14.013038911768897,42.67696110761802],[14.013071135715075,42.676974534811954],[14.013071641610045,42.67697474568718],[14.013120094697276,42.67699511956834],[14.013122841968398,42.67699680627209],[14.013124385871892,42.676998873682074],[14.01312446491613,42.67699954729062],[14.013124571854233,42.67700045860795],[14.013124190557994,42.67700232416348],[14.013094720835776,42.67704105134157],[14.013075238120779,42.6770666542181],[14.013073249642419,42.67706926734151],[14.013041622511993,42.67711166668998],[14.012939974251607,42.67724410141584],[14.012881586374407,42.67731923437675],[14.012864141170992,42.67734148618151]]]},"properties":{}},{"type":"Feature","id":13,"geometry":{"type":"Polygon","coordinates":[[[14.012932049840968,42.67736891584521],[14.012927055693828,42.677375470210166],[14.012918078934403,42.677371720669136],[14.013025563743367,42.67722938222792],[14.013068485921979,42.67717689228886],[14.013110619339356,42.677121754781055],[14.01318630096308,42.6770227130807],[14.01334837488323,42.67709020271396],[14.013440652455303,42.677127543774695],[14.013576814688525,42.67718374346271],[14.013678723026915,42.67722604702203],[14.013676455427918,42.67722929796679],[14.013674895225817,42.67723118828278],[14.013515764113174,42.67716707297132],[14.013344740327996,42.67709536263037],[14.013189808746477,42.67703221238818],[14.013115551829683,42.67712808501268],[14.012932049840968,42.67736891584521]]]},"properties":{}},{"type":"Feature","id":14,"geometry":{"type":"Polygon","coordinates":[[[14.013148874845319,42.6774608894987],[14.013145054903534,42.677466783832784],[14.013064871850004,42.677433035085166],[14.012953066487968,42.677386334763426],[14.012927055693828,42.677375470210166],[14.012932049840968,42.67736891584521],[14.013148874845319,42.6774608894987]]]},"properties":{}},{"type":"Feature","id":15,"geometry":{"type":"Polygon","coordinates":[[[14.012792406774613,42.6775485140758],[14.01276889324136,42.67758034635892],[14.012762580913455,42.677577627648425],[14.01278655632924,42.6775459407538],[14.012792406774613,42.6775485140758]]]},"properties":{}},{"type":"Feature","id":16,"geometry":{"type":"Polygon","coordinates":[[[14.013951858672216,42.677858342902844],[14.013947417184772,42.67786464829816],[14.013814550344131,42.67780950319625],[14.01369724227767,42.677759522222935],[14.013153844984108,42.67753471908088],[14.013119615451656,42.67751926579032],[14.013059079728022,42.67749450118262],[14.01302042914653,42.67747833490906],[14.0128895345805,42.677422217778116],[14.012792406774613,42.6775485140758],[14.01278655632924,42.6775459407538],[14.012884618162738,42.67741799785087],[14.012886031492902,42.67741732193083],[14.012887760710383,42.677416973447635],[14.012889378658114,42.67741698739115],[14.0128937538934,42.677418374815105],[14.012920170747437,42.67742958191053],[14.013032428156672,42.67747589460244],[14.013119723058734,42.677512466213955],[14.013163527376507,42.677529719892085],[14.013443264968709,42.677647266218976],[14.013654788216515,42.67773473199067],[14.013780169671689,42.67778690438019],[14.013819452937929,42.67780312775661],[14.013951858672216,42.677858342902844]]]},"properties":{}},{"type":"Feature","id":17,"geometry":{"type":"Polygon","coordinates":[[[14.014145223635103,42.677946078792154],[14.014015211376899,42.67811713377886],[14.013973478811495,42.67809915962327],[14.013986054412856,42.67808252992459],[14.01407442277384,42.67796735303976],[14.014098872531436,42.67793578961828],[14.014101236016577,42.67793251232385],[14.014107306659055,42.67792869838002],[14.014111175097158,42.6779277082722],[14.014117190015677,42.67792741890953],[14.014121943450833,42.67792893807522],[14.014144922203245,42.67793766423102],[14.01415002814496,42.67793975755342],[14.01414649884011,42.677944401019566],[14.014145223635103,42.677946078792154]]]},"properties":{}},{"type":"Feature","id":18,"geometry":{"type":"Polygon","coordinates":[[[14.01415002814496,42.67793975755342],[14.01419848761162,42.677959624837506],[14.014312956680245,42.67800819830027],[14.01439839476201,42.678043388147834],[14.014489472868666,42.6780800762825],[14.014534632542622,42.67809868251905],[14.01453218408705,42.67810182866373],[14.014477522687022,42.67807926987094],[14.014474347094255,42.67808273918129],[14.014435769575654,42.678066373902205],[14.014288310212889,42.67800625920436],[14.014145223635103,42.677946078792154],[14.01414649884011,42.677944401019566],[14.01415002814496,42.67793975755342]]]},"properties":{}},{"type":"Feature","id":19,"geometry":{"type":"Polygon","coordinates":[[[14.012795884627375,42.67743295678807],[14.012754091716465,42.67748882299581],[14.012725940908291,42.677524250963394],[14.012704837175308,42.67755275750381],[14.012698522919257,42.67755003796287],[14.012788972690574,42.67742978794546],[14.012795884627375,42.67743295678807]]]},"properties":{}},{"type":"Feature","id":20,"geometry":{"type":"Polygon","coordinates":[[[14.012808135053204,42.677383434387664],[14.01281053509044,42.67738567674259],[14.01281132313447,42.677387005432635],[14.012811073777312,42.67738815461427],[14.01281006378691,42.67738989422637],[14.012693207770935,42.677340452026435],[14.01269620360163,42.6773365350921],[14.012724493579546,42.67734856162343],[14.012808135053204,42.677383434387664]]]},"properties":{}}]}