{"type":"FeatureCollection","features":[{"type":"Feature","id":0,"geometry":{"type":"Polygon","coordinates":[[[14.014147531429911,42.67787355954466],[14.014147609834572,42.67787577543222],[14.014148196670662,42.67787899378571],[14.014149849338976,42.677881670284116],[14.014151583610547,42.67788343116737],[14.014154388848011,42.67788538700829],[14.014171476451077,42.67789260692211],[14.014183875690046,42.677897526284006],[14.014445288455969,42.67800495314963],[14.014448895951782,42.678000072128086],[14.01461043693344,42.6780687508555],[14.014594759149213,42.67808806067334],[14.014706740160433,42.678133200987226],[14.01468143862259,42.67816905836216],[14.014634473020694,42.678149550777455],[14.014630960451436,42.678142790722184],[14.014628864386426,42.67813875677523],[14.014577207691238,42.67811622387897],[14.014576860432038,42.67811608080506],[14.014534632542675,42.67809868251905],[14.01448947286863,42.6780800762825],[14.014398394761974,42.678043388147834],[14.01431295668021,42.67800819830027],[14.014198487611585,42.677959624837506],[14.014150028144924,42.67793975755342],[14.014144922203299,42.67793766423102],[14.014121943450798,42.67792893807522],[14.014117190015641,42.67792741890953],[14.014111175097122,42.6779277082722],[14.014107306659108,42.67792869838002],[14.014147531429911,42.67787355954466]]]},"properties":{"NAME":"Via Volturno"}},{"type":"Feature","id":1,"geometry":{"type":"Polygon","coordinates":[[[14.014549917502196,42.677348256721196],[14.014549492646045,42.67735319952354],[14.014550162476636,42.67735957313984],[14.01455154816651,42.67736453151924],[14.014554064371,42.677371091588256],[14.014558720754634,42.677378750330966],[14.014562876455928,42.67738395996502],[14.014569406165679,42.67739009971666],[14.01458100393136,42.67739781554002],[14.014607468114916,42.67741271202096],[14.014630493599368,42.67742578795436],[14.014643989018372,42.677434858846574],[14.014650146094466,42.67744019940684],[14.014657388777719,42.67744998406117],[14.014660429590565,42.67745504196158],[14.014662631793074,42.677461968890476],[14.014663002440054,42.677467771374566],[14.01466154257165,42.677479698542086],[14.014658530785452,42.67748743345498],[14.014644251787912,42.67751332216411],[14.014593427828204,42.67760635592738],[14.014555819784148,42.67767494164848],[14.014553727957702,42.67767931576484],[14.014553865599334,42.677681576968595],[14.014554581077855,42.67768384314367],[14.014556429322434,42.67768756888827],[14.014558868879346,42.67769044688264],[14.014561663897608,42.677692773590714],[14.014566653349215,42.67769520446204],[14.014540311806579,42.677731052860956],[14.014472786685173,42.67770335164861],[14.01445005797133,42.67769343373643],[14.01443393783437,42.677689542546304],[14.014415065645759,42.67768426313331],[14.01435256191228,42.67766870374833],[14.014343192087543,42.67766674687606],[14.014336121928862,42.67766554891824],[14.014328426425783,42.67766491413695],[14.014321947466991,42.67766531322918],[14.014312504859584,42.67766796105025],[14.014306301731084,42.677670409325074],[14.014301359958582,42.67767349386863],[14.01435291153208,42.67760603904646],[14.014410930487765,42.677631436907426],[14.014414026545486,42.67763299865576],[14.014417349694709,42.67763481820924],[14.014422083910395,42.67763511479671],[14.014428340716224,42.67763414522899],[14.014433263176619,42.67763157434709],[14.014438124866514,42.677628941260274],[14.014442924342353,42.677626246750414],[14.014447660178698,42.677623491617844],[14.014452330969474,42.67762067668058],[14.014456935327436,42.67761780277449],[14.014461471885587,42.677614870753025],[14.01446593929665,42.677611881486854],[14.014470336233954,42.67760883586364],[14.014474661391963,42.6776057347878],[14.014478913486284,42.67760257918029],[14.014483091254283,42.67759936997796],[14.01448719345535,42.67759610813401],[14.014491218871262,42.677592794616906],[14.014495166306796,42.677589430410656],[14.014499034589734,42.67758601651429],[14.014502822571307,42.677582553941484],[14.014506529126814,42.67757904372057],[14.014510153155536,42.677575486893915],[14.014513693581266,42.67757188451756],[14.014517149352846,42.67756823766141],[14.014520519443897,42.67756454740833],[14.014523802853796,42.677560814854246],[14.014526998607591,42.67755704110733],[14.014530105756174,42.67755322728838],[14.014533123376994,42.67754937452991],[14.014536050573879,42.6775454839759],[14.014538886477746,42.677541556781684],[14.014541630246425,42.67753759411354],[14.01454428106519,42.67753359714811],[14.014546838146758,42.67752956707237],[14.014549300732005,42.67752550508287],[14.014551668089604,42.67752141238602],[14.01455393951665,42.67751729019712],[14.014556114338484,42.677513139740164],[14.014558191909488,42.67750896224768],[14.014560171612645,42.67750475896018],[14.014562052860159,42.67750053112584],[14.014563835093364,42.67749628000016],[14.014565517783085,42.67749200684544],[14.014567100429632,42.67748771293062],[14.014568817923779,42.67748508391033],[14.014570158556895,42.67748070333079],[14.014571047028058,42.67747567923285],[14.014570847718867,42.67747000614827],[14.014570522736514,42.67746497161068],[14.014569219477414,42.677459672805284],[14.014566704113053,42.67745427828801],[14.014563992491192,42.67745033190612],[14.01455995723986,42.67744603300133],[14.014556136278978,42.677442801987034],[14.014553104074269,42.67744085701503],[14.01454915205076,42.67743860563612],[14.014500013892418,42.67741355583593],[14.014549917502196,42.677348256721196]]]},"properties":{"NAME":" "}},{"type":"Feature","id":2,"geometry":{"type":"Polygon","coordinates":[[[14.013711354323478,42.67718241025068],[14.013678723026969,42.67722604702203],[14.013576814688578,42.67718374346271],[14.013440652455357,42.677127543774695],[14.013348374883284,42.67709020271396],[14.013186300963133,42.6770227130807],[14.013221511445218,42.67697658356396],[14.013221745568783,42.67697846091095],[14.01322226001558,42.676979295938914],[14.01322354538348,42.676980319301194],[14.013225360803384,42.676981191493205],[14.01332216827822,42.677021245155636],[14.01358987415693,42.67713204751039],[14.013711354323478,42.67718241025068]]]},"properties":{"NAME":"Via Giannina Milli"}},{"type":"Feature","id":3,"geometry":{"type":"Polygon","coordinates":[[[14.012861050185178,42.677345428811286],[14.012823365725803,42.677393633551574],[14.012822638292489,42.677391409783475],[14.012821682297561,42.67738973851093],[14.012819740610395,42.6773882719525],[14.012814516069417,42.6773860948302],[14.012724493579599,42.67734856162343],[14.012696203601594,42.6773365350921],[14.012729015775905,42.67729363442597],[14.012729635574784,42.67729389641516],[14.012808167467684,42.67732715168046],[14.012855803127367,42.67734623937108],[14.0128564091776,42.677346287236084],[14.01285756484454,42.67734629719594],[14.012858810561136,42.67734609472252],[14.012861050185178,42.677345428811286]]]},"properties":{"NAME":"Via Triboletti"}},{"type":"Feature","id":4,"geometry":{"type":"Polygon","coordinates":[[[14.013711354323478,42.67718241025068],[14.013713194100609,42.67717951900699],[14.013721455926143,42.677183081060846],[14.013781234299506,42.67710309857132],[14.013777492775171,42.677101243415564],[14.013780025206502,42.6770973315069],[14.013815794889096,42.677053788599395],[14.013928855446101,42.677101855105015],[14.013690053028084,42.6774118609128],[14.01357978467932,42.677365969714664],[14.013682385166716,42.67723220387661],[14.013676455427971,42.67722929796679],[14.013678723026969,42.67722604702203],[14.013711354323478,42.67718241025068]]]},"properties":{"NAME":"Via Guiseppe Garibaldi"}},{"type":"Feature","id":5,"geometry":{"type":"Polygon","coordinates":[[[14.014107306659108,42.67792869838002],[14.01410123601663,42.67793251232385],[14.0140988725314,42.67793578961828],[14.014074422773893,42.67796735303976],[14.014050144788671,42.67795708911236],[14.013962328547814,42.67807231905395],[14.01398605441282,42.67808252992459],[14.013973478811193,42.678099159623095],[14.01388206818759,42.678059789199644],[14.014003674759246,42.677898952001236],[14.01397855277573,42.677888526458766],[14.01398252223658,42.677883473034505],[14.013983796777408,42.67788113588546],[14.01398442978128,42.6778782613794],[14.014024124187175,42.67783178734385],[14.014034612729299,42.67781806629617],[14.014057200965647,42.67782721871668],[14.014168469831501,42.677680451200494],[14.014145830606607,42.67767052935617],[14.014187091957565,42.67761712553037],[14.014417308142969,42.67731499415347],[14.014430549379965,42.67729821780871],[14.01444092365749,42.67728444535274],[14.014465112303954,42.677253572801554],[14.014491591777768,42.67726505808957],[14.014587499838994,42.677139946401354],[14.014655170484259,42.6771681242535],[14.014568530198114,42.67728217980677],[14.014592404565574,42.67729273296547],[14.014551031160517,42.677346048925024],[14.014549917502196,42.677348256721196],[14.014500013892418,42.67741355583593],[14.01435291153208,42.67760603904646],[14.014301359958582,42.67767349386863],[14.014291314899664,42.67768500601302],[14.014264094828134,42.67772036351004],[14.014241447682375,42.6777101619802],[14.014126016173313,42.677856538804726],[14.01415035162963,42.67786806871287],[14.014147919956988,42.67787208187476],[14.014147531429911,42.67787355954466],[14.014107306659108,42.67792869838002]]]},"properties":{"NAME":"SS16"}},{"type":"Feature","id":6,"geometry":{"type":"Polygon","coordinates":[[[14.012884618162703,42.67741799785087],[14.012786556329205,42.6775459407538],[14.012762580913508,42.677577627648425],[14.012704837175272,42.67755275750381],[14.012725940908256,42.677524250963394],[14.012754091716518,42.67748882299581],[14.012795884627339,42.67743295678807],[14.012805411345065,42.677420222037924],[14.012823092677996,42.67739659862101],[14.012823396245212,42.67739519960686],[14.01282327856095,42.677393745049855],[14.012823365725803,42.677393633551574],[14.012861050185178,42.677345428811286],[14.012864141171045,42.67734148618151],[14.01288158637446,42.67731923437675],[14.012939974251571,42.67724410141584],[14.013041622512047,42.67711166668998],[14.013073249642384,42.67706926734151],[14.013075238120743,42.6770666542181],[14.013084409061728,42.67705460238612],[14.013094720835829,42.67704105134157],[14.013124190558047,42.67700232416348],[14.013124571854197,42.67700045860795],[14.013124464916183,42.67699954729062],[14.013124385871945,42.676998873682074],[14.013163808074603,42.67695070134155],[14.013231614436373,42.67686248423958],[14.013312215683028,42.67675762041493],[14.01336679786438,42.67668728228317],[14.013399061548016,42.676645084289625],[14.013454378091096,42.67666811793093],[14.013446886835835,42.676678455362904],[14.013412479509602,42.67672593509416],[14.013374812429392,42.67677658847254],[14.013292363104247,42.67688292129749],[14.0132237808974,42.67697358346948],[14.013221511445218,42.67697658356396],[14.013186300963133,42.6770227130807],[14.01311061933932,42.677121754781055],[14.013068485921943,42.67717689228886],[14.01302556374342,42.67722938222792],[14.013025152868709,42.67722988468999],[14.012951358392668,42.67732763696311],[14.012949020375599,42.67733073402492],[14.012918078934456,42.677371720669136],[14.012884618162703,42.67741799785087]]]},"properties":{"NAME":"Via Camillo Benso Conte di Cavour"}},{"type":"Feature","id":7,"geometry":{"type":"Polygon","coordinates":[[[14.013163808074603,42.67695070134155],[14.013124385871945,42.676998873682074],[14.013122841968363,42.67699680627209],[14.01312009469733,42.67699511956834],[14.013071641610098,42.67697474568718],[14.013041557650686,42.67696220560603],[14.012996733066997,42.676943604281014],[14.013016992297734,42.67691711610971],[14.013057529435914,42.67693361860686],[14.013069824287273,42.67691689146994],[14.013109459010243,42.67693317588278],[14.013155679457268,42.67695220861408],[14.013157523789955,42.676952522997446],[14.013159142051036,42.676952515618815],[14.01316047510799,42.67695227125269],[14.013161783658946,42.67695174950311],[14.013163808074603,42.67695070134155]]]},"properties":{"NAME":"Via Giannina Milli"}},{"type":"Feature","id":8,"geometry":{"type":"Polygon","coordinates":[[[14.014024124187175,42.67783178734385],[14.01398442978128,42.6778782613794],[14.013982442086471,42.67787326760689],[14.013979711607872,42.67787051502189],[14.013951858672181,42.677858342902844],[14.013819452937982,42.67780312775661],[14.013780169671742,42.67778690438019],[14.01365478821648,42.67773473199067],[14.01357461601125,42.67770127371523],[14.013530225869198,42.67768274448339],[14.013443264968673,42.677647266218976],[14.01316352737656,42.677529719892085],[14.013119723058788,42.677512466213955],[14.013032428156636,42.67747589460244],[14.01292017074749,42.67742958191053],[14.012893753893364,42.677418374815105],[14.012889378658167,42.67741698739115],[14.012887760710347,42.677416973447635],[14.012886031492956,42.67741732193083],[14.012884618162703,42.67741799785087],[14.012918078934456,42.677371720669136],[14.012927055693792,42.677375470210166],[14.012953066487933,42.677386334763426],[14.01294127738384,42.67740404257082],[14.012996506811715,42.67742724528249],[14.013009185246462,42.67740977520066],[14.013064871850057,42.677433035085166],[14.013145054903587,42.677466783832784],[14.013203269031594,42.677490292717046],[14.013310348695486,42.677534821468754],[14.01339687825527,42.67757086715368],[14.01341284081028,42.67757892869747],[14.013484906150465,42.67761532368822],[14.013486498482598,42.677616127859],[14.01358197423115,42.67765593622431],[14.013616053952594,42.67766975285091],[14.013617562693904,42.677669999448675],[14.01361949761546,42.677669990155486],[14.013622034171403,42.677669752438085],[14.013624507770507,42.67766904696845],[14.013627132734397,42.67766766794302],[14.013628067645035,42.6776875129587],[14.01395293092087,42.677823413058846],[14.013981846355273,42.67781122250992],[14.013983480628523,42.67781316237943],[14.013985089916693,42.67781445508564],[14.013988322676086,42.67781614351433],[14.013998837550036,42.67782076024825],[14.014024124187175,42.67783178734385]]]},"properties":{"NAME":"Via Triboletti"}}]}