{"type":"FeatureCollection","features":[{"type":"Feature","id":0,"geometry":{"type":"Polygon","coordinates":[[[14.014192036115087,42.67767814350553],[14.014186219795628,42.67767562021782],[14.014212235915176,42.67764330837829],[14.014217499742351,42.677645601002745],[14.014192036115087,42.67767814350553]]]},"properties":{"TYPE":"Marcha a piedi"}},{"type":"Feature","id":1,"geometry":{"type":"Polygon","coordinates":[[[14.014413872648117,42.67731674805653],[14.014417308142933,42.67731499415344],[14.014187091957574,42.67761712553033],[14.014187416070355,42.677612546732135],[14.014186970472567,42.67760782509992],[14.014184751856323,42.67760379402005],[14.014180718103473,42.677599933057806],[14.014175854071192,42.67759763754842],[14.014171867792381,42.67759618025716],[14.014198985832056,42.677553184729355],[14.014213308170145,42.67753042482108],[14.014250242456733,42.67747432724448],[14.01426733897383,42.677449114669976],[14.01431262762794,42.67739744766929],[14.014355886512,42.67734890838182],[14.014389123306094,42.67731172442608],[14.014400867507705,42.67731669806396],[14.014403028524756,42.677317472001945],[14.014404866156106,42.67731800169518],[14.014405779370442,42.67731809004052],[14.01440812968351,42.67731803596835],[14.014411426892266,42.67731753188511],[14.014413872648117,42.67731674805653]]]},"properties":{"TYPE":"Parking"}},{"type":"Feature","id":2,"geometry":{"type":"Polygon","coordinates":[[[14.014390130785632,42.677604596096],[14.014362916059335,42.67759294818252],[14.014484270459954,42.67743415615993],[14.014510077849172,42.67744546527116],[14.014390130785632,42.677604596096]]]},"properties":{"TYPE":"Parking"}},{"type":"Feature","id":3,"geometry":{"type":"Polygon","coordinates":[[[14.0142388752319,42.67764781373337],[14.014248433880795,42.67763538771405],[14.014249888746626,42.677635968793126],[14.014240522710084,42.677648396470225],[14.0142388752319,42.67764781373337]]]},"properties":{"TYPE":"Centerline"}},{"type":"Feature","id":4,"geometry":{"type":"Polygon","coordinates":[[[14.014415324685517,42.678035621565414],[14.01441081140713,42.67802667004373],[14.014423694037811,42.67802432719538],[14.014420291693163,42.678029128278936],[14.014445407347107,42.67803878696658],[14.01444427048572,42.67804026261051],[14.014419060756477,42.67803055717963],[14.014415324685517,42.678035621565414]]]},"properties":{"TYPE":"Direction"}},{"type":"Feature","id":5,"geometry":{"type":"Polygon","coordinates":[[[14.014484516453063,42.677330295748014],[14.014482909299925,42.67732959964993],[14.014491212230151,42.677318612628966],[14.014492741889443,42.6773193364881],[14.014484516453063,42.677330295748014]]]},"properties":{"TYPE":"Centerline"}},{"type":"Feature","id":6,"geometry":{"type":"Polygon","coordinates":[[[14.01442888286572,42.67740289951097],[14.014427275711364,42.67740220341211],[14.014435578661223,42.67739121639552],[14.01443710832162,42.6773919402554],[14.01442888286572,42.67740289951097]]]},"properties":{"TYPE":"Centerline"}},{"type":"Feature","id":7,"geometry":{"type":"Polygon","coordinates":[[[14.014270812777312,42.67760649855016],[14.014280371413404,42.67759407252795],[14.014281826278584,42.677594653606626],[14.01427246025472,42.67760708128656],[14.014270812777312,42.67760649855016]]]},"properties":{"TYPE":"Centerline"}},{"type":"Feature","id":8,"geometry":{"type":"Polygon","coordinates":[[[14.012720878521595,42.67730427357555],[14.012721207801734,42.67730441223948],[14.012719995506071,42.67730585481667],[14.012719748699089,42.677305750775375],[14.012720878521595,42.67730427357555]]]},"properties":{"TYPE":"Direction"}},{"type":"Feature","id":9,"geometry":{"type":"Polygon","coordinates":[[[14.013627132734419,42.67766766794302],[14.01364292367462,42.677647895582716],[14.013990994741047,42.67779328771629],[14.013981947303702,42.677804838173564],[14.013981457928617,42.67780909076438],[14.013981846355257,42.67781122250992],[14.013952930920897,42.677823413058825],[14.013628067645008,42.67768751295867],[14.013627132734419,42.67766766794302]]]},"properties":{"TYPE":"Parking"}},{"type":"Feature","id":10,"geometry":{"type":"Polygon","coordinates":[[[14.013978552775761,42.67788852645877],[14.014003674759264,42.67789895200125],[14.013882068187527,42.67805978919965],[14.013856837829506,42.67804892252091],[14.013978552775761,42.67788852645877]]]},"properties":{"TYPE":"Parking"}},{"type":"Feature","id":11,"geometry":{"type":"Polygon","coordinates":[[[14.014256498149056,42.67770462454727],[14.014250681824477,42.67770210126279],[14.014276697922197,42.67766978940855],[14.014281961754014,42.677672082030064],[14.014256498149056,42.67770462454727]]]},"properties":{"TYPE":"Marcha a piedi"}},{"type":"Feature","id":12,"geometry":{"type":"Polygon","coordinates":[[[14.014235216251388,42.67769579930552],[14.014229399928507,42.67769327601997],[14.014255416033397,42.6776609641706],[14.014260679863675,42.67766325679308],[14.014235216251388,42.67769579930552]]]},"properties":{"TYPE":"Marcha a piedi"}},{"type":"Feature","id":13,"geometry":{"type":"Polygon","coordinates":[[[14.012915032816148,42.67730745330312],[14.012902730499025,42.67731042320018],[14.012900072451652,42.67730083171833],[14.012906438104922,42.67730353192824],[14.012920521032367,42.677285400903266],[14.012922473916099,42.677286298016064],[14.012908323932418,42.67730449653205],[14.012915032816148,42.67730745330312]]]},"properties":{"TYPE":"Direction"}},{"type":"Feature","id":14,"geometry":{"type":"Polygon","coordinates":[[[14.014074422773861,42.67796735303972],[14.013986054412847,42.678082529924595],[14.01396232854784,42.67807231905395],[14.014050144788698,42.677957089112326],[14.014074422773861,42.67796735303972]]]},"properties":{"TYPE":"Parking"}},{"type":"Feature","id":15,"geometry":{"type":"Polygon","coordinates":[[[14.014254846481146,42.67762699981071],[14.014264405123615,42.67761457378994],[14.014265859989116,42.67761515486883],[14.01425649395894,42.67762758254735],[14.014254846481146,42.67762699981071]]]},"properties":{"TYPE":"Centerline"}},{"type":"Feature","id":16,"geometry":{"type":"Polygon","coordinates":[[[14.014524195777224,42.677277525807504],[14.014522665444803,42.67727684458487],[14.014617732358657,42.67715253513113],[14.01461921577299,42.677153152820374],[14.014524195777224,42.677277525807504]]]},"properties":{"TYPE":"Centerline"}},{"type":"Feature","id":17,"geometry":{"type":"Polygon","coordinates":[[[14.013286860829252,42.67682268193217],[14.013274558625165,42.676825651870566],[14.013271900539712,42.67681606039616],[14.01327826616037,42.676818760585306],[14.01329234886844,42.67680062951088],[14.01329430174259,42.67680152661731],[14.013280151979213,42.67681972518299],[14.013286860829252,42.67682268193217]]]},"properties":{"TYPE":"Direction"}},{"type":"Feature","id":18,"geometry":{"type":"Polygon","coordinates":[[[14.014210667892193,42.67774439008278],[14.014198476128733,42.67774759878222],[14.014195475533436,42.67773806246726],[14.014201935700843,42.67774063763383],[14.014215364568672,42.677722238383595],[14.01421734890898,42.67772309711103],[14.014203855424618,42.67774156513603],[14.014210667892193,42.67774439008278]]]},"properties":{"TYPE":"Direction"}},{"type":"Feature","id":19,"geometry":{"type":"Polygon","coordinates":[[[14.013876991564116,42.67781929484804],[14.013872816973764,42.677810254293476],[14.013885782773123,42.6778081763401],[14.013882201042476,42.677812905850544],[14.013906943370873,42.6778230754826],[14.013905751409478,42.67782452726065],[14.013880916801813,42.67781430897564],[14.013876991564116,42.67781929484804]]]},"properties":{"TYPE":"Direction"}},{"type":"Feature","id":20,"geometry":{"type":"Polygon","coordinates":[[[14.014444572001961,42.67729381273343],[14.014438661666487,42.67729131869677],[14.014463554952961,42.677259499563654],[14.014468818757457,42.67726179217646],[14.014444572001961,42.67729381273343]]]},"properties":{"TYPE":"Marcha a piedi"}},{"type":"Feature","id":21,"geometry":{"type":"Polygon","coordinates":[[[14.014465112303977,42.67725357280155],[14.014560141532481,42.67712855448521],[14.014587499839015,42.67713994640135],[14.01449159177773,42.67726505808957],[14.014465112303977,42.67725357280155]]]},"properties":{"TYPE":"Parking"}},{"type":"Feature","id":22,"geometry":{"type":"Polygon","coordinates":[[[14.01408218168331,42.67785675790952],[14.014080574521312,42.67785606180575],[14.014086315207061,42.677848748389394],[14.014087692132396,42.67784938565546],[14.01408218168331,42.67785675790952]]]},"properties":{"TYPE":"Centerline"}},{"type":"Feature","id":23,"geometry":{"type":"Polygon","coordinates":[[[14.014551039864786,42.677337276298914],[14.014545237554566,42.67733478183351],[14.014569956742214,42.67730408030343],[14.014575220554443,42.67730637291141],[14.014551039864786,42.677337276298914]]]},"properties":{"TYPE":"Marcha a piedi"}},{"type":"Feature","id":24,"geometry":{"type":"Polygon","coordinates":[[[14.014171057023091,42.67766966199298],[14.014165240705283,42.677667138704216],[14.014191256831992,42.677634826869486],[14.014196520657668,42.67763711949488],[14.014171057023091,42.67766966199298]]]},"properties":{"TYPE":"Marcha a piedi"}},{"type":"Feature","id":25,"geometry":{"type":"Polygon","coordinates":[[[14.014149270670433,42.677705775563815],[14.014057200965622,42.67782721871666],[14.014034612729342,42.677818066296176],[14.014145830606598,42.677670529356206],[14.014168469831525,42.6776804512005],[14.014149270670433,42.677705775563815]]]},"properties":{"TYPE":"Parking"}},{"type":"Feature","id":26,"geometry":{"type":"Polygon","coordinates":[[[14.014213780269973,42.67768697273371],[14.014207963948799,42.67768444944709],[14.014233980060938,42.6776521376026],[14.014239243889671,42.677654430226056],[14.014213780269973,42.67768697273371]]]},"properties":{"TYPE":"Marcha a piedi"}},{"type":"Feature","id":27,"geometry":{"type":"Polygon","coordinates":[[[14.014508345042938,42.67731965764664],[14.014502504830258,42.677317199792206],[14.014527552612362,42.67728609017028],[14.014532816421491,42.67728838278018],[14.014508345042938,42.67731965764664]]]},"properties":{"TYPE":"Marcha a piedi"}},{"type":"Feature","id":28,"geometry":{"type":"Polygon","coordinates":[[[14.014529324143826,42.67732827494232],[14.014523449673417,42.67732586538055],[14.014548372147068,42.677294911380216],[14.014553635957718,42.67729720398917],[14.014529324143826,42.67732827494232]]]},"properties":{"TYPE":"Marcha a piedi"}},{"type":"Feature","id":29,"geometry":{"type":"Polygon","coordinates":[[[14.014465157736112,42.67730235012158],[14.01445936423583,42.677299859826064],[14.014484209599974,42.67726900163655],[14.014489473406044,42.67727129424843],[14.014465157736112,42.67730235012158]]]},"properties":{"TYPE":"Marcha a piedi"}},{"type":"Feature","id":30,"geometry":{"type":"Polygon","coordinates":[[[14.014441557118035,42.67738644081368],[14.014439949963952,42.67738574471498],[14.014448252909348,42.67737475769741],[14.014449782569496,42.6773754815571],[14.014441557118035,42.67738644081368]]]},"properties":{"TYPE":"Centerline"}},{"type":"Feature","id":31,"geometry":{"type":"Polygon","coordinates":[[[14.01422450005722,42.67769127232391],[14.0142186837352,42.67768874903783],[14.014244699843667,42.677656437190905],[14.014249963673162,42.677658729813864],[14.01422450005722,42.67769127232391]]]},"properties":{"TYPE":"Marcha a piedi"}},{"type":"Feature","id":32,"geometry":{"type":"Polygon","coordinates":[[[14.014655170484232,42.67716812425344],[14.01468022320716,42.67717855613154],[14.014592404565551,42.6772927329655],[14.014568530198119,42.677282179806774],[14.014655170484232,42.67716812425344]]]},"properties":{"TYPE":"Parking"}},{"type":"Feature","id":33,"geometry":{"type":"Polygon","coordinates":[[[14.014487017127975,42.677310891382916],[14.014481178728598,42.67730842961702],[14.014506270817137,42.677277264979324],[14.014511534624724,42.67727955759019],[14.014487017127975,42.677310891382916]]]},"properties":{"TYPE":"Marcha a piedi"}},{"type":"Feature","id":34,"geometry":{"type":"Polygon","coordinates":[[[14.014201771671097,42.67771299350678],[14.014213864183873,42.67770958647453],[14.014217150122194,42.677719071446205],[14.014210614287597,42.677716602420304],[14.014197740662667,42.67773521648544],[14.014195731047739,42.67773439037674],[14.014208667211015,42.67771570649881],[14.014201771671097,42.67771299350678]]]},"properties":{"TYPE":"Direction"}},{"type":"Feature","id":35,"geometry":{"type":"Polygon","coordinates":[[[14.01404698092651,42.67790133250623],[14.01404828215564,42.67790188383745],[14.013916293637282,42.6780745300514],[14.013914921212494,42.67807393895002],[14.01404698092651,42.67790133250623]]]},"properties":{"TYPE":"Centerline"}},{"type":"Feature","id":36,"geometry":{"type":"Polygon","coordinates":[[[14.014469804573032,42.67734944329276],[14.014468197419577,42.67734874719447],[14.014476500354984,42.67733776017467],[14.014478030014567,42.677338484033996],[14.014469804573032,42.67734944329276]]]},"properties":{"TYPE":"Centerline"}},{"type":"Feature","id":37,"geometry":{"type":"Polygon","coordinates":[[[14.01295306648795,42.67738633476342],[14.01300918524644,42.677409775200616],[14.012996506811703,42.67742724528252],[14.012941277383836,42.677404042570835],[14.01295306648795,42.67738633476342]]]},"properties":{"TYPE":"Parking"}},{"type":"Feature","id":38,"geometry":{"type":"Polygon","coordinates":[[[14.014720094618486,42.678118284602775],[14.014706740160399,42.678133200987226],[14.014594759149201,42.678088060673325],[14.014610436933433,42.67806875085551],[14.014720094618486,42.678118284602775]]]},"properties":{"TYPE":"Parking"}},{"type":"Feature","id":39,"geometry":{"type":"Polygon","coordinates":[[[14.014203058686881,42.677682786838695],[14.014197242366537,42.67768026355154],[14.0142232584824,42.6776479517095],[14.014228522310379,42.67765024433344],[14.014203058686881,42.677682786838695]]]},"properties":{"TYPE":"Marcha a piedi"}},{"type":"Feature","id":40,"geometry":{"type":"Polygon","coordinates":[[[14.014197107030919,42.677705775563815],[14.0140925147022,42.677842892063055],[14.014091022209307,42.67784225380229],[14.014209286043469,42.67768731615871],[14.01421070148901,42.67768795375484],[14.014197107030919,42.677705775563815]]]},"properties":{"TYPE":"Centerline"}},{"type":"Feature","id":41,"geometry":{"type":"Polygon","coordinates":[[[14.013163808074626,42.67695070134158],[14.013145270342235,42.67697335371346],[14.013084137792164,42.67694842669537],[14.013084654357963,42.676947738215674],[14.013139709917898,42.67697014354525],[14.013154552556053,42.676951744577245],[14.013155679457254,42.676952208614104],[14.013157523789989,42.676952522997404],[14.01315914205103,42.67695251561884],[14.013160475107968,42.676952271252674],[14.013161783658934,42.67695174950314],[14.013163808074626,42.67695070134158]]]},"properties":{"TYPE":"Segnaletica verticale"}},{"type":"Feature","id":42,"geometry":{"type":"Polygon","coordinates":[[[14.01445795094505,42.678029327814045],[14.014462194589651,42.67803835085242],[14.014449244830931,42.678040482730125],[14.014452790367248,42.678035738389525],[14.014427970615914,42.6780256718775],[14.014429151466427,42.67802421516265],[14.014454063867037,42.67803432994235],[14.01445795094505,42.678029327814045]]]},"properties":{"TYPE":"Direction"}},{"type":"Feature","id":43,"geometry":{"type":"Polygon","coordinates":[[[14.014264094828135,42.67772036351003],[14.01415035162967,42.67786806871286],[14.014126016173282,42.67785653880477],[14.01424144768237,42.67771016198019],[14.014264094828135,42.67772036351003]]]},"properties":{"TYPE":"Parking"}},{"type":"Feature","id":44,"geometry":{"type":"Polygon","coordinates":[[[14.014285445039521,42.677587520914315],[14.014295003669742,42.67757509489079],[14.014296458534623,42.677575675969265],[14.014287092516573,42.67758810365051],[14.014285445039521,42.677587520914315]]]},"properties":{"TYPE":"Centerline"}},{"type":"Feature","id":45,"geometry":{"type":"Polygon","coordinates":[[[14.013418649100066,42.67709176232196],[14.013422705448589,42.677100832122896],[14.013409713276296,42.67710281784225],[14.01341335653204,42.677098114003755],[14.013388748384127,42.67708776901217],[14.013389959226519,42.67708632577227],[14.013414659012579,42.67709672006981],[14.013418649100066,42.67709176232196]]]},"properties":{"TYPE":"Direction"}},{"type":"Feature","id":46,"geometry":{"type":"Polygon","coordinates":[[[14.01416141227683,42.677665599073855],[14.0141555959598,42.677663075784615],[14.014181612089729,42.67763076395209],[14.014186875914701,42.677633056577925],[14.01416141227683,42.677665599073855]]]},"properties":{"TYPE":"Marcha a piedi"}},{"type":"Feature","id":47,"geometry":{"type":"Polygon","coordinates":[[[14.013029789365389,42.676900384431924],[14.013069824287248,42.67691689146993],[14.013057529435887,42.67693361860686],[14.013016992297707,42.67691711610972],[14.013029789365389,42.676900384431924]]]},"properties":{"TYPE":"Parking"}},{"type":"Feature","id":48,"geometry":{"type":"Polygon","coordinates":[[[14.014052595684275,42.67789553476751],[14.014050988521621,42.67789483866332],[14.01405672921447,42.67788752524857],[14.014058106140345,42.677888162515],[14.014052595684275,42.67789553476751]]]},"properties":{"TYPE":"Centerline"}},{"type":"Feature","id":49,"geometry":{"type":"Polygon","coordinates":[[[14.01454087853141,42.677333216900315],[14.014534812998372,42.67733072153335],[14.014558473738889,42.67729931933239],[14.01456373755029,42.6773016119409],[14.01454087853141,42.677333216900315]]]},"properties":{"TYPE":"Marcha a piedi"}},{"type":"Feature","id":50,"geometry":{"type":"Polygon","coordinates":[[[14.01457545367366,42.6775718627232],[14.014563261962143,42.67757507146209],[14.014560261318689,42.67756553515593],[14.014566721483805,42.67756811030197],[14.014580150206688,42.67754971100695],[14.014582134546693,42.677550569728076],[14.014568641207854,42.67756903779808],[14.01457545367366,42.6775718627232]]]},"properties":{"TYPE":"Direction"}},{"type":"Feature","id":51,"geometry":{"type":"Polygon","coordinates":[[[14.0128846181627,42.67741799785088],[14.012903484440896,42.67739190527112],[14.01295970784729,42.67741597345423],[14.012959124303261,42.67741658111155],[14.012908837573145,42.67739523125801],[14.012891566275748,42.67741768110311],[14.012889378658143,42.67741698739111],[14.012887760710374,42.67741697344762],[14.012886031492933,42.67741732193087],[14.0128846181627,42.67741799785088]]]},"properties":{"TYPE":"Segnaletica verticale"}},{"type":"Feature","id":52,"geometry":{"type":"Polygon","coordinates":[[[14.014062510549518,42.67788251484439],[14.014060903387085,42.67788181874035],[14.01406664407755,42.67787450532506],[14.014068021003245,42.67787514259137],[14.014062510549518,42.67788251484439]]]},"properties":{"TYPE":"Centerline"}},{"type":"Feature","id":53,"geometry":{"type":"Polygon","coordinates":[[[14.014455408049427,42.677368138702334],[14.014453800895657,42.67736744260383],[14.014462103836133,42.67735645558516],[14.014463633496,42.677357179444684],[14.014455408049427,42.677368138702334]]]},"properties":{"TYPE":"Centerline"}},{"type":"Feature","id":54,"geometry":{"type":"Polygon","coordinates":[[[14.014072502905112,42.67786946715949],[14.014070895742897,42.6778687710556],[14.014076636430973,42.67786145763975],[14.014078013356485,42.677862094905954],[14.014072502905112,42.67786946715949]]]},"properties":{"TYPE":"Centerline"}},{"type":"Feature","id":55,"geometry":{"type":"Polygon","coordinates":[[[14.01424593424439,42.67770021258995],[14.014240117920657,42.677697689304935],[14.014266134021923,42.67766537745311],[14.014271397852974,42.6776676700751],[14.01424593424439,42.67770021258995]]]},"properties":{"TYPE":"Marcha a piedi"}},{"type":"Feature","id":56,"geometry":{"type":"Polygon","coordinates":[[[14.013033117514468,42.677444263486436],[14.013029008810934,42.67743520652061],[14.01304198946776,42.677433179975814],[14.01303837338745,42.6774378952247],[14.013063041188017,42.67744816275365],[14.013061838684482,42.67744960978739],[14.01303707896067,42.6774392932405],[14.013033117514468,42.677444263486436]]]},"properties":{"TYPE":"Direction"}},{"type":"Feature","id":57,"geometry":{"type":"Polygon","coordinates":[[[14.014476610540118,42.67730683545602],[14.014470762632813,42.67730439148575],[14.014495697982294,42.677273421526316],[14.014500961789164,42.67727571413767],[14.014476610540118,42.67730683545602]]]},"properties":{"TYPE":"Marcha a piedi"}},{"type":"Feature","id":58,"geometry":{"type":"Polygon","coordinates":[[[14.014181934488903,42.677673735520955],[14.01417611817027,42.67767121223274],[14.014202134293127,42.67763890039553],[14.014207398119554,42.67764119302042],[14.014181934488903,42.677673735520955]]]},"properties":{"TYPE":"Marcha a piedi"}},{"type":"Feature","id":59,"geometry":{"type":"Polygon","coordinates":[[[14.014497463248526,42.67731547833234],[14.014491619560095,42.67731302457333],[14.014516676987254,42.67728190297908],[14.014521940795621,42.67728419558949],[14.014497463248526,42.67731547833234]]]},"properties":{"TYPE":"Marcha a piedi"}},{"type":"Feature","id":60,"geometry":{"type":"Polygon","coordinates":[[[14.014454017275328,42.67729796435867],[14.014448345306453,42.677295293294065],[14.014473342964921,42.67726424596024],[14.014478606770181,42.6772665385726],[14.014454017275328,42.67729796435867]]]},"properties":{"TYPE":"Marcha a piedi"}},{"type":"Feature","id":61,"geometry":{"type":"Polygon","coordinates":[[[14.01430150401512,42.67756959810319],[14.014299974801304,42.677568845817454],[14.014423263678923,42.67740792446959],[14.014424717193467,42.67740859081859],[14.01430150401512,42.67756959810319]]]},"properties":{"TYPE":"Centerline"}},{"type":"Feature","id":62,"geometry":{"type":"Polygon","coordinates":[[[14.014269411772647,42.677705775563815],[14.014266999362562,42.67770885862742],[14.014261183037156,42.67770633534348],[14.014287199131289,42.67767402348684],[14.014292462963855,42.67767631610788],[14.014269411772647,42.677705775563815]]]},"properties":{"TYPE":"Marcha a piedi"}},{"type":"Feature","id":63,"geometry":{"type":"Polygon","coordinates":[[[14.014518929031405,42.677324043854675],[14.014513202032418,42.67732144611193],[14.014538116467827,42.67729050210143],[14.014543380277724,42.67729279471086],[14.014518929031405,42.677324043854675]]]},"properties":{"TYPE":"Marcha a piedi"}}]}