{"type":"FeatureCollection","features":[{"type":"Feature","id":0,"geometry":{"type":"Point","coordinates":[-133.23641361631834,63.19250430288942]},"properties":{"MINFILE_ID":13723,"NUMBER":"105N 014","LABEL":"Tongue - 105N 014","NAME":"Tongue","FULL_LABEL":"105N 014 Tongue (Cu-W)","DEP_TYPE":"Skarn W","DEP_STATUS":"Prospect","PRODUCER":"N","COMMODITY":"copper, tungsten","DOC_LINK":"https://data.geology.gov.yk.ca/Occurrence/13723","NTSMAP250K":"105N03","LAT_DD":63.1925,"LONG_DD":-133.23639}},{"type":"Feature","id":1,"geometry":{"type":"Point","coordinates":[-133.92002379470793,63.30861418665642]},"properties":{"MINFILE_ID":13722,"NUMBER":"105N 013","LABEL":"Pleasant - 105N 013","NAME":"Pleasant","FULL_LABEL":"105N 013 Pleasant (Cu-Pb-Ag-W-Zn-Au)","DEP_TYPE":"Skarn W","DEP_STATUS":"Showing","PRODUCER":"N","COMMODITY":"copper, lead, silver, tungsten, zinc, gold","DOC_LINK":"https://data.geology.gov.yk.ca/Occurrence/13722","NTSMAP250K":"105N05","LAT_DD":63.30861,"LONG_DD":-133.92}},{"type":"Feature","id":2,"geometry":{"type":"Point","coordinates":[-130.09558278246092,62.67889482317868]},"properties":{"MINFILE_ID":13420,"NUMBER":"105J 014","LABEL":"Prevost - 105J 014","NAME":"Prevost","FULL_LABEL":"105J 014 Prevost (W)","DEP_TYPE":"Skarn W","DEP_STATUS":"Prospect","PRODUCER":"N","COMMODITY":"tungsten","DOC_LINK":"https://data.geology.gov.yk.ca/Occurrence/13420","NTSMAP250K":"105J09","LAT_DD":62.67889,"LONG_DD":-130.09556}},{"type":"Feature","id":3,"geometry":{"type":"Point","coordinates":[-131.52883293679287,62.61165459346765]},"properties":{"MINFILE_ID":13413,"NUMBER":"105J 007","LABEL":"Dragon - 105J 007","NAME":"Dragon","FULL_LABEL":"105J 007 Dragon (Cu-W-Pb-Ag-Au)","DEP_TYPE":"Skarn W","DEP_STATUS":"Prospect","PRODUCER":"N","COMMODITY":"copper, tungsten, lead, silver, gold","DOC_LINK":"https://data.geology.gov.yk.ca/Occurrence/13413","NTSMAP250K":"105J12","LAT_DD":62.61165,"LONG_DD":-131.52881}},{"type":"Feature","id":4,"geometry":{"type":"Point","coordinates":[-129.91974281692748,62.756674850628144]},"properties":{"MINFILE_ID":13405,"NUMBER":"105I 064","LABEL":"Rook - 105I 064","NAME":"Rook","FULL_LABEL":"105I 064 Rook (Cu-W-Zn)","DEP_TYPE":"Skarn W","DEP_STATUS":"Showing","PRODUCER":"N","COMMODITY":"copper, tungsten, zinc","DOC_LINK":"https://data.geology.gov.yk.ca/Occurrence/13405","NTSMAP250K":"105I13","LAT_DD":62.75667,"LONG_DD":-129.91972}},{"type":"Feature","id":5,"geometry":{"type":"Point","coordinates":[-129.6844627809062,62.75639488860108]},"properties":{"MINFILE_ID":13404,"NUMBER":"105I 059","LABEL":"Pheasco - 105I 059","NAME":"Pheasco","FULL_LABEL":"105I 059 Pheasco","DEP_TYPE":"Skarn W","DEP_STATUS":"Anomaly","PRODUCER":"N","COMMODITY":" ","DOC_LINK":"https://data.geology.gov.yk.ca/Occurrence/13404","NTSMAP250K":"105I13","LAT_DD":62.75639,"LONG_DD":-129.68444}},{"type":"Feature","id":6,"geometry":{"type":"Point","coordinates":[-130.06835228079657,62.00611483731964]},"properties":{"MINFILE_ID":13442,"NUMBER":"105J 036","LABEL":"Gulf - 105J 036","NAME":"Gulf","FULL_LABEL":"105J 036 Gulf (Cu-W)","DEP_TYPE":"Skarn W","DEP_STATUS":"Showing","PRODUCER":"N","COMMODITY":"copper, tungsten","DOC_LINK":"https://data.geology.gov.yk.ca/Occurrence/13442","NTSMAP250K":"105J01","LAT_DD":62.00611,"LONG_DD":-130.06833}},{"type":"Feature","id":7,"geometry":{"type":"Point","coordinates":[-126.69363081448623,60.619445372637124]},"properties":{"MINFILE_ID":12514,"NUMBER":"095D 018","LABEL":"Oudder - 095D 018","NAME":"Oudder","FULL_LABEL":"095D 018 Oudder (W)","DEP_TYPE":"Skarn W","DEP_STATUS":"Anomaly","PRODUCER":"N","COMMODITY":"tungsten","DOC_LINK":"https://data.geology.gov.yk.ca/Occurrence/12514","NTSMAP250K":"95D10","LAT_DD":60.61944,"LONG_DD":-126.69361}},{"type":"Feature","id":8,"geometry":{"type":"Point","coordinates":[-127.43141113593146,60.93139525913233]},"properties":{"MINFILE_ID":12518,"NUMBER":"095D 022","LABEL":"Herpes - 095D 022","NAME":"Herpes","FULL_LABEL":"095D 022 Herpes (W)","DEP_TYPE":"Skarn W","DEP_STATUS":"Unknown","PRODUCER":"N","COMMODITY":"tungsten","DOC_LINK":"https://data.geology.gov.yk.ca/Occurrence/12518","NTSMAP250K":"95D14","LAT_DD":60.93139,"LONG_DD":-127.43139}},{"type":"Feature","id":9,"geometry":{"type":"Point","coordinates":[-127.13308137629865,61.366945304008226]},"properties":{"MINFILE_ID":12527,"NUMBER":"095E 005","LABEL":"Iso - 095E 005","NAME":"Iso","FULL_LABEL":"095E 005 Iso (W-Cu)","DEP_TYPE":"Skarn W","DEP_STATUS":"Prospect","PRODUCER":"N","COMMODITY":"tungsten, copper","DOC_LINK":"https://data.geology.gov.yk.ca/Occurrence/12527","NTSMAP250K":"95E06","LAT_DD":61.36694,"LONG_DD":-127.13306}},{"type":"Feature","id":10,"geometry":{"type":"Point","coordinates":[-127.73780161084781,61.56556520886649]},"properties":{"MINFILE_ID":12531,"NUMBER":"095E 021","LABEL":"Caeser - 095E 021","NAME":"Caeser","FULL_LABEL":"095E 021 Caeser (W)","DEP_TYPE":"Skarn W","DEP_STATUS":"Showing","PRODUCER":"N","COMMODITY":"tungsten","DOC_LINK":"https://data.geology.gov.yk.ca/Occurrence/12531","NTSMAP250K":"95E12","LAT_DD":61.56556,"LONG_DD":-127.73778}},{"type":"Feature","id":11,"geometry":{"type":"Point","coordinates":[-127.4075214682291,61.438065260517504]},"properties":{"MINFILE_ID":12533,"NUMBER":"095E 027","LABEL":"Dooshka - 095E 027","NAME":"Dooshka","FULL_LABEL":"095E 027 Dooshka (Cu-Au-Zn-Ag-W-Pb)","DEP_TYPE":"Skarn W","DEP_STATUS":"Prospect","PRODUCER":"N","COMMODITY":"copper, gold, zinc, silver, tungsten, lead","DOC_LINK":"https://data.geology.gov.yk.ca/Occurrence/12533","NTSMAP250K":"95E06","LAT_DD":61.43806,"LONG_DD":-127.4075}},{"type":"Feature","id":12,"geometry":{"type":"Point","coordinates":[-130.53613139143425,60.604174779199155]},"properties":{"MINFILE_ID":12631,"NUMBER":"105B 046","LABEL":"Tung - 105B 046","NAME":"Tung","FULL_LABEL":"105B 046 Tung (Mo-W)","DEP_TYPE":"Skarn W","DEP_STATUS":"Showing","PRODUCER":"N","COMMODITY":"molybdenum, tungsten","DOC_LINK":"https://data.geology.gov.yk.ca/Occurrence/12631","NTSMAP250K":"105B10","LAT_DD":60.60417,"LONG_DD":-130.53611}},{"type":"Feature","id":13,"geometry":{"type":"Point","coordinates":[-130.25308136382623,60.62389482349871]},"properties":{"MINFILE_ID":12632,"NUMBER":"105B 047","LABEL":"Cabin - 105B 047","NAME":"Cabin","FULL_LABEL":"105B 047 Cabin (W)","DEP_TYPE":"Skarn W","DEP_STATUS":"Anomaly","PRODUCER":"N","COMMODITY":"tungsten","DOC_LINK":"https://data.geology.gov.yk.ca/Occurrence/12632","NTSMAP250K":"105B09","LAT_DD":60.62389,"LONG_DD":-130.25306}},{"type":"Feature","id":14,"geometry":{"type":"Point","coordinates":[-130.63474114001414,60.18833476810264]},"properties":{"MINFILE_ID":12680,"NUMBER":"105B 097","LABEL":"Urp - 105B 097","NAME":"Urp","FULL_LABEL":"105B 097 Urp (Cu-fl-Pb-Zn-Ag-W-Mo)","DEP_TYPE":"Skarn W","DEP_STATUS":"Showing","PRODUCER":"N","COMMODITY":"copper, fluorite, lead, zinc, silver, tungsten, molybdenum","DOC_LINK":"https://data.geology.gov.yk.ca/Occurrence/12680","NTSMAP250K":"105B02","LAT_DD":60.18833,"LONG_DD":-130.63472}},{"type":"Feature","id":15,"geometry":{"type":"Point","coordinates":[-130.7703015039799,60.72722474135333]},"properties":{"MINFILE_ID":12687,"NUMBER":"105B 104","LABEL":"Team - 105B 104","NAME":"Team","FULL_LABEL":"105B 104 Team (Zn-W)","DEP_TYPE":"Skarn W","DEP_STATUS":"Showing","PRODUCER":"N","COMMODITY":"zinc, tungsten","DOC_LINK":"https://data.geology.gov.yk.ca/Occurrence/12687","NTSMAP250K":"105B10","LAT_DD":60.72722,"LONG_DD":-130.77028}},{"type":"Feature","id":16,"geometry":{"type":"Point","coordinates":[-130.3433512766796,60.46750481115622]},"properties":{"MINFILE_ID":12689,"NUMBER":"105B 106","LABEL":"Ursus - 105B 106","NAME":"Ursus","FULL_LABEL":"105B 106 Ursus (W-Sn)","DEP_TYPE":"Skarn W","DEP_STATUS":"Showing","PRODUCER":"N","COMMODITY":"tungsten, tin","DOC_LINK":"https://data.geology.gov.yk.ca/Occurrence/12689","NTSMAP250K":"105B08","LAT_DD":60.4675,"LONG_DD":-130.34333}},{"type":"Feature","id":17,"geometry":{"type":"Point","coordinates":[-127.10446115363085,61.04028530901852]},"properties":{"MINFILE_ID":12535,"NUMBER":"095E 031","LABEL":"Ivo - 095E 031","NAME":"Ivo","FULL_LABEL":"095E 031 Ivo (W)","DEP_TYPE":"Skarn W","DEP_STATUS":"Prospect","PRODUCER":"N","COMMODITY":"tungsten","DOC_LINK":"https://data.geology.gov.yk.ca/Occurrence/12535","NTSMAP250K":"95E03","LAT_DD":61.04028,"LONG_DD":-127.10444}},{"type":"Feature","id":18,"geometry":{"type":"Point","coordinates":[-127.62752153809092,61.487225226103746]},"properties":{"MINFILE_ID":12536,"NUMBER":"095E 032","LABEL":"Upper Coal - 095E 032","NAME":"Upper Coal","FULL_LABEL":"095E 032 Upper Coal (W)","DEP_TYPE":"Skarn W","DEP_STATUS":"Prospect","PRODUCER":"N","COMMODITY":"tungsten","DOC_LINK":"https://data.geology.gov.yk.ca/Occurrence/12536","NTSMAP250K":"95E05","LAT_DD":61.48722,"LONG_DD":-127.6275}},{"type":"Feature","id":19,"geometry":{"type":"Point","coordinates":[-127.07530122946234,61.1622253131422]},"properties":{"MINFILE_ID":12538,"NUMBER":"095E 034","LABEL":"Sneet - 095E 034","NAME":"Sneet","FULL_LABEL":"095E 034 Sneet (W)","DEP_TYPE":"Skarn W","DEP_STATUS":"Anomaly","PRODUCER":"N","COMMODITY":"tungsten","DOC_LINK":"https://data.geology.gov.yk.ca/Occurrence/12538","NTSMAP250K":"95E03","LAT_DD":61.16222,"LONG_DD":-127.07528}},{"type":"Feature","id":20,"geometry":{"type":"Point","coordinates":[-127.2369613919166,61.36667528739101]},"properties":{"MINFILE_ID":12540,"NUMBER":"095E 036","LABEL":"Royall - 095E 036","NAME":"Royall","FULL_LABEL":"095E 036 Royall (W)","DEP_TYPE":"Skarn W","DEP_STATUS":"Prospect","PRODUCER":"N","COMMODITY":"tungsten","DOC_LINK":"https://data.geology.gov.yk.ca/Occurrence/12540","NTSMAP250K":"95E06","LAT_DD":61.36667,"LONG_DD":-127.23694}},{"type":"Feature","id":21,"geometry":{"type":"Point","coordinates":[-127.19085138718923,61.370565294947866]},"properties":{"MINFILE_ID":12542,"NUMBER":"095E 039","LABEL":"Komish - 095E 039","NAME":"Komish","FULL_LABEL":"095E 039 Komish (W-Cu)","DEP_TYPE":"Skarn W","DEP_STATUS":"Showing","PRODUCER":"N","COMMODITY":"tungsten, copper","DOC_LINK":"https://data.geology.gov.yk.ca/Occurrence/12542","NTSMAP250K":"95E06","LAT_DD":61.37056,"LONG_DD":-127.19083}},{"type":"Feature","id":22,"geometry":{"type":"Point","coordinates":[-127.19224135492063,61.32056529497232]},"properties":{"MINFILE_ID":12543,"NUMBER":"095E 040","LABEL":"Vner - 095E 040","NAME":"Vner","FULL_LABEL":"095E 040 Vner (W)","DEP_TYPE":"Skarn W","DEP_STATUS":"Anomaly","PRODUCER":"N","COMMODITY":"tungsten","DOC_LINK":"https://data.geology.gov.yk.ca/Occurrence/12543","NTSMAP250K":"95E06","LAT_DD":61.32056,"LONG_DD":-127.19222}},{"type":"Feature","id":23,"geometry":{"type":"Point","coordinates":[-128.7672413016463,60.86278505240392]},"properties":{"MINFILE_ID":12563,"NUMBER":"105A 019","LABEL":"Canada - 105A 019","NAME":"Canada","FULL_LABEL":"105A 019 Canada (W)","DEP_TYPE":"Skarn W","DEP_STATUS":"Showing","PRODUCER":"N","COMMODITY":"tungsten","DOC_LINK":"https://data.geology.gov.yk.ca/Occurrence/12563","NTSMAP250K":"105A15","LAT_DD":60.86278,"LONG_DD":-128.76722}},{"type":"Feature","id":24,"geometry":{"type":"Point","coordinates":[-130.4305810792224,60.13333480019271]},"properties":{"MINFILE_ID":12594,"NUMBER":"105B 004","LABEL":"Fiddler - 105B 004","NAME":"Fiddler","FULL_LABEL":"105B 004 Fiddler (Cu-Pb-Ag-W-Zn)","DEP_TYPE":"Skarn W","DEP_STATUS":"Prospect","PRODUCER":"N","COMMODITY":"copper, lead, silver, tungsten, zinc","DOC_LINK":"https://data.geology.gov.yk.ca/Occurrence/12594","NTSMAP250K":"105B01","LAT_DD":60.13333,"LONG_DD":-130.43056}},{"type":"Feature","id":25,"geometry":{"type":"Point","coordinates":[-130.92863152904175,60.7330647168847]},"properties":{"MINFILE_ID":12698,"NUMBER":"105B 115","LABEL":"Stoneaxe - 105B 115","NAME":"Stoneaxe","FULL_LABEL":"105B 115 Stoneaxe (W-Zn)","DEP_TYPE":"Skarn W","DEP_STATUS":"Prospect","PRODUCER":"N","COMMODITY":"tungsten, zinc","DOC_LINK":"https://data.geology.gov.yk.ca/Occurrence/12698","NTSMAP250K":"105B10","LAT_DD":60.73306,"LONG_DD":-130.92861}},{"type":"Feature","id":26,"geometry":{"type":"Point","coordinates":[-130.40780138520682,60.62278479955702]},"properties":{"MINFILE_ID":12709,"NUMBER":"105B 126","LABEL":"Electricity - 105B 126","NAME":"Electricity","FULL_LABEL":"105B 126 Electricity (Pb-Mo-U-Ta-W-REE)","DEP_TYPE":"Skarn W","DEP_STATUS":"Showing","PRODUCER":"N","COMMODITY":"lead, molybdenum, uranium, tantalum, tungsten, rare earths","DOC_LINK":"https://data.geology.gov.yk.ca/Occurrence/12709","NTSMAP250K":"105B09","LAT_DD":60.62278,"LONG_DD":-130.40778}},{"type":"Feature","id":27,"geometry":{"type":"Point","coordinates":[-134.0789122753448,61.26222420965932]},"properties":{"MINFILE_ID":13015,"NUMBER":"105E 030","LABEL":"Salmon - 105E 030","NAME":"Salmon","FULL_LABEL":"105E 030 Salmon (W)","DEP_TYPE":"Skarn W","DEP_STATUS":"Showing","PRODUCER":"N","COMMODITY":"tungsten","DOC_LINK":"https://data.geology.gov.yk.ca/Occurrence/13015","NTSMAP250K":"105E08","LAT_DD":61.26222,"LONG_DD":-134.07889}},{"type":"Feature","id":28,"geometry":{"type":"Point","coordinates":[-133.23724246762237,61.6758343358328]},"properties":{"MINFILE_ID":13078,"NUMBER":"105F 033","LABEL":"Ham - 105F 033","NAME":"Ham","FULL_LABEL":"105F 033 Ham (W)","DEP_TYPE":"Skarn W","DEP_STATUS":"Prospect","PRODUCER":"N","COMMODITY":"tungsten","DOC_LINK":"https://data.geology.gov.yk.ca/Occurrence/13078","NTSMAP250K":"105F11","LAT_DD":61.67583,"LONG_DD":-133.23722}},{"type":"Feature","id":29,"geometry":{"type":"Point","coordinates":[-133.45530269428892,61.953894294950864]},"properties":{"MINFILE_ID":13082,"NUMBER":"105F 037","LABEL":"Eva - 105F 037","NAME":"Eva","FULL_LABEL":"105F 037 Eva (Cu-W-Pb-Au)","DEP_TYPE":"Skarn W","DEP_STATUS":"Prospect","PRODUCER":"N","COMMODITY":"copper, tungsten, lead, gold","DOC_LINK":"https://data.geology.gov.yk.ca/Occurrence/13082","NTSMAP250K":"105F14","LAT_DD":61.95389,"LONG_DD":-133.45528}},{"type":"Feature","id":30,"geometry":{"type":"Point","coordinates":[-131.05613210629062,61.5636146858227]},"properties":{"MINFILE_ID":13253,"NUMBER":"105G 097","LABEL":"Fog - 105G 097","NAME":"Fog","FULL_LABEL":"105G 097 Fog (W)","DEP_TYPE":"Skarn W","DEP_STATUS":"Showing","PRODUCER":"N","COMMODITY":"tungsten","DOC_LINK":"https://data.geology.gov.yk.ca/Occurrence/13253","NTSMAP250K":"105G11","LAT_DD":61.56361,"LONG_DD":-131.05611}},{"type":"Feature","id":31,"geometry":{"type":"Point","coordinates":[-128.30613151237958,61.28889512141611]},"properties":{"MINFILE_ID":13317,"NUMBER":"105H 025","LABEL":"Stu - 105H 025","NAME":"Stu","FULL_LABEL":"105H 025 Stu (Cu)","DEP_TYPE":"Skarn W","DEP_STATUS":"Showing","PRODUCER":"N","COMMODITY":"copper","DOC_LINK":"https://data.geology.gov.yk.ca/Occurrence/13317","NTSMAP250K":"105H08","LAT_DD":61.28889,"LONG_DD":-128.30611}},{"type":"Feature","id":32,"geometry":{"type":"Point","coordinates":[-128.1616915032792,61.309445144333964]},"properties":{"MINFILE_ID":13318,"NUMBER":"105H 026","LABEL":"Terry - 105H 026","NAME":"Terry","FULL_LABEL":"105H 026 Terry (W)","DEP_TYPE":"Skarn W","DEP_STATUS":"Prospect","PRODUCER":"N","COMMODITY":"tungsten","DOC_LINK":"https://data.geology.gov.yk.ca/Occurrence/13318","NTSMAP250K":"105H08","LAT_DD":61.30944,"LONG_DD":-128.16167}},{"type":"Feature","id":33,"geometry":{"type":"Point","coordinates":[-128.35946164439457,61.46917511203171]},"properties":{"MINFILE_ID":13322,"NUMBER":"105H 030","LABEL":"Montse - 105H 030","NAME":"Montse","FULL_LABEL":"105H 030 Montse (W)","DEP_TYPE":"Skarn W","DEP_STATUS":"Unknown","PRODUCER":"N","COMMODITY":"tungsten","DOC_LINK":"https://data.geology.gov.yk.ca/Occurrence/13322","NTSMAP250K":"105H08","LAT_DD":61.46917,"LONG_DD":-128.35944}},{"type":"Feature","id":34,"geometry":{"type":"Point","coordinates":[-128.60224169707504,61.490835073995854]},"properties":{"MINFILE_ID":13324,"NUMBER":"105H 032","LABEL":"Helen - 105H 032","NAME":"Helen","FULL_LABEL":"105H 032 Helen (Bi-W-Ag-Au)","DEP_TYPE":"Skarn W","DEP_STATUS":"Anomaly","PRODUCER":"N","COMMODITY":"bismuth, tungsten, silver, gold","DOC_LINK":"https://data.geology.gov.yk.ca/Occurrence/13324","NTSMAP250K":"105H07","LAT_DD":61.49083,"LONG_DD":-128.60222}},{"type":"Feature","id":35,"geometry":{"type":"Point","coordinates":[-133.09252255167496,61.81917435615481]},"properties":{"MINFILE_ID":13120,"NUMBER":"105F 078","LABEL":"Pimple - 105F 078","NAME":"Pimple","FULL_LABEL":"105F 078 Pimple (Cu-Mo-W)","DEP_TYPE":"Skarn W","DEP_STATUS":"Showing","PRODUCER":"N","COMMODITY":"copper, molybdenum, tungsten","DOC_LINK":"https://data.geology.gov.yk.ca/Occurrence/13120","NTSMAP250K":"105F14","LAT_DD":61.81917,"LONG_DD":-133.0925}},{"type":"Feature","id":36,"geometry":{"type":"Point","coordinates":[-133.1625224296192,61.635564348335336]},"properties":{"MINFILE_ID":13126,"NUMBER":"105F 084","LABEL":"Lap - 105F 084","NAME":"Lap","FULL_LABEL":"105F 084 Lap (W)","DEP_TYPE":"Skarn W","DEP_STATUS":"Showing","PRODUCER":"N","COMMODITY":"tungsten","DOC_LINK":"https://data.geology.gov.yk.ca/Occurrence/13126","NTSMAP250K":"105F11","LAT_DD":61.63556,"LONG_DD":-133.1625}},{"type":"Feature","id":37,"geometry":{"type":"Point","coordinates":[-133.4694623310514,61.44222430352052]},"properties":{"MINFILE_ID":13134,"NUMBER":"105F 092","LABEL":"Ayduck - 105F 092","NAME":"Ayduck","FULL_LABEL":"105F 092 Ayduck (W)","DEP_TYPE":"Skarn W","DEP_STATUS":"Prospect","PRODUCER":"N","COMMODITY":"tungsten","DOC_LINK":"https://data.geology.gov.yk.ca/Occurrence/13134","NTSMAP250K":"105F06","LAT_DD":61.44222,"LONG_DD":-133.46944}},{"type":"Feature","id":38,"geometry":{"type":"Point","coordinates":[-133.30696237260108,61.52889432731535]},"properties":{"MINFILE_ID":13139,"NUMBER":"105F 098","LABEL":"First - 105F 098","NAME":"First","FULL_LABEL":"105F 098 First (Cu-Zn-Ag-Pb)","DEP_TYPE":"Skarn W","DEP_STATUS":"Showing","PRODUCER":"N","COMMODITY":"copper, zinc, silver, lead","DOC_LINK":"https://data.geology.gov.yk.ca/Occurrence/13139","NTSMAP250K":"105F11","LAT_DD":61.52889,"LONG_DD":-133.30694}},{"type":"Feature","id":39,"geometry":{"type":"Point","coordinates":[-133.43946258431845,61.806394300687465]},"properties":{"MINFILE_ID":13155,"NUMBER":"105F 114","LABEL":"Big Sam - 105F 114","NAME":"Big Sam","FULL_LABEL":"105F 114 Big Sam (W)","DEP_TYPE":"Skarn W","DEP_STATUS":"Prospect","PRODUCER":"N","COMMODITY":"tungsten","DOC_LINK":"https://data.geology.gov.yk.ca/Occurrence/13155","NTSMAP250K":"105F14","LAT_DD":61.80639,"LONG_DD":-133.43944}},{"type":"Feature","id":40,"geometry":{"type":"Point","coordinates":[-134.2722431412205,62.42722415108064]},"properties":{"MINFILE_ID":13604,"NUMBER":"105L 040","LABEL":"Felix - 105L 040","NAME":"Felix","FULL_LABEL":"105L 040 Felix (Zn-W)","DEP_TYPE":"Skarn W","DEP_STATUS":"Prospect","PRODUCER":"N","COMMODITY":"zinc, tungsten","DOC_LINK":"https://data.geology.gov.yk.ca/Occurrence/13604","NTSMAP250K":"105L08","LAT_DD":62.42722,"LONG_DD":-134.27222}},{"type":"Feature","id":41,"geometry":{"type":"Point","coordinates":[-135.38196410996366,63.487223939888786]},"properties":{"MINFILE_ID":13666,"NUMBER":"105M 038","LABEL":"Two Buttes - 105M 038","NAME":"Two Buttes","FULL_LABEL":"105M 038 Two Buttes (W)","DEP_TYPE":"Skarn W","DEP_STATUS":"Prospect","PRODUCER":"N","COMMODITY":"tungsten","DOC_LINK":"https://data.geology.gov.yk.ca/Occurrence/13666","NTSMAP250K":"105M06","LAT_DD":63.48722,"LONG_DD":-135.38194}},{"type":"Feature","id":42,"geometry":{"type":"Point","coordinates":[-128.93863196151295,61.79778501803821]},"properties":{"MINFILE_ID":13335,"NUMBER":"105H 043","LABEL":"Guy - 105H 043","NAME":"Guy","FULL_LABEL":"105H 043 Guy (Cu-W)","DEP_TYPE":"Skarn W","DEP_STATUS":"Showing","PRODUCER":"N","COMMODITY":"copper, tungsten","DOC_LINK":"https://data.geology.gov.yk.ca/Occurrence/13335","NTSMAP250K":"105H15","LAT_DD":61.79778,"LONG_DD":-128.93861}},{"type":"Feature","id":43,"geometry":{"type":"Point","coordinates":[-129.86613220648852,61.94361486989387]},"properties":{"MINFILE_ID":13341,"NUMBER":"105H 049","LABEL":"Narchilla - 105H 049","NAME":"Narchilla","FULL_LABEL":"105H 049 Narchilla (Cu-Au-Pb-Ag-Zn)","DEP_TYPE":"Skarn W","DEP_STATUS":"Prospect","PRODUCER":"N","COMMODITY":"copper, gold, lead, silver, zinc","DOC_LINK":"https://data.geology.gov.yk.ca/Occurrence/13341","NTSMAP250K":"105H13","LAT_DD":61.94361,"LONG_DD":-129.86611}},{"type":"Feature","id":44,"geometry":{"type":"Point","coordinates":[-129.4041921132107,61.9094449435979]},"properties":{"MINFILE_ID":13343,"NUMBER":"105H 051","LABEL":"Yusezyu - 105H 051","NAME":"Yusezyu","FULL_LABEL":"105H 051 Yusezyu (Cu-W)","DEP_TYPE":"Skarn W","DEP_STATUS":"Showing","PRODUCER":"N","COMMODITY":"copper, tungsten","DOC_LINK":"https://data.geology.gov.yk.ca/Occurrence/13343","NTSMAP250K":"105H14","LAT_DD":61.90944,"LONG_DD":-129.40417}},{"type":"Feature","id":45,"geometry":{"type":"Point","coordinates":[-128.96780201299262,61.86389501318199]},"properties":{"MINFILE_ID":13346,"NUMBER":"105H 055","LABEL":"Zeus - 105H 055","NAME":"Zeus","FULL_LABEL":"105H 055 Zeus (Cu-Pb-Zn-W-Ag)","DEP_TYPE":"Skarn W","DEP_STATUS":"Showing","PRODUCER":"N","COMMODITY":"copper, lead, zinc, tungsten, silver","DOC_LINK":"https://data.geology.gov.yk.ca/Occurrence/13346","NTSMAP250K":"105H15","LAT_DD":61.86389,"LONG_DD":-128.96778}},{"type":"Feature","id":46,"geometry":{"type":"Point","coordinates":[-128.8847420061956,61.87194502602021]},"properties":{"MINFILE_ID":13347,"NUMBER":"105H 056","LABEL":"Carbide - 105H 056","NAME":"Carbide","FULL_LABEL":"105H 056 Carbide (Mo-W)","DEP_TYPE":"Skarn W","DEP_STATUS":"Showing","PRODUCER":"N","COMMODITY":"molybdenum, tungsten","DOC_LINK":"https://data.geology.gov.yk.ca/Occurrence/13347","NTSMAP250K":"105H15","LAT_DD":61.87194,"LONG_DD":-128.88472}},{"type":"Feature","id":47,"geometry":{"type":"Point","coordinates":[-128.06085185403043,61.84194515585583]},"properties":{"MINFILE_ID":13350,"NUMBER":"105H 059","LABEL":"Bus - 105H 059","NAME":"Bus","FULL_LABEL":"105H 059 Bus (Cu-Mo-W-Zn)","DEP_TYPE":"Skarn W","DEP_STATUS":"Prospect","PRODUCER":"N","COMMODITY":"copper, molybdenum, tungsten, zinc","DOC_LINK":"https://data.geology.gov.yk.ca/Occurrence/13350","NTSMAP250K":"105H16","LAT_DD":61.84194,"LONG_DD":-128.06083}},{"type":"Feature","id":48,"geometry":{"type":"Point","coordinates":[-128.32752161376635,61.43361511736028]},"properties":{"MINFILE_ID":13355,"NUMBER":"105H 068","LABEL":"Susan - 105H 068","NAME":"Susan","FULL_LABEL":"105H 068 Susan (Cu-Pb-Zn-W-Ag)","DEP_TYPE":"Skarn W","DEP_STATUS":"Prospect","PRODUCER":"N","COMMODITY":"copper, lead, zinc, tungsten, silver","DOC_LINK":"https://data.geology.gov.yk.ca/Occurrence/13355","NTSMAP250K":"105H08","LAT_DD":61.43361,"LONG_DD":-128.3275}},{"type":"Feature","id":49,"geometry":{"type":"Point","coordinates":[-128.65613187781324,61.74028506312879]},"properties":{"MINFILE_ID":13357,"NUMBER":"105H 070","LABEL":"Cali - 105H 070","NAME":"Cali","FULL_LABEL":"105H 070 Cali (Cu-W-Ag)","DEP_TYPE":"Skarn W","DEP_STATUS":"Prospect","PRODUCER":"N","COMMODITY":"copper, tungsten, silver","DOC_LINK":"https://data.geology.gov.yk.ca/Occurrence/13357","NTSMAP250K":"105H10","LAT_DD":61.74028,"LONG_DD":-128.65611}},{"type":"Feature","id":50,"geometry":{"type":"Point","coordinates":[-129.19780203303029,61.843064977426955]},"properties":{"MINFILE_ID":13359,"NUMBER":"105H 072","LABEL":"Woah - 105H 072","NAME":"Woah","FULL_LABEL":"105H 072 Woah (W)","DEP_TYPE":"Skarn W","DEP_STATUS":"Prospect","PRODUCER":"N","COMMODITY":"tungsten","DOC_LINK":"https://data.geology.gov.yk.ca/Occurrence/13359","NTSMAP250K":"105H14","LAT_DD":61.84306,"LONG_DD":-129.19778}},{"type":"Feature","id":51,"geometry":{"type":"Point","coordinates":[-129.00974203395327,61.88333500648944]},"properties":{"MINFILE_ID":13364,"NUMBER":"105H 077","LABEL":"Zeut - 105H 077","NAME":"Zeut","FULL_LABEL":"105H 077 Zeut (W)","DEP_TYPE":"Skarn W","DEP_STATUS":"Showing","PRODUCER":"N","COMMODITY":"tungsten","DOC_LINK":"https://data.geology.gov.yk.ca/Occurrence/13364","NTSMAP250K":"105H14","LAT_DD":61.88333,"LONG_DD":-129.00972}},{"type":"Feature","id":52,"geometry":{"type":"Point","coordinates":[-128.89030201315413,61.881395025618104]},"properties":{"MINFILE_ID":13369,"NUMBER":"105H 084","LABEL":"Chap - 105H 084","NAME":"Chap","FULL_LABEL":"105H 084 Chap (Cu-Pb-W-Zn)","DEP_TYPE":"Skarn W","DEP_STATUS":"Showing","PRODUCER":"N","COMMODITY":"copper, lead, tungsten, zinc","DOC_LINK":"https://data.geology.gov.yk.ca/Occurrence/13369","NTSMAP250K":"105H15","LAT_DD":61.88139,"LONG_DD":-128.89028}},{"type":"Feature","id":53,"geometry":{"type":"Point","coordinates":[-129.03724198348348,61.807225002943404]},"properties":{"MINFILE_ID":13371,"NUMBER":"105H 086","LABEL":"Cerro - 105H 086","NAME":"Cerro","FULL_LABEL":"105H 086 Cerro (Cu-Mo-W)","DEP_TYPE":"Skarn W","DEP_STATUS":"Showing","PRODUCER":"N","COMMODITY":"copper, molybdenum, tungsten","DOC_LINK":"https://data.geology.gov.yk.ca/Occurrence/13371","NTSMAP250K":"105H14","LAT_DD":61.80722,"LONG_DD":-129.03722}},{"type":"Feature","id":54,"geometry":{"type":"Point","coordinates":[-129.24585204433487,61.84778496962291]},"properties":{"MINFILE_ID":13373,"NUMBER":"105H 088","LABEL":"Billings - 105H 088","NAME":"Billings","FULL_LABEL":"105H 088 Billings (Mo-W)","DEP_TYPE":"Skarn W","DEP_STATUS":"Showing","PRODUCER":"N","COMMODITY":"molybdenum, tungsten","DOC_LINK":"https://data.geology.gov.yk.ca/Occurrence/13373","NTSMAP250K":"105H14","LAT_DD":61.84778,"LONG_DD":-129.24583}},{"type":"Feature","id":55,"geometry":{"type":"Point","coordinates":[-129.0728018954779,61.6741749988671]},"properties":{"MINFILE_ID":13380,"NUMBER":"105H 098","LABEL":"Anderson - 105H 098","NAME":"Anderson","FULL_LABEL":"105H 098 Anderson (W)","DEP_TYPE":"Skarn W","DEP_STATUS":"Showing","PRODUCER":"N","COMMODITY":"tungsten","DOC_LINK":"https://data.geology.gov.yk.ca/Occurrence/13380","NTSMAP250K":"105H11","LAT_DD":61.67417,"LONG_DD":-129.07278}},{"type":"Feature","id":56,"geometry":{"type":"Point","coordinates":[-134.81585329496784,62.547224059311866]},"properties":{"MINFILE_ID":13586,"NUMBER":"105L 022","LABEL":"Tummel - 105L 022","NAME":"Tummel","FULL_LABEL":"105L 022 Tummel (W)","DEP_TYPE":"Skarn W","DEP_STATUS":"Showing","PRODUCER":"N","COMMODITY":"tungsten","DOC_LINK":"https://data.geology.gov.yk.ca/Occurrence/13586","NTSMAP250K":"105L10","LAT_DD":62.54722,"LONG_DD":-134.81583}},{"type":"Feature","id":57,"geometry":{"type":"Point","coordinates":[-139.65808308200042,61.67944329332363]},"properties":{"MINFILE_ID":14139,"NUMBER":"115G 063","LABEL":"Eleven-Thirty - 115G 063","NAME":"Eleven-Thirty","FULL_LABEL":"115G 063 Eleven-Thirty (W)","DEP_TYPE":"Skarn W","DEP_STATUS":"Showing","PRODUCER":"N","COMMODITY":"tungsten","DOC_LINK":"https://data.geology.gov.yk.ca/Occurrence/14139","NTSMAP250K":"115G12","LAT_DD":61.67944,"LONG_DD":-139.65806}},{"type":"Feature","id":58,"geometry":{"type":"Point","coordinates":[-139.4972430634374,61.66750331967901]},"properties":{"MINFILE_ID":14140,"NUMBER":"115G 064","LABEL":"Kennedy - 115G 064","NAME":"Kennedy","FULL_LABEL":"115G 064 Kennedy (W)","DEP_TYPE":"Skarn W","DEP_STATUS":"Showing","PRODUCER":"N","COMMODITY":"tungsten","DOC_LINK":"https://data.geology.gov.yk.ca/Occurrence/14140","NTSMAP250K":"115G11","LAT_DD":61.6675,"LONG_DD":-139.49722}},{"type":"Feature","id":59,"geometry":{"type":"Point","coordinates":[-137.98252964101067,68.46972330089079]},"properties":{"MINFILE_ID":14929,"NUMBER":"117A 020","LABEL":"Fitton - 117A 020","NAME":"Fitton","FULL_LABEL":"117A 020 Fitton (Mo-U-W)","DEP_TYPE":"Skarn W","DEP_STATUS":"Showing","PRODUCER":"N","COMMODITY":"molybdenum, uranium, tungsten","DOC_LINK":"https://data.geology.gov.yk.ca/Occurrence/14929","NTSMAP250K":"117A07","LAT_DD":68.46972,"LONG_DD":-137.9825}},{"type":"Feature","id":60,"geometry":{"type":"Point","coordinates":[-140.1439153227508,64.38861310264107]},"properties":{"MINFILE_ID":14858,"NUMBER":"116C 137","LABEL":"Track - 116C 137","NAME":"Track","FULL_LABEL":"116C 137 Track (Be-Bi-Au-Zn-Ag-W-Pb)","DEP_TYPE":"Skarn W","DEP_STATUS":"Prospect","PRODUCER":"N","COMMODITY":"beryllium, bismuth, gold, zinc, silver, tungsten, lead","DOC_LINK":"https://data.geology.gov.yk.ca/Occurrence/14858","NTSMAP250K":"116C08","LAT_DD":64.38861,"LONG_DD":-140.14389}},{"type":"Feature","id":61,"geometry":{"type":"Point","coordinates":[-134.64641433128705,63.84778405173341]},"properties":{"MINFILE_ID":13672,"NUMBER":"105M 044","LABEL":"Roop - 105M 044","NAME":"Roop","FULL_LABEL":"105M 044 Roop","DEP_TYPE":"Skarn W","DEP_STATUS":"Showing","PRODUCER":"N","COMMODITY":" ","DOC_LINK":"https://data.geology.gov.yk.ca/Occurrence/13672","NTSMAP250K":"105M15","LAT_DD":63.84778,"LONG_DD":-134.64639}},{"type":"Feature","id":62,"geometry":{"type":"Point","coordinates":[-129.12669201652218,61.834724988081994]},"properties":{"MINFILE_ID":15007,"NUMBER":"105H 090","LABEL":"We - 105H 090","NAME":"We","FULL_LABEL":"105H 090 We (Pb-W-Zn)","DEP_TYPE":"Skarn W","DEP_STATUS":"Showing","PRODUCER":"N","COMMODITY":"lead, tungsten, zinc","DOC_LINK":"https://data.geology.gov.yk.ca/Occurrence/15007","NTSMAP250K":"105H14","LAT_DD":61.83472,"LONG_DD":-129.12667}},{"type":"Feature","id":63,"geometry":{"type":"Point","coordinates":[-129.1233519281963,61.7091749901837]},"properties":{"MINFILE_ID":15010,"NUMBER":"105H 099","LABEL":"Broten - 105H 099","NAME":"Broten","FULL_LABEL":"105H 099 Broten (W)","DEP_TYPE":"Skarn W","DEP_STATUS":"Showing","PRODUCER":"N","COMMODITY":"tungsten","DOC_LINK":"https://data.geology.gov.yk.ca/Occurrence/15010","NTSMAP250K":"105H11","LAT_DD":61.70917,"LONG_DD":-129.12333}},{"type":"Feature","id":64,"geometry":{"type":"Point","coordinates":[-129.02030192595856,61.72833500637215]},"properties":{"MINFILE_ID":15011,"NUMBER":"105H 100","LABEL":"Mini - 105H 100","NAME":"Mini","FULL_LABEL":"105H 100 Mini (W)","DEP_TYPE":"Skarn W","DEP_STATUS":"Showing","PRODUCER":"N","COMMODITY":"tungsten","DOC_LINK":"https://data.geology.gov.yk.ca/Occurrence/15011","NTSMAP250K":"105H11","LAT_DD":61.72833,"LONG_DD":-129.02028}}]}